title,address1,address2,city,state,zipcode,website,phone,tags,latitude,longitude
D'ELS BOUTIQUE,18 BALBOA STREET,,MAYAQUEZ,PR,680,,,,18.181938,-67.133802
SCANDIHOOVIANS,49 BOLTWOOD WALK,,AMHERST,MA,1002,,,,42.376476,-72.519309
"IT'S ALL ABOUT ME INC. (HAMPDEN, MA)",2 SOMERS RD.,,HAMPDEN,MA,1036,,,,42.05809,-72.441416
THE ARTISAN GALLERY,162 MAIN ST.,,NORTHAMPTON,MA,1060,,,,42.318188,-72.631004
SOLO FLIGHT INC. DBA:CASABLANCA,170 COLT ROAD,,PITTSFIELD,MA,1201,,,,42.439728,-73.251504
CAWING CROW DBA:GB9,9 RAILROAD ST.,,GREAT BARRINGTON,MA,1230,,,,42.194511,-73.363105
BYZANTIUM,32 RAILROAD ST,,GREAT BARRINGTON,MA,1230,,,,42.195027,-73.363305
EVIVA,22 WALKER ST,,LENOX,MA,1240,,,,42.356244,-73.284247
PURPLE PLUME (LENCY),35 CHURCH ST,,LENOX,MA,1240,,,,42.357617,-73.283367
MAINSTREAM BOUTIQUE (NORTHBOROUGH),290 WEST MAIN ST SUITE#3,,NORTHBOROUGH,,1532,,,,42.30786,-71.658803
IKES DEN INC,284 BOSTON TURNPIKE,,SHREWSBURY,MA,1545,,,,42.275336,-71.738621
SANDRA ANN'S BOUTIQUE,284 BOSTON TURNPIKE,,SHREWSBURY,MA,1545,,,,42.275336,-71.738621
ELEMENTS AT THE CIRCLE,10 EAST MAIN STREET,,WESTBOROUGH,MA,1581,,,,42.270155,-71.612922
FRENCH TWIST BOUTIQUE,1098 PLEASANT ST,,WORCESTER,MA,1602,,,,42.277944,-71.851908
GOULDS OF ACTON,260 GREAT ROAD,,ACTON,MA,1720,,,,42.494693,-71.417682
GULBANKIAN FLORIST,40 MT VICKERY RD.,,SOUTHBORO,MA,1772,,,,42.286361,-71.524519
SELECTIONS,435 BOSTON POST ROAD #7,,SUDBURY,MA,1776,,,,42.359686,-71.420917
IZZY'S BOUTIQUE INC.,21 BARNARD ST,,ANDOVER,MA,1810,,,,42.656173,-71.139111
GIOVANNI CAPATO,61 WINGATE STREET,,HAVERHILL,MA,1832,,,,42.773747,-71.085254
AINES BOUTIQUE,662 MAIN STREET,,READING,MA,1867,,,,42.524779,-71.10321
RADA BOUTIQUE,394 MAIN STREET,,WAKEFIELD,MA,1880,,,,42.503478,-71.070052
SoleAmour,17 Thompson Street,,Winchester,MA,1890,,,,42.45218,-71.136999
RECESS,41 CHURCH ST,,WINCHESTER,MA,1890,,,,42.451514,-71.139247
INFINITY BOUTIQUE,427 PARADISE ROAD,,SWAMPSCOTT,MA,1907,,,,42.48114,-70.901564
PARKE PLACE BOUTIQUE,42 MAIN STREET,,AMESBURY,MA,1913,,,,42.857026,-70.930727
POP GALLERY,67 MAIN ST.,,GLOUCESTER,MA,1930,,,,42.612307,-70.66485
NORTH COAST TOO,40 UNION ST,,MANCHESTER,MA,1944,,,,42.575284,-70.770041
IRRESISTIBLES,7 HAWKES STREET,,MARBLEHEAD,MA,1945,,,,42.500204,-70.856435
SMITTEN,23 INN STREET,,NEWBURYPORT,MA,1950,,,,42.810519,-70.870391
STUFF,25 LIME STREET,,NEWBURYPORT,ME,1950,,,,42.808479,-70.863675
ULTIMATE,168 NEWBURY ST,,PEABODY,MA,1960,,,,42.540549,-70.987563
FOUR CHIMNEYS BY THE SEA,25 DOCK SQUARE,,ROCKPORT,MA,1966,,,,42.658738,-70.617343
WILLOUGHBYS (FOUR OF WANDS INC),20F MAIN STREET,,ROCKPORT,MA,1966,,,,42.65816,-70.618631
PINK TULIP,15 DEPOT CT,,COHASSET,MA,2025,,,,42.240942,-70.803134
FIESTA GIFTS DBA BUTTEFLYTREE(,505 MAIN STREET,,MEDFIELD,MA,2052,,,,42.186469,-71.30663
FINE FEATHER,74 MAIN ST,,MEDWAY,MA,2053,,,,42.15205,-71.413126
BOLINE BOUTIQUE INC,426 WASHINGTON ST.,,NORWELL,MA,2061,,,,42.159572,-70.855801
FRAN'S FASHIONS,48 WILLIAMS RD.,,SHARON,MA,2067,,,,42.105991,-71.136377
THE LUXURY LEG WEAR,106 SOUTH MAIN ST.,,SHARON,MA,2067,,,,42.119724,-71.18101
SEA STORES INC/ALIKAT,1 SOUTH MARKET BUILDING,,BOSTON,MA,2109,,,,42.359614,-71.056035
BETSY JENNEY,114 NEWBURY ST.,,BOSTON,MA,2116,,,,42.35115,-71.07592
CAMBRIDGE SELECT INC.,"50 TERMINAL ST, STE 514",,CHARLESTOWN,MA,2129,,,,42.382368,-71.060809
MILTONS INC. THE STORE FOR MEN,"250 GRANITE ST., STE 208",,BRAINTREE,MA,2184,,,,42.219092,-71.025607
ADH ENT. INC DBA: DENISE HAJJAR BOUTIQUE,510 ATLANTIC AVE. STE A,,BOSTON,MA,2210,,,,42.35421,-71.052014
B I DEACONESS GIFT SHOP,1 DEACONESS ROAD,,BOSTON,MA,2215,,,,42.3378,-71.10908
PORT CARGO,2071 WASHINGTON ST,,HANOVER,MA,2339,,,,42.156308,-70.848705
POSH,285 WASHINGTON ST,,N. EASTON,MA,2356,,,,42.067161,-71.088474
COLLECTIONS ON COURT,2 COURT STREET,,PLYMOUTH,MA,2360,,,,41.956999,-70.665531
"THE STUDIO (BROOKLINE, MA)",233 HARVARD ST,,BROOKLINE,MA,2446,,,,42.340805,-71.120702
SHOE HORN INC.,317 WALNUT ST.,,NEWTONVILLE,MA,2460,,,,42.350023,-71.207088
SHARON FASHION,32 LINCOLN ST,,NEWTON,MA,2461,,,,42.321389,-71.207249
W.O.W. INC.,14 NEEDHAM ST,,NEWTON,MA,2461,,,,42.316094,-71.209413
ARTWEAR,185 MASSACHUSETTS AVE.,,ARLINGTON,MA,2474,,,,42.405822,-71.141965
THIRTY PETALS,34 LEONARD ST,,BELMONT,MA,2478,,,,42.397144,-71.175899
CHATFIELD TAYLOR,120 CHURCH ST,,WESTON,MA,2493,,,,42.375911,-71.28839
LOLA TORTOLA,205 BOSTON POST RD,,WESTON,MA,2493,,,,42.368233,-71.280255
TREASURE CHEST GIFTS,233 MAIN ST,,FALMOUTH,MA,2540,,,,41.551958,-70.615795
ANDI CAROLE,20 SEA ST,,HYANNIS,MA,2601,,,,41.64853,-70.290564
LA BODEGA,1075 MAIN ST,,BREWSTER,MA,2631,,,,41.754061,-70.11023
THE RED BARN,48 MAIN STREET,,ORLEANS,MA,2653,,,,41.787238,-69.990242
WARDROBE,213 COMMERCIAL ST,,PROVINCETOWN,MA,2657,,,,42.049121,-70.188728
MIRROR BOUTIQUE,32 WHITMAN LANE,,NORTH ATTLEBORO,MA,2760,,,,41.980511,-71.315994
DENIS CLOSET,767 MAIN RD,,WESTPORT,MA,2790,,,,41.581697,-71.089876
SEVAN ENTERPRISES DBA:SONYA'S,766 OAKLAWN AVE.,,CRANSTON,RI,2920,,,,41.751701,-71.477122
FRESH OF NASHUA,178 MAIN ST,,NASHUA,NH,3060,,,,42.760724,-71.46496
ELIZABETH KARL BOUTIQUE,127 ROCKINGHAM ROAD,,WINDHAM,NH,3087,,,,42.835213,-71.258425
GONDWANA & DIVINE CLOTHING,13 N MAIN STREET,,CONCORD,NH,3301,,,,43.283128,-71.602387
CRAFTWORKS,67 MAIN STREET,,BRIDGTON,ME,4009,,,,44.054775,-70.711177
WYLERS GALLERY,150 MAINE STREET,,BRUNSWICK,ME,4011,,,,43.914244,-69.965237
GREEN TANGERINE,2 COTTAGEWOOD LANE,,KENNEBUNK,ME,4043,,,,43.355964,-70.503644
MOTIFS,221 COMMERCIAL ST.,,PORTLAND,ME,4101,,,,43.655364,-70.253983
CARLA BELLA,469 FORE ST,,PORTLAND,ME,4101,,,,43.655617,-70.25557
CAPE MADRAS,14 LEDGEWOOD LANE,,CAPE ELIZABETH,ME,4107,,,,43.577333,-70.210811
BELLA FIORE,76 SABATTUS STREET,,LEWISTON,ME,4240,,,,44.100276,-70.211214
BOHEMIAN ROSE,106 FRONT ST,,BATH,ME,4530,,,,43.913524,-69.814305
PIZAZZ,360 MAIN STREET,,SOUTHWEST HARBOR,ME,4679,,,,44.279375,-68.326008
EARTH BOUND,109 MAIN ST,,WATERMILLE,ME,4901,,,,44.550292,-69.629956
OODLES,85 NORTH MAIN STREET SUITE 105,,WHITE RIVER JUNCTION,VT,5001,,,,43.649651,-72.320564
FAT HAT CLOTHING CO,1 QUECHEE MAIN STREET,,QUECHEE,VT,5059,,,,43.652633,-72.391271
"PANACHE (BENNINGTON, VT)",530 MAIN STREET,,BENNINGTON,VT,5201,,,,42.878237,-73.193617
MARILYNS,115 COLLEGE STREET,,BURLINGTON,VT,5401,,,,44.476791,-73.215197
DAFFODIL,153 PEARL ST,,ESSEX JUNCTION,VT,5452,,,,44.49788,-73.126711
EVERYWEAR FOR EVERYBODY,233 MAIN ST,,VERGENNES,VT,5491,,,,44.166716,-73.254383
ADDISON FOUR CORNERS STORE,4934 RT 22A,,ADDISON,VT,5491,,,,44.089568,-73.30235
BAILEY ROAD,44 MAIN ST.,,MONTPELIER,VT,5602,,,,44.259412,-72.576215
ADORN,27 STATE ST,,MONTPELIER,VT,5602,,,,44.260454,-72.576265
BLUE MOON,43 CENTER STREET,,BRANDON,VT,5733,,,,43.799599,-73.088727
EFFIEDUDLEY,183 BIRCH LANE,,KILLINGTON,VT,5751,,,,43.646997,-72.791917
SHAPIROS,131 CHURCH STREET,,ORWELL,VT,5760,,,,43.798351,-73.29761
BODYTALK,51 EAST MAIN STREET,,AVON,CT,6001,,,,41.806522,-72.825753
FASHION AFFAIR,5 E. CAMPBELL ST.,,ARLINGTON HEIGHTS,IL,6005,,,,42.082714,-87.982678
"COCO'S COTTAGE (WOODSTOCK, CT)",253 ROUTE 171,,S. WOODSTOCK,CT,6281,,,,41.940615,-72.072942
CATHERINE M (STONEWEAR CLOTHING),33 W MAIN ST,,MYSTIC,CT,6355,,,,41.354366,-71.971485
COUNTRY SHOP,684 BOSTON POST RD,,MADISON,CT,6443,,,,41.279106,-72.596526
ODEON,918 WHALLEY AVE,,NEW HAVEN,CT,6515,,,,41.32744,-72.960672
YAVAL INC DBA PASTICHE LTD,250 SOUND BEACH AVE,,OLD GREENWICH,CT,6870,,,,41.031068,-73.567412
NOUVELLE,72 HILLSDALE ROAD,,CEDAR GROVE,NJ,7009,,,,40.838538,-74.222583
580 SOUTH,580 S. LIVINGSTON AVE.,,LIVINGSTON,NJ,7039,,,,40.773709,-74.325627
DAIVAL INC. DBA: DAISY DESIGNS,513 36TH STREET,,UNION CITY,NJ,7087,,,,40.774293,-74.027897
HORNBURG CALYPSO LTD,614 PROGRESS ST.,,ELIZABETH,NJ,7201,,,,40.67105,-74.19143
OCEAN DRIVE,1430 CHESTNUT AVENUE,,HILLSIDE,NJ,7205,,,,40.70536,-74.233756
TSCILLA,681 NEWARK AVE,,ELIZABETH,NJ,7208,,,,40.679517,-74.209708
VOGUE 'M,"32-40 N, DEAN ST",,INGLEWOOD,NJ,7631,,,,40.894914,-73.974097
606,606 RIVER ROAD,,FAIR HAVEN,NJ,7704,,,,40.361339,-74.041467
JOHN SULLIVAN,39 GARFIELD AVENUE,,AVON BY THE SEA,NJ,7717,,,,40.190649,-74.011655
DARCY PARK BOUTIQUE,1723 L. STREET,,WALL,NJ,7719,,,,40.170858,-74.039264
RONNIE'S PLACE,359 STATE ROUTE 34,,MATAWAN,NJ,7747,,,,40.422279,-74.266
OCEAN GROVE TRADING,74 MAIN AVE,,OCEAN GROVE,NJ,7756,,,,40.212215,-74.008482
ANOTHER ANGLE,1108 3RD AVE.,,SPRINGLAKE,NJ,7762,,,,40.151857,-74.028287
CORAL COVE LLC.,1106 3RD AVE.,,SPRINGLAKE,NJ,7762,,,,40.151809,-74.0283
WEEZERS GIFTS,21 MAIN ST,,NETCONG,NJ,7857,,,,40.900059,-74.706295
PB&J STORES,273 ANDOVER SPARTA ROAD,,NEWTON,NJ,7860,,,,41.017781,-74.691126
MELANIA FAHIONS,517 STATE ROUTE 10 EAST,,RANDALPH,NJ,7869,,,,40.862107,-74.569775
APOGEE,52 A. SOUTH FINLEY AVE,,BASKING RIDGE,NJ,7920,,,,40.705545,-74.548664
THE PRETTY PINK ROOSTER,100 BERKELEY CIRCLE,,BASKING RIDGE,NJ,7920,,,,40.700651,-74.566599
THE PRETTY PINK ROOSTER,115 MORRISTOWN ROAD ,SUITE A,BERNARDSVILLE,New Jersey,7924,,,,40.720011,-74.559624
"POUR HOMME, LLC",3 FOREST STREET,,CHATHAM,NJ,7928,,,,40.7295,-74.418748
YOU'RE NOT IN KANSAS ANYMORE,35 PERRY STREET,,CHESTER,NJ,7930,,,,40.783793,-74.696016
THE RED TOAD,49 RT 202,,FAR HILLS,NJ,7931,,,,40.685223,-74.634864
WINDSWEPT BOUTIQUE LLC,4 EAST MAIN STREET,,MENDHAM,NJ,7945,,,,40.776158,-74.600581
LAUREN B INC.,55 SOUTH STREET,,MORRISTOWN,NJ,7960,,,,40.794769,-74.479531
FINALLY THE PERFECT GIFT,2083 ROUTE 70 EAST,,CHERRY HILL,NJ,8003,,,,39.896512,-74.949897
"12TH FLOOR, LLC.",15 NORTH 15TH ST,,SURF CITY,NJ,8008,,,,39.663718,-74.162607
REYNOLDS GARDEN SHOP,201 E. BAY AVENUE,,MANAHAWKING,NJ,8050,,,,39.691996,-74.252788
WILDFLOWERS BY CRICKET,1286 RIDGE AVE,,MANAHAWKIN,NJ,8050,,,,39.73113,-74.247007
BARBARA SIMEDILE,17 CHAUCER LANE,,MEDFORD,NJ,8055,,,,39.913008,-74.803808
QUEEN BEE BOUTIQUE,510 STROKES RD. STE A,,MEDFORD,NJ,8055,,,,39.90095,-74.8235
ROMP APPAREL,41 PIERCES POINT ROAD,,CAPE MAY COURT HOUSE,NJ,8210,,,,39.077406,-74.900445
SUN SEEKERS INC.,751 ASBURY AVENUE,,OCEAN CITY,NJ,8226,,,,39.280375,-74.574229
TALK OF THE WALK,410 S. MAIN ST.,,PLEASANTVILLE,NJ,8232,,,,39.387133,-74.526147
CHRISSIE'S BOUTIQUE NJ,3806 LANDIS AVE,,SEA ISLE CITY,NJ,8243,,,,39.157462,-74.690067
MARKLE'S INC,9425 SECOND AVE,,STONE HARBOR,NJ,8247,,,,39.054411,-74.758123
MRS B'S,7312 VENTNOR AVE,,VENTNOR CITY,NJ,8406,,,,39.33308,-74.492277
A TOUCH OF PANACHE,6419 VENTNOR AVE,,VENTNOR,NJ,8406,,,,39.338211,-74.482469
HIGHBAR BOUTIQUE,8 SOUSA CT,,E. WINDSOR,NJ,8520,,,,40.251217,-74.544224
LISA JONES,16 WITHERSPOON ST.,,PRINCETON,NJ,8542,,,,40.350258,-74.660238
LILI B'S,1378 US HIGHWAY 206,,SKILLMAN,NJ,8558,,,,40.406742,-74.650835
B&B DEPARTMENT STORES SOUTH LLC.,254 DRUM POINT RD.,,BRICK,NJ,8723,,,,40.04383,-74.118605
BERNSTEINS FASHION,9 LICOLN HIGHWAY,,EDISON,NJ,8820,,,,40.576611,-74.362616
DEBB'S BOUTIQUE,9 SEDGWICK STREET,,JAMESBURG,NJ,8831,,,,40.353651,-74.44036
SOIREE,85 W MAIN ST.,,SOMMERVILE,NJ,8876,,,,40.568876,-74.614444
"DJ LADIES APPAREL, CORP","19 W. 34TH STREET, SUITE 600",,NEW YORK,NY,10001,,,,40.749189,-73.985922
LOUNGE,1430 BROADWAY ST 905,,NEW YORK,NY,10018,,,,40.75407,-73.986746
MARY JO KEEBLE,60 W. 57 TH STREET  SUITE # 2E,,NEW YORK CITY,NY,10019,,,,40.764048,-73.976994
DANIELLA BELLAS SOUTH BOUTIQUE,64 SHARROTT AVENUE,,STATEN ISLAND,NY,10309,,,,40.522371,-74.213865
ALVARO CARRASCO,1324 OGDEN AVE,,BRONX,NY,10452,,,,40.840625,-73.925041
HARRIMAN CLOTHING CO.,186 ROUTE 17 M SUITE 3,,HARRIMAN,NY,10926,,,,41.308537,-74.1443
AVANTI,2 JOCKEY HOLLOW RD,,WARWICK,NY,10990,,,,41.234197,-74.415875
SILVER DESIGNS PLUS INC.,271-10 GRAND CENTRAL PKWY,,FLORAL PARK,NY,11005,,,,40.757582,-73.713571
BRENDA'S,4518 18TH AVE.,,BROOKLYN,NY,11204,,,,40.630072,-73.97891
LA ESQUINA FASHION,592 BUSHWICK AVE,,BROOKLYN,NY,11206,,,,40.69855,-73.934761
579,1000 PENNSYLVANIA AVENUE,,BROOKLYN,NY,11207,,,,40.654741,-73.887975
RAINBOW,1000 PENNSYLVANIA AVENUE,,BROOKLYN,NY,11207,,,,40.654741,-73.887975
FIFTH AVENUE MENSWEAR,5902 5TH AVENUE,,BROOKLYN,NY,11220,,,,40.64005,-74.015768
LESTER'S OF NEW YORK INC,2411 CONEY ISLAND AVE.,,BROOKLYN,NY,11223,,,,40.59813,-73.960965
POLAS FASHIONS,720 KINGS HWY,,BROOKLYN,NY,11223,,,,40.60622,-73.964974
TALKING FASHION,1381 CONEY ISLAND AVE.,,BROOKLYN,NY,11230,,,,40.62389,-73.964805
"SWEAT T'S AND MORE, INC",219 36TH STREET,,BROOKLYN,NY,11232,,,,40.656585,-74.007983
KK TOTAL FASHION,89 38 165TH ST,,JAMAICA,NY,11432,,,,40.706677,-73.795794
PRESAVA,270 MERRICK RD,,BALDWIN,NY,11510,,,,40.667091,-73.706922
NATIONAL WHOLESALE LIQUIDATORS,111 HEMPSTEAD TURNPIKE,,WEST HEMPSTEAD,NY,11552,,,,40.704608,-73.642338
BIRCH,28 BIRCH HILL RD,,LOCUST VALLEY,NY,11560,,,,40.875701,-73.596911
GAGA FASHION COVER GIRL FASHION,130 E PARK AVE,,LONG BEACH,NY,11561,,,,40.58818,-73.660018
STORM BOUTIQUE,2743 BEACH DRIVE,,MERRICK,NY,11566,,,,40.649521,-73.553478
TEMPTATIONS FOR HER,3175 LONG BEACH RD,,OCEANSIDE,NY,11572,,,,40.634155,-73.639701
FRANCINES FASHION BOUTIQUE,5 GREEN ST,,HUNTINGTON,NY,11743,,,,40.870764,-73.428664
CASUAL 2 DRESSY,2 RUSTIC GATE,,DIX HILLS,NY,11746,,,,40.784977,-73.35821
CINDI'S,210 JERICHO TPKE,,SYOSSET,NY,11791,,,,40.809732,-73.509079
MRTIQUE,7939 JERICHO TPKE,,WOODBURY,NY,11797,,,,40.815918,-73.476568
PENELOPE (NEW YORK),8025 JERICHO TURNPIKE,,WOODBURY,NY,11797,,,,0,0
TRULY RHE,ONE BROADWAY,,TRAY,NY,12180,,,,42.720603,-73.695323
URSULA,31 MOHAWK AVE,,WATERFORD,NY,12188,,,,42.788615,-73.683046
CIRCLES,STUYVESANT PLAZA,,ALBANY,NY,12203,,,,42.791581,-73.883285
BUMBLE BEADS BOUTIQUE,8 BIRCH HILL RD.,,ALBANY,NY,12211,,,,42.680077,-73.752662
DIG THE SHOP,89 PARTITION ST,,SAUGERTIES,NY,12477,,,,42.077509,-73.951219
WOOD STOCK DESIGN,9  TINKER ST,,WOODSTOCK,NY,12498,,,,42.040786,-74.11851
ECHO,470 MAIN STREET,,BEACON,NY,12508,,,,41.50198,-73.964503
RAMBLING ROSE LTD,73 MAIN STREET,,NEW PALTZ,NY,12561,,,,41.74806,-74.085725
JOOVAY LINGERIE INC,6423 MONTGOMERY ST,,RHINEBECK,NY,12572,,,,41.927934,-73.912998
HAVEN BOUTIQUE,49 THORNWOOD DRIVE,,POUGHKEEPSIE,NY,12603,,,,41.67497,-73.917021
LIFESTYLES.,436 BROADWAY,,SARATOGA SPRINGS,NY,12866,,,,43.082152,-73.785021
SARATOGA SADDLERY,506 BROADWAY,,SARATOGA SPRINGS,NY,12866,,,,42.904993,-73.693249
PURE PLACID,24 AMANDA DR,,LAKE PALCID,NY,12946,,,,44.305484,-74.013413
JANE MORGAN'S LITTLE HOUSE LTD.,378 MAIN ST,,AURORA,NY,13026,,,,42.754228,-76.702261
LILLIE BEAN,57 ALBANY ST,,CAZENOVIA,NY,13035,,,,42.669534,-73.742857
THE CHANGING ROOM LLC,425 SOUTH WARREN ST,,SYRACUSE,NY,13202,,,,43.046552,-76.150656
GRACIOUS HOME AND GIFTS,4650 COMMERCIAL DRIVE,,NEW HARTFORD,NY,13413,,,,43.087893,-75.31106
THE PRINCESS SHOP,9 NEW HARTFORD SHOPPING CENTER,,NEW HARTFORD,NY,13413,,,,43.078293,-75.291541
HAZEN ENTERPRISES,17 MARKET ST.,,POTSDAM,NY,13676,,,,44.669111,-74.987195
STEWARTS,85 MAIN STREET,,DELHI,NY,13753,,,,42.276709,-74.917439
CREATIVE DRESS,261 MAIN STREET,,ONEONTA,NY,13820,,,,42.455175,-75.060749
POLLYANNA AND DOT,27 SUMMIT ST.,,BATAVIA,NY,14020,,,,42.999238,-78.179049
A LILY & A SPARROW,438 MAIN ST,,MEDINA,NY,14103,,,,43.220793,-78.387269
THE WEAR HOUSE,2395 MAPLE RD,,WILLIAMSVILLE,NY,14221,,,,42.989111,-78.700805
MONTESANO'S CLOUD NINE,4178 LAKEVILLE ROAD,,GENESEO,NY,14454,,,,42.7953,-77.792706
CHANDELIERS BOUTIQUE,1 SOUTH MAIN STREET,,PITTSFORD,NY,14534,,,,43.090809,-77.515568
CHIC FEET,1835 MONROE AVENUE,,ROCHESTER,NY,14618,,,,43.127688,-77.566461
GG MY LOVE,65 ADAMS ST,,JAMESTOWN,NY,14701,,,,42.089821,-79.25364
GADO - GADO,26 MONROE ST.,,ELLICOTTVILLE,NY,14731,,,,42.27526,-78.670637
PIPS,89 EAST MARKET STREET,,CORNING,NY,14830,,,,42.142892,-77.050707
LASER & BREWER INC.,1384 DRYDEN ROAD,,ITHACA,NY,14850,,,,42.470965,-76.404021
TALLMAN'S DEPT STORE INC.,150 VILLAGE SQUARE,,PAINTED POST,NY,14870,,,,42.159007,-77.093815
SHIRLEY SHOPPE,659 3RD ST,,BEAVER,PA,15009,,,,40.694869,-80.305212
KIZMIT BOUTIQUE,1300 OAKRIDGE RD,,MCDONALD,PA,15057,,,,40.369406,-80.142678
LA PERLA,432 ALLEGHENY RIVER BLVD,,OAKMONT,PA,15139,,,,40.517145,-79.84256
SOHO OF SEWICKLEY,346 BEAVER STREET,,SEWICKLEY,PA,15143,,,,40.54135,-80.182021
ONE BRILLIANT,12 BRILLIANT AVE,,PITTSBURGH,PA,15215,,,,40.489326,-79.900798
APROPOS LLC,211 HUNT RD,,PITTSBURGH,PA,15215,,,,40.515386,-79.907596
PHYLLIS'S FASHION,602 PIKE ST,,MEADOW LANDS,PA,15347,,,,40.214929,-80.224819
FASHION SHOP,41 W HIGH ST,,WAYNESBURG,PA,15370,,,,39.896785,-80.187573
JULI'S WEARABLE ART LLC.,100 EAST PITT ST,,BEDFORD,PA,15522,,,,40.018844,-78.503832
OMNI BEDFORD SPRINGS RESORT LLC,2138 BUSINESS 220,,BEDFORD,PA,15522,,,,39.996557,-78.507683
BELLA BOUTIQUE,23 W. SECOND ST,,GREENSBURG,PA,15601,,,,40.300666,-79.547391
KAT WALK LLC,1010 AUGUSTA CIRCLE,,NORTH HUNTINGDON,PA,15642,,,,40.309482,-79.681609
THE FINERY,679 PHILADELPHIA ST,,INDIANA,PA,15701,,,,40.6231,-79.152835
JACKS,16 N. BRADY STREET,,DUBOIS,PA,15801,,,,41.118777,-78.761572
IVAN'S,29 N. ST MARYS ST,,ST MARYS,PA,15857,,,,41.428123,-78.561624
GOLD RUSH DIAMONDS & BOUTIQUE,3133 NEW GERMANY RD SUITE#72,,EBENSBURG,PA,15931,,,,40.461575,-78.751288
BOUTIQUE 16063,236 ERIN DRIVE,,CRANBERRY TWP,PA,16066,,,,40.740529,-80.073538
DIANE'S BOUTIQUE,1503 WILMINGTON ROAD,,NEW CASTLE,PA,16105,,,,41.016125,-80.3532
"THE WINNER, INC",32 WEST STATE STREET,,SHARON,PA,16146,,,,41.233263,-80.509717
"THE WOOLEN MILL, INC",257 CHESTNUT STREET,,MEADVILLE,PA,16335,,,,41.638249,-80.152869
AJ'S CLASSIC CLOTHING,2636 W. 8TH STREET,,ERIE,PA,16505,,,,42.106119,-80.142851
MAGNET APPAREL DBA: HARPERS,224 EAST COLLEGE AVE.,,STATE COLLEGE,PA,16801,,,,40.795768,-77.859595
AMARA VAY,5671 SR 49 W,,MILLS,PA,16937,,,,41.947039,-77.692604
CREATIVE ELEGANCE,2129 MARKET STREET,,CAMP HILL,PA,17011,,,,40.239892,-76.920793
"LITTLE BLACK DRESS LLC CAMP HILL, PA",1845 MARKET STREET,,CAMP HILL,PA,17011,,,,40.23972,-76.915324
PRESENCE,3580 GETTYSBURG ROAD,,CAMP HILL,PA,17011,,,,40.2239,-76.938751
THREE LITTLE BIRDS BOUTIQUE,780 CROOKED STICK DR,,MECHANICSBURG,PA,17050,,,,40.260454,-76.971964
ANNABELS,2011A LINGLESTOWN RD,,HARRISBURG,PA,17110,,,,40.328149,-76.868641
HERE'S LOOKING AT YOU,123 SOUTH MAIN ST,,CHAMBERSBURG,PA,17201,,,,39.935482,-77.661883
SHOE GALLERY ETC,1720 S QUEEN ST STE.10,,YORK,PA,17403,,,,39.942344,-76.704941
SONNIE'S SECRET LLC.,22 E. MAIN ST.,,LITITZ,PA,17543,,,,40.156939,-76.30643
TAUPE LLC,398 HARRISBURG AVE SUITE 150,,LANCASTER,PA,17603,,,,40.04787,-76.314124
COLONY CLASSICS,1605 E 3RD STREET,,WILLIAMSPORT,PA,17701,,,,41.251034,-76.97459
"IT'S ALL ABOUT ME (LEWISBURG, PA)",202 MARKET ST.,,LEWISBURG,PA,17837,,,,40.965093,-76.883963
MR. T'S MENSWEAR & TUXEDO RENTALS,118 SUNBURY STREET,,MINERSVILLE,PA,17954,,,,40.690858,-76.259365
JANE RONCORONI FINE CLOTHING,515 N NEW STREET,,BETHLEHEM,PA,18018,,,,40.620964,-75.378632
MORAVIAN BOOK SHOP,428 MAIN STREET,,BETHLEHEM,PA,18018,,,,40.619593,-75.381865
NEW YORK URBAN,627 HAMILTON STREET,,ALLENTOWN,PA,18101,,,,40.602814,-75.470778
3 WISHES INC. DBA:AMERICAN CANDLE,3414 RT 611,,BARTONSVILLE,PA,18321,,,,41.005812,-75.283786
DUNKELBERGERS SPORT OUTFITTER INC,585 MAIN STREET,,STROUDSBURG,PA,18360,,,,40.98547,-75.192825
LENORAS,316 MEADOW AVE,,SCRANTON,PA,18505,,,,41.395558,-75.652338
DUNDEE GARDENS,2407 SANS SOUCI PARKWAY,,WILKES BARRE,PA,18702,,,,41.209796,-75.977869
HEATHER BLEU HOME,181 HART AVE,,DOYLESTOWN,PA,18901,,,,40.303622,-75.132486
SAVIONI DESIGNER BTQ DBA SHAR CLOTHING,10 S. MAIN STREET,,NEW HOPE,PA,18938,,,,40.364132,-74.951303
SWARM (NEW HOPE),36 WEST BRIDGE STREET,,NEW HOPE,PA,18938,,,,40.364414,-74.952338
LOVE YOUR JEANS,128 SOUTH STATE ST,,NEWTOWN,PA,18940,,,,40.227224,-74.937142
FAMILY HERITAGE GIFT SHOP DBA SHEKALA'S,508 HARLEYSVILLE PIKE,,TELFORD,PA,18969,,,,40.306105,-75.358111
THE CRYSTAL COTTAGE BOUTIQUE,133 CHASE AVENUE,,IVYLAND,PA,18974,,,,40.210359,-75.072422
SISTERS,909 B BETHLEHEM PK,,AMBER,PA,19002,,,,40.181496,-75.227247
XTRA 101,101 E BUTTLER AVE.,,AMBER,PA,19002,,,,40.154806,-75.221537
TRENDZ & FRENDZ,1932 COUNTY LINE RD.,,HUNTINGDON VALLEY,PA,19006,,,,40.168204,-75.068404
PIPER BOUTIQUE,140 S 34TH STREET,,PHILADELPHIA,PA,19014,,,,39.953395,-75.192125
JORDAN BLAIR LLC ROWEN,225 RIGHTERS MILL RD,,GLADWYNE,PA,19035,,,,40.034713,-75.27646
GILBERT & EVANS,164 ROSE LANE,,HAVERFORD,PA,19041,,,,40.021484,-75.30027
JOAN ABRAMS,315 HUNGTINDON PIKE,,ROCKLEDGE,PA,19046,,,,40.081222,-75.089618
TULIPS  LINGERIE,419 OLD YORK,,JENKINTOWN,PA,19046,,,,40.101383,-76.986642
SCHWEONS BOYS AND FORMAL WEAR LLC,1201 BUCK RD.,,FEASTERVILLE,PA,19053,,,,40.155687,-74.999735
SORELLA BOUTIQUE,23 E. STATE STREET,,MEDIA,PA,19063,,,,39.91806,-75.388397
BOUTIQUE WAREHOUSE LLC,5001 WESTCHESTER PIKE,,NEWTOWN SQUARE,PA,19073,,,,39.955409,-75.40172
LES RICHARDS ENT DBA LR2,1625 CHESTNUT ST,,PHILADELPHIA,PA,19103,,,,39.95185,-75.168139
"DEB SHOP, INC",9401 BLUE GRASS ROAD,,PHILADELPHIA,PA,19114,,,,40.072132,-75.023348
ARTISANS,8440 GERMANTOWN AVE,,PHILADELPHIA,PA,19118,,,,40.075657,-75.206309
PACIFIC LEATHER,8617 GERMANTOWN AVE,,PHILADELPHIA,PA,19118,,,,40.077117,-75.207641
DUO SHOES & CLOTHING DBA: BOUTIQUE,2551 S 17TH ST,,PHILADELPHIA,PA,19145,,,,39.918848,-75.175628
POLKADOTS,29 LEOPARD RD,,PAOLI,PA,19301,,,,40.039837,-75.47694
JENNIFER ON THE AVENUE,722 W LANCASTER AVENUE,,BERWYN,PA,19312,,,,40.04688,-75.443789
WILLOWDALE COUNTRY STORE,694 UNIONVILLE ROAD,,KENNET SQUARE,PA,19348,,,,39.873884,-75.716272
NOTA BENE BOUTIQUE LLC.,117 W. KING ST.,,MALVERN,PA,19355,,,,40.035697,-75.516149
NANEDIBLES LLC DBA:LOLA'S,57 SOUTH 3RD ST,,OXFORD,PA,19363,,,,39.783581,-75.978919
JANE CHALFANT,123 NORTH HIGH ST,,WEST CHESTER,PA,19380,,,,39.961124,-75.605448
RUBY SLIPPERS,18 N HIGH ST,,WEST CHESTER,PA,19380,,,,39.960174,-75.605284
REFLECTIONS,117 W RIDGE PIKE,,CONSHOHOCKEN,PA,19428,,,,40.094689,-75.290371
THAT PERSONAL TOUCH,1764 READING BLVD.,,WYOMISSING,PA,19610,,,,40.322399,-75.976446
BELLA JULES LLC.,700 PENN AVE. W,,READING,PA,19611,,,,40.335599,-75.951891
LADY'S IMAGE,3910 CONCORD PIKE,,WILMINGTON,DE,19803,,,,39.807143,-75.549964
KEI ENTERPRISES DBA: CECE BOUTIQUE,1534 SETON DRIVE,,WILMINGTON,DE,19809,,,,39.771272,-75.484516
WEAR IT OUT,100 GARFIELD PARKWAY #10,,BETHANY BEACH,DE,19930,,,,38.538112,-75.055419
BEL BOUTIQUE,630 RAVEN CIRCLE,,WYOMING,DE,19934,,,,39.122969,-75.619934
COOL SPRING COTTAGE,28711 LEWES GEORGETOWN HWY,,MILTON,DE,19968,,,,38.734174,-75.241855
COTTON CLUB,149 REHOBOTH AVE #A,,REHOBOTH BEACH,DE,19971,,,,38.716454,-75.080901
THREE CROWNS,15 E. WASHINGTON ST,,MIDDLEBURG,VA,20117,,,,38.969151,-77.734568
CHRISTINE FOX,47 SOUTH THIRD ST,,WARRENTON,VA,20186,,,,38.711889,-77.794845
OCCASIONS,6155 HALLOWING PT RD.,,PRINCE FREDERICK,MD,20678,,,,38.512899,-76.660598
"CNE RETIAL LLC, DBA STILE",138 WATERFRONT STREET,,NATIONAL HARBOR,MD,20745,,,,38.785126,-77.015723
EMPORIUM CLOTHING LLC DBA:LIQUID BLUE,12426 KONDRUP DR.,,FULTON,MD,20759,,,,39.14306,-76.94545
THE LOOK BOUTIQUE LLC.,18119 TOWN CENTER DR.,,OLNEY,MD,20832,,,,39.152387,-77.061642
J MICHELLE,14401 HARVEST MOON RD,,BOYDS,MD,20841,,,,39.16078,-77.308653
HEARTBEAT,13 N. MAIN ST,,BEL AIR,MD,21014,,,,39.537029,-76.349628
URBAN PEARL,13 N MAIN ST.,,BEL AIR,MD,21014,,,,39.537029,-76.349628
AARON M COHEN &CO DBA:COHEN'S CLOTHIERS,64 CRANBROOK RD.,,COKEYSVILLE,MD,21030,,,,39.465159,-76.635524
LASTING IMPRESSIONS,10862-B YORK RD.,,HUNT VALLEY,MD,21030,,,,39.482776,-76.645088
MARYLAND SADDLERY,1310  WESTERN RUN RD,,HUNT VALLEY,MD,21030,,,,39.530148,-76.685441
CRAFT CONCEPTS,2360 WEST JOPPA ROAD,,LUTHERVILLE,MD,21093,,,,39.420282,-76.668424
GLENDA'S BOUTIQUE,10999 RED RUN BLVE,,OWINGS MILL,MD,21117,,,,39.422803,-76.806195
"COTERIE, A BOUTIQUE",147C RITCHIE HWY,,SEVERNA PARK,MD,21146,,,,39.100838,-76.564603
SIDETRACKED,10 E MAIN STREET,,WESTMINSTER,MD,21157,,,,39.574299,-76.99632
THE BEAD,824 KENILWORTH DRIVE,,TOWSON,MD,21204,,,,39.411786,-76.618957
ALKO DISTRIBUTORS INC,8801 KELSO DRIVE,,BALTIMORE,MD,21221,,,,39.333958,-76.475476
FREESIA,1643 THAMES ST,,BALTIMORE,MD,21231,,,,39.281543,-76.593409
CRESTMONT LTD,7 W. MAIN S,,FROSTBURG,MD,21532,,,,39.657713,-78.928011
LIZZY DEE,20 GOLDSBOROUGH ST,,EASTON,MD,21601,,,,38.775823,-76.076145
"E.S. HUBBERT & SON, INC.",403 SUNBURST HWY,,CAMBRIDGE,MD,21613,,,,38.56371,-76.067015
HOUSTON'S DOCKSIDE EMPORIUM,"315 HIGH ST, SUITE 101",,CHESTERTOWN,MD,21620,,,,39.209159,-76.067401
THE BLACKBIRD BOUTIQUE LLC.,314 PARK ROW,,CHESTERTONW,MD,21620,,,,39.210137,-76.066628
WALNUT & WOOL,321 HIGH ST.,,CHESTERTOWN,MD,21620,,,,39.209306,-76.067479
PARIS GREY COTTAGE,111 COCKEY LANE,,STEVENSVILLE,MD,21666,,,,38.981202,-76.31521
MOLLY'S MEANDERINGS,17 N. MARKET ST.,,FREDERICK,MD,21701,,,,39.414765,-77.411118
NANCY N,1303 S. SALISBURG BLVD,,SALISBURGE,MD,21801,,,,38.343774,-75.603442
THE DRESSING ROOM (SALISBURY),27307 EQUESTRIAN DR.,,SALISBURY,MD,21801,,,,38.354133,-75.657268
BRUDER HILL INC.,25 COMMERCE STREET,,BERLIN,MD,21811,,,,38.325471,-75.219614
LETE & CO.,304 N MAIN ST.,,BERLIN,MD,21811,,,,38.331097,-75.221099
CRAZY LADYZ,12449 OCEAN GATEWAY,,OCEAN CITY,MD,21842,,,,38.342319,-75.118811
TWO SISTERS LLC DBA:SILVER AND SASSY,122 S. MAIN ST,,NORTH EAST,MD,21901,,,,39.598719,-75.942197
RYAN ENTERPRISES INC.  JUDY RYAN,9565 BRADDOCK RD.,,FAIRFAX,VA,22032,,,,38.817416,-77.276124
SMITHS OF BERMUDA,6651 OLD DOMINION DR,,MC LEAN,VA,22101,,,,38.930837,-77.17469
CLC TA DBA: DETAILS OF OCCOQUAN,206 MILL STREET,,OCCOQUAN,VA,22125,,,,38.683744,-77.260186
GAD ABOUT GIFTS,7839 BELLEFLOWER DR,,SPRINGFIELD,VA,22152,,,,38.769684,-77.214496
CATHYS UNIQUE PURSUITS,337 COVE COLONY ROAD,,LANCASTER,VA,22503,,,,37.688463,-76.494522
THE KLOTHZ PATCH,198 MEMORIAL DRIVE,,WARSAW,VA,22572,,,,37.9558,-76.771261
SIMPLY CHARMING,25 W PICCADILLY ST,,WINCHESTER,VA,22601,,,,39.186358,-78.165795
LOWE TIDE,260 VIRGINIA STREET,,URBANNA,VA,23175,,,,37.636072,-76.576682
CIAO,1421 #1 GROVE AVENUE,,RICHMOND,VA,23220,,,,37.554177,-77.432254
D.WRIGHT CLOTHING,3310 WEST CARY ST.,,RICHMOND,VA,23221,,,,37.554998,-77.483985
PHILOSOPHIE,3132 WEST CARY STREET,,RICHMOND,VA,23221,,,,37.553759,-77.481153
SILVERPARROT BOUTIQUE,201 TOWN CENTER WEST BLVD STE # 703,,HENRICO,VA,23233,,,,37.659447,-77.626495
HANG-UPS LLC,1600 HILL TOP WEST S/C,,VIRGINIA BEACH,VA,23451,,,,36.867408,-76.007229
BEACH SPORTS DBA BIKINI HUT,3198 PACIFIC AVENUE,,VIRGINIA BEACH,VA,23451,,,,36.860283,-75.980575
LEMON CABANA,319 LASKIN RD.,,VIRGINA BEACH,VA,23451,,,,36.85877,-75.980222
NYFO BOUTIQUE,333 W. FREEMASON ST.,,NORFOLK,VA,23510,,,,36.851823,-76.295018
BEAUTY RESTORATION INC.,3584 N. MILITARY HWY,,NORFOLK,VA,23518,,,,36.892531,-76.221409
ANDERSONS GREENHOUSE INC,11250 JEFFERSON AVENUE,,NEWPORT NEWS,VA,23601,,,,37.063178,-76.467542
VELLIES BOUTIQUE SPECIALITY GIFTS,176 MORRIS CREEK ROAD,,CULLEN,VA,23934,,,,37.153466,-78.59261
BONOMOS INC.,860 UNIVERSITY CITY BLVD,,BLACKSBURG,VA,24060,,,,37.235109,-80.433226
ALPACA BY JACA,122 POINTE O  WOODS DR,,HUDDLESTON,VA,24104,,,,37.099017,-79.57432
"SERENDIPITY (BRISTOL, VA)",705 STATE STREET,,BRISTOL,VA,24201,,,,36.595225,-82.185506
MY LADIES SHOP,272 WEST MAIN STREET,,ABINGDON,VA,24210,,,,36.708807,-81.97943
PERSNICKETY IN VA,104 COURT ST,,ABINGDON,VA,24210,,,,36.712585,-81.969618
THE OMNI HOMESTEAD RESORT,7696 SAN SNEAD HWY,,HOT SPRINGS,VA,24445,,,,37.994443,-79.831593
THE FARMBASKET SHOPS INC.DBA: FARMBASKET,2008 LONGSHORE RD.,,LYNCHBURG,VA,24501,,,,37.359607,-79.141653
CARTER BATES,3700-J CANDLERS MOUNTAIN RD,,LYNCHBURG,VA,24502,,,,37.36155,-79.168446
LILLY LANE INC.,119 MALL DRIVE,,DONVILLE,VA,24540,,,,36.592253,-79.423703
RIPPE'S INC.,559 MAIN STREET,,DANVILLE,VA,24541,,,,36.586842,-79.394032
ARROW TREE BOUTIQUE,645 COPPER BEECH LANE,,WAKE FOREST,NC,24587,,,,35.975732,-78.469892
NINI'S TREASURE,355 WHARTON CIRCLE SUITE 115,,TRIADELPHIA,WV,26059,,,,40.053161,-80.604002
GAIA,45 MILLER ST.,,WINSTON SALEM,NC,27104,,,,36.094203,-80.273956
SIMPLY STERLING & CO,5275 ROBINHOOD VILLAGE DR.,,WINSTON SALEM,NC,27106,,,,36.122577,-80.366899
THE CATS MEOW,1981 US 29 BUSINESS,,REIDSVILLE,NC,27320,,,,36.381425,-79.578832
PAPARAZZI,2443 BATTLEGROUND AVE.,,GREENSBORO,NC,27408,,,,36.10391,-79.82662
DE WAYNE'S,1575 OUTLET CENTER DRIVE,,SELMA,NC,27576,,,,35.516695,-78.29836
CT WEEKENDS,437 DANIELS STREET,,RALEIGH,NC,27605,,,,35.790018,-78.661576
STYLE FINDER,6801 FALLS OF NEUSE RD.,,RALEIGH,NC,27615,,,,35.877082,-78.624479
THE FRENCH DOOR LLC.,1402 W. FIRST ST.,,KILL DEVIL HILLS,NC,27948,,,,36.017963,-75.679855
LADY VICTORIAN INC.,WEE WINKS SQUARE SHP CTR,,DUCK,NC,27949,,,,36.06461,-75.70573
MANGO'S BOUTIQUE,1677 DUCK ROAD,,DUCK,NC,27949,,,,36.174231,-75.748758
MISS LIZZIE'S,3720 NORTH CROATAN HIGHWAY,,KITTY HAWK,NC,27949,,,,36.060563,-75.690317
SHAY LESLIE BOUTIQUE,3810 N CROATAN HIGHWAY UNIT 5,,KITTY HAWK,NC,27949,,,,36.062723,-75.692011
LIL GRASS SHACK,2707 S CROATAN HWY,,NAGS HEAD,NC,27959,,,,35.982151,-75.642436
ANNE'S DRESS SHOP,349-E COPPERFIELD BLVD.,,CONCORD,NC,28025,,,,35.447859,-80.599484
SHELLEE ANN'S INC. (DBA: SILVER LINING),1433 CAMDEN DR.,,WINGATE,NC,28110,,,,34.94775,-80.413729
STITCHIN POST GIFTS,104 SOUTH MAIN ST,,SALISBURY,NC,28144,,,,35.667302,-80.47032
EL BOUTIQUE,3925 RIVERBEND RD.,,CHARLOTTE,NC,28210,,,,35.131395,-80.849472
JORDANOS,5107 PIPER STATION DR STE. E,,CHARLOTTE,NC,28277,,,,35.062724,-80.812636
THE LADIES SHOP,127 BROAD ST,,ELIZABETHTOWN,NC,28337,,,,34.628977,-78.606791
COOLSWEATS (PINEHURST),105 CHEROKEE ROAD STE. B-A,,PINEHURST,NC,28374,,,,35.194946,-79.469334
COOLSWEATS AT THE BEACH (WILMINGTON,"1051 MILITARY CUTOFF RD, SUITE 103",,WILMINGTON,NC,28405,,,,34.239627,-77.826975
VICTORIA'S RAGPATCH,10164 BEACH DR. S.W.,,CALABASH,NC,28467,,,,33.890861,-78.576864
ISLAND BREEZE,101 SHORELINE DR.,,SUNSET BEACH,NC,28468,,,,33.883136,-78.511775
SANDI'S BEACHWEAR,417W. FORT MACON RD,,ATLANTIC BEACH,NC,28512,,,,34.701231,-76.745614
LYNNETTE'S TWO,4426 ARENDELL STREET ST# U1,,MOREHEAD CITY,NC,28557,,,,34.72996,-76.776654
DEE GEE'S GIFTS (FOUR CHALKBOARDS INC.),508 EVANS ST,,MOREHEAD CITY,NC,28557,,,,34.720198,-76.708513
PEACOCKS PLUME/ A STEP UP,248 CRAVEN STREET,,NEW BERN,NC,28560,,,,35.10644,-77.037575
MARSHA'S COTTAGE INC.,204 WALL STREET,,ORIENTAL,NC,28571,,,,35.024904,-76.694618
ALMOST RODEO DRIVE,VILLAGE BANNER ELK#101,,BANNER ELK,NC,28604,,,,36.16318,-81.8715
SOUTH & SOUTH RTL,1180 BLOWING ROCK MALL,,BOONE,NC,28607,,,,36.201849,-81.668122
BELLA COTN,236 HWY. 107 N. UNIT C,,CASHIERS,NC,28717,,,,35.115862,-83.103141
HARRAH'S CHEROKEE CASINO RESORT,777 CASINO DRIVE,,CHEROKEE,NC,28719,,,,35.469907,-83.298066
DIVA'S ON MAIN,24 E MAIN ST.,,FRANKLIN,NC,28734,,,,35.182129,-83.379788
ELEVATION,330 MAIN ST.,,HIGHLANDS,NC,28741,,,,35.053384,-83.198307
HIGH COUNTRY STYLE,121 N. MAIN ST,,WAYNESVILLE,NC,28786,,,,35.491363,-82.987408
SASSY'S WARDROBE,36 VALLEY RIVER AVE,,MURPHY,NC,28906,,,,35.087983,-84.033362
PINK STABLE,1011 CHURCH STREET,,CAMDEN,SC,29020,,,,34.244717,-80.609139
CISSY'S,1069 LOBLOLLY ST.,,MANNING,SC,29102,,,,33.676201,-80.221626
OVER THE TOP BOUTIQUE,115 S. PALMER ST.,,RIDGEWAY,SC,29130,,,,34.307475,-80.960376
MAINSTREAM BOUTIQUE (COLUMBIA),3217 DEVINE ST,,COLUMBIA,SC,29205,,,,33.997756,-80.99572
CLASSIC-COUTURE LLC,109 E. RUTHERFORD ST.,,LANDRUM,SC,29356,,,,35.175314,-82.188178
AFFORDABLES,157 ACRES DR.,,LADSON,SC,29456,,,,32.999556,-80.099663
COCOBELLA BOUTIQUE,21 C AUGUSTA STREET,,GREENVILLE,SC,29601,,,,34.843884,-82.404669
LADY J,2131 WOODRUFF ROAD,,GREENVILLE,SC,29607,,,,34.821073,-82.258613
"VILLAGE BOUTIQUE, LTD. (PENDLETON)",221 ROCK CREEK RD.,,ANDERSON,SC,29625,,,,34.543254,-82.79457
ELKMONT TRADING COMPANY,100 LIBERTY DR,,CLEMSON,SC,29631,,,,34.687241,-82.812134
"ALTA, LLC",355 HERLONG AVE SUITE #104,,ROCK HILL,SC,29732,,,,34.959721,-81.042188
EGGS N TRICITIES,5 LAWTON  STREET,,BLUFFTON,SC,29910,,,,32.23522,-80.861823
CAMILLE & COMPANY,1507 MAIN STREET,,HILTON HEAD,SC,29926,,,,32.214794,-80.722769
"CAMILLE & COMPANY (HILTON HEAD, SC)",1507 MAIN STREET,,HILTON HEAD,SC,29926,,,,32.214794,-80.722769
JM TAYLOR DBA:BIRDIE JAMES,28 SHELTER COVE LANE,,HILTON HEAD ISLAND,SC,29928,,,,32.184568,-80.721931
PALMETTOES INC.,71 LIGHTHOUSE ROAD SUITE 414,,HILTON HEAD,SC,29928,,,,32.13143,-80.801977
CHURCH STREET COTTAGE,37 CHURCH STREET,,ALPHARETTA,GA,30009,,,,34.077821,-84.295583
HOLLY CRANDFORD,140 FELD AVE.,,DECATUR,GA,30030,,,,33.764531,-84.307145
CASABELLA INC,4400 ROSWELL ROAD SUITE 128A,,MARIETTA,GA,30062,,,,33.984983,-84.422497
DIANE PULLEY,851 CROSSFIRE RIDGE,,MARIETTA,GA,30064,,,,33.974476,-84.606112
"HAWK EYE SALES, INC",939 OTTER WAY,,MARIETTA,GA,30068,,,,33.973697,-84.420017
RITA ELLEN'S BOUTIQUE,1205 JOHNSON FERRY RD. SUITE 116,,MARIETTA,GA,30068,,,,33.977943,-84.418244
"C & W SHOES OF GA, INC.",606 HOLOOMB BRIDGE RD,,ROSWELL,GA,30076,,,,34.027783,-84.320162
SHOE GALLERY WAREHOUSE,606 HOLCOMB BRIDGE ROAD,,ROSWELL,GA,30076,,,,34.038365,-84.341855
TINA DOBBS,401 HOLLY OAKTRACE,,CANTON,GA,30114,,,,34.178206,-84.535102
SWEET PEA'S BTQ,941 MAPLE ST,,CARROLLTON,GA,30117,,,,33.573684,-85.086937
COCOS COTTAGE,30 NORTH MAIN STREET,,JASPER,GA,30143,,,,34.468674,-84.429933
MICHAEL RYAN,4712 TALLEYBROOK DR,,KENNESAW,GA,30152,,,,33.97906,-84.685574
SASSY LADIES,108 W. MONTGOMERY ST,,VILLA RICA,GA,30180,,,,33.730981,-84.919274
BOXWOODS GARDEN & GIFTS,100 EAST ANDREWS DRIVE,,ATLANTA,GA,30305,,,,33.843175,-84.382213
KATHRYNS OF BUCKHEAD,28 EAST ANDREWS DRIVE,,ATLANTA,GA,30305,,,,33.843461,-84.379953
SOLE SHOES & ACCESSARIES,1245 CAROLINA STREET STE# 100,,ATLANTA,GA,30307,,,,33.758227,-84.347856
POTPOURRI OF SANDY SPRINGS,277 SANDY SRPINGS PL. STE 374,,ATLANTA,GA,30328,,,,33.933543,-84.395777
BRENDA BRETTSCHNEIDER,135 HEMMINGWOOD WAY,,ATLANTA,GA,30350,,,,33.971415,-84.335262
COBBLERS BENCH (R J POPE),7 SOUTH MAIN STREET,,STATESBORO,GA,30458,,,,32.448448,-81.783485
"THE MARKET PLACE   (VIDALIA, GA)",120 E. MEADOW STREET,,VIDALIA,GA,30474,,,,32.218018,-82.412103
"L.B. SCHRAGEL, INC. DBA:SAUL'S",100 MAIN ST.,,GAINESVILLE,GA,30501,,,,34.299147,-83.827778
THE BRADFORD PAIR,1021 THOMPSON BRIDGE RD NW,,GAINESVILLE,GA,30501,,,,34.314648,-83.829601
CRAWFORD COLLECTIONS LLC.,500 E MAIN ST. SUITE 204,,BLUERIDGE,GA,30513,,,,34.867993,-84.322488
GRACIOUS ME,705 E MAIN STREET,,BLUERIDGE,GA,30513,,,,34.865493,-84.324081
THREADS OF BLUE RIDGE,314 SUNROCK MTN,,BLUE RIDGE,GA,30513,,,,34.89369,-84.383869
BELLAS ON MAIN,5 EAST JARRARD STREET,,CLEVELAND,GA,30528,,,,34.597708,-83.763
BRITT CAPRI,595 N MAIN ST,,HIAWASSEE,GA,30546,,,,34.956735,-83.760813
COLLAGE BOUTIQUE (WAS ELLER),563 N. MAIN ST.,,HIAWASSEE,GA,30546,,,,34.955995,-83.760284
MOON WATERS,5806 WEST AVE,,LAVONIA,GA,30553,,,,34.436066,-83.106908
IV SEASONS,1737-A SOUTH LUMPKIN,,ATHENS,GA,30606,,,,33.936656,-83.387522
AMELIA'S APPAREL & ACCESS,172 S MAIN ST,,MEDISON,GA,30650,,,,33.595107,-83.468191
ANTIQUES SQUARE DBA BB&G,115 S MAIN STREET,,MADISON,GA,30650,,,,33.596173,-83.467956
SASSI & CO,841 W MORAVIAN BEND,,CHATSWORTH,GA,30705,,,,34.784259,-84.785123
3 CHICKS LLC.,607 BRAE BURN DR.,,AUGUSTA,GA,30907,,,,33.543872,-82.077141
BRITTANYS HOUSE OF ELEGANCE,403 FURYS FERRY RD. STE#114,,AUGUSTA,GA,30907,,,,33.530147,-82.072945
CAMILLE & COMPANY,109 HARMONY CROSSING SUITE 6,,EATONTON,GA,31024,,,,33.42356,-83.268478
"CAMILLE & COMPANY (EATONTON, GA)",109 HARMONY CROSSING SUITE 6,,EATONTON,GA,31024,,,,33.42356,-83.268478
MAGGIE LANE,103 S JEFFERSON AVE,,EATONTON,GA,31024,,,,33.326574,-83.388201
CLOISTER COLLECTION,600 SEA ISLAND RD. SUITE #13,,ST. SIMONS ISLAND,GA,31522,,,,31.183492,-81.380396
BEECHER'S,38 MIDWAY SQUARE,,ST. SIMONS,GA,31522,,,,31.182181,-81.378045
FAD'S N FASHIONS INC.,422-A NORTHSIDE DR.,,VALDOSTA,GA,31602,,,,30.872817,-83.279559
ONLY OPTION,1421 GORONTO RD,,VALDOSTA,GA,31602,,,,30.860184,-83.317856
CHICAS BRIDAL,1922 DAWSON ROAD,,ALBANY,GA,31707,,,,31.597821,-84.19876
ROYAL COLLECTION,2347 LAKE PARK DRIVE,,"ALBANY,",GA,31707,,,,31.603095,-84.208174
KINNEBREW CO,208 WEST LAMAR STREET,,AMERICUS,GA,31709,,,,32.07207,-84.234027
LAZARUS OF MOULTRIE,103 1ST STREET SE,,MOULTRIE,GA,31768,,,,31.178943,-83.787478
TURNERS DRESS SHOP LLC,104 S MAIN STREET,,MOULTRIE,GA,31768,,,,31.17894,-83.78902
DIANNE'S FASHIONS,104 W 4TH ST,,OCILLA,GA,31774,,,,31.59403,-83.251342
THE BIG STORE,346 MAIN STREET,,TIFTON,GA,31794,,,,31.451142,-83.50962
STYLE BY SHARON,1450 CEDAR GROVE TERRACE,,FLEMING ISLAND,FL,32003,,,,30.081054,-81.721811
BELLA COLOR INC. DBA: LORI & LULU,213 CENTRE ST,,FERNANDIA BEACH,FL,32034,,,,30.671438,-81.463267
OMNI HOTELS & RESORTS,OMNI AMELIA ISLAND PLANTATION,,AMELIA ISLAND,FL,32034,,,,30.609692,-81.49172
SUNSHINE SHOP,645 A1A BEACH BOULEVARD,,ST. AUGUSTINE BEACH,FL,32080,,,,29.846569,-81.26756
MAINSTREAM BOUTIQUE-PONTE VEDRA FL,880 A1A NORTH SUITE #4,,PONTE VEDRA BEACH,FL,32082,,,,29.783285,-81.258237
Scout and Molly's,340 FRONT ST. ,SUITE 715,PONTE VERDE,Florida,32082,,,,30.204259,-81.381456
H.W DAVIS,152 ST GEORGE STREET,,ST. AUGUSTINE,FL,32084,,,,29.893332,-81.312909
BEAR DANCE BTQ,1113 CANAL ST.,,THE VILLAGES,FL,32162,,,,28.906427,-81.974388
NEJMA'S BOUTIQUE,319 FLAGLER AVE,,NEW SMYRNA BEACH,FL,32169,,,,29.038405,-80.899207
LEILA'S,1981 SAN MARCO BLVD.,,JACKSONVILLE,FL,32207,,,,30.304734,-81.654683
J ASHLEY BOUTIQUE LLC,3590 ST JOHNS AVE,,JACKSONVILLE,FL,32210,,,,30.296292,-81.703861
Scout and Molly's,4818 River City Dr,Ste 101,Jacksonville,Florida,32246,,,,30.253715,-81.525957
ELLIE BING,21 12TH STREET SOUTH,,JACKSONVILLE BEACH,FL,32250,,,,30.287331,-81.401078
PIERI MARIE BOUTIQUE,7839 TIMBERJACK CT.,,JACKSONVILLE,FL,32256,,,,30.199634,-81.541219
GOFF'S READY TO WEAR,434 NORTH 9TH ST.,,DEFUNIAK SPRINGS,FL,32433,,,,30.727675,-86.114504
ORCHARD HOUSE BOUTIQUE,4540 E. LAFAYETTE ST. SUITE H,,MARIANNA,FL,32446,,,,30.774662,-85.217224
BOCA BOUTIQUE,174 WATERCOLOR WAY STE#102,,SANTA ROSA BEACH,FL,32459,,,,30.328813,-86.125956
PENDERICK ENTERPRISES,50 UPTOWN GRAYTON CIRCLE,,GRAYTON BEACH,FL,32459,,,,30.336017,-86.163529
UP TOWN GIRLS (SANTA ROSA BEACH),27 UPTOWN GRAYTON CIRCLE,,SANTA ROSA BEACH,FL,32459,,,,30.33618,-86.162981
THE VILLAGE BOUTIQUE,2050 W. COUNTRY HWY. 30A,,SANTA ROSA BEACH,FL,32459,,,,30.39603,-86.22883
LEE TRACY FLORIDA (ACCENT FOOT),701 E GREGORY STREET,,PENSACOLA,FL,32501,,,,30.41777,-87.201023
THE RED RASPBERRY,296 N. MAIN ST,,CRESTVIEW,FL,32536,,,,30.759133,-86.570798
TODAY'S FASHION BTQ,4433 COMMONS DRIVE EAST. #E103,,DESTIN,FL,32541,,,,30.38998,-86.428539
COCO & COMPANY INC.,500 GRAND BLVD. SUITE K101,,MIRAMAR BEACH,FL,32550,,,,30.378892,-86.314612
LADIES QUATER,913 GULF BREEZE PKWY #1,,GULF BREEZE,FL,32561,,,,30.356767,-87.161331
PETAL BAY,7688 CLARKE STREET,,NAVARRE,FL,32566,,,,30.439355,-86.90094
WALK ON WATER,1140 TOWN PARK PLACE,,LAKE MARY,FL,32746,,(407) 805-0477,,28.788929,-81.356091
HOTPOINT BOUTIQUE,821 INDIAN RIVER AVE.,,TITUSVILLE,FL,32780,,,,28.606779,-80.806064
LONGIMANUS ENTERPRISES LLC. DBA:HUTTON,329 N. PARK AVE. #105,,WHITTIER PARK,FL,32789,,,,28.600146,-81.351255
BIJOU'S,2501 EDGEWATER DRIVE,,ORLANDO,FL,32804,,,,28.573693,-81.389348
SCHNEIDER INC. DBA: EM'Z ON FIFTH,14530 ASTINA WAY,,ORLANDO,FL,32837,,,,28.350004,-81.42844
LA MODA BOUTIQUE,6395 N WICKHAM ROAD STE 105,,MELBOURNE,FL,32940,,,,28.217575,-80.672921
LYSNE OF VERO DBA:POSH,3349 OCEAN DRIVE,,VERO BEACH,FL,32963,,,,27.653,-80.356694
SANDPIPER,31 OCEAN REEF DRIVE SUITE B-100,,KEY LARGO,FL,33037,,,,25.316849,-80.280531
WEAR WITH ALL,101435 OVERSEAS HWY,,KEY LARGO,FL,33037,,,,25.112652,-80.421535
JEANERATION,4671 N. UNIVERSITY DR,,CORAL SPRINGS,FL,33067,,,,26.287867,-80.250122
VIVIAN AULD BOUTIQUE,6114 NW 74TH TERRACE,,PARKLAND,FL,33067,,,,26.306046,-80.224897
"LESLEY, INC.",2829 Bird Ave. #7,,MIAMI,FL,33133,,,,25.735813,-80.239137
CHEWING GUN,548 41 ST.,,MIAMI BEACH,FL,33140,,,,25.813578,-80.130367
ON MY OWN,18060 BISCAYNE BLVD,,AVENTURA,FL,33160,,,,25.942641,-80.148556
A NOSE FOR CLOTHES,14271 S.W. 120TH ST.#102,,MIAMI,FL,33186,,,,25.656971,-80.425717
"FOOT PRINTS, LTD",240 S. UNIVERSITY DR.,,PLANTATION,FL,33324,,,,26.11919,-80.25181
EVELYN & ARTHUR,1770 W. 10TH ST,,RIVIERA BEACH,FL,33404,,,,26.773042,-80.085154
HOL-MAR CORP DBA:CHUKKERS,21170-1 ST. ANDREWS BLVD.,,BOCA RATON,FL,33433,,,,26.362497,-80.136494
FASHION SCOOP USA,9212 GLADES ROAD,,BOCA RATON,FL,33434,,,,26.3667,-80.189315
MORGAN BLAINE,11090 S MILITARY TRL,,BOYNTON BEACH,FL,33436,,,,26.512878,-80.12219
RAGS & BAGS,4900 LINTON BLVD # 4,,DELRAY BEACH,FL,33445,,,,26.437675,-80.120444
"DISCLOSE, INC DBA INFINITY",16850 JOG ROAD #103,,DELRAY BCH,FL,33446,,,,26.424818,-80.146364
SHE'S THE ONE,4095 ST. RD 7 #R,,WELLINGTON,FL,33449,,,,26.619462,-80.206926
BELLE MAISON,2121 S. US HIGHWAY ONE,,JUPITER,FL,33477,,,,26.913816,-80.070309
THREE SISTERS OF PALM BEACH DBA:C ORRICO,336 SOUTH COUNTRY ROAD,,PALM BEACH,FL,33480,,,,26.741308,-80.039474
CHEAP FRILLS,701 GEORGE BUSH BLVD,,DELRAY BEACH,FL,33483,,,,26.474266,-80.066002
SNAPPY TURTLE,1100 EAST ATLANTIC ABLVD,,DELRAY BEACH,FL,33483,,,,26.461391,-80.060554
EXPOSE INC.,5250 TOWN CENTER CIRCLE #133,,BOCA RATON,FL,33486,,,,26.362249,-80.12429
KIT'S WELL-DRESSED,3006 W Swann Ave,,Tampa,FL,33609,,,,27.937334,-82.491687
EL'LAY BOUTIQUE,11626 DALE MABRY,,TAMPA,FL,33618,,,,28.054425,-82.504816
"A'PROPOS, INC.",2102 S. DALE MABRY,,TAMPA,FL,33629,,,,27.926763,-82.505579
THE BRYAN GROUP INC. DBA:MARION'S,1301 4TH ST N,,ST PETE,FL,33701,,,,27.785236,-82.638347
PIPPA PELURE,50 BEACH DR NE,,ST. PETERSBURG,FL,33701,,,,27.771691,-82.633429
BAMBOOZLE,105 8TH AVE,,ST PETERSBURG,FL,33706,,,,27.687824,-82.736201
PAMELA M DBA COTTAGE CASUALS,350 COREY AVE,,ST PETE BEACH,FL,33706,,,,27.742059,-82.749682
CASSI & CO.,100 INDIAN ROCKS RD. #3,,BELLEAIR BLUFFS,FL,33770,,,,27.917954,-82.817058
NICOLE BOUTIQUE,2892 WEST BAY DR,,BELLEAIR BLUFFS,FL,33770,,,,27.916316,-82.818514
BABES,2537 SOUTH FLORIDA  AVE,,LAKELAND,FL,33803,,,,28.014169,-81.958346
BRODEUR CARVELL,13499 U.S. 41 SUITE 165,,FORT MYERS,FL,33907,,,,26.546297,-81.871474
PALMETTO'S APPAREL,7205 ESTERO BLVD#712,,FT. MYER BEACH,FL,33931,,,,26.413713,-81.901829
NICHOLE'S COLLECTIONS,1200 RETTA ESPLANADE #12,,PUNTA GORDA,FL,33950,,,,26.927708,-82.063503
B UNIQUE BOUTIQUE INC.,1614 PERIWINKLE WAY,,SANIBEL,FL,33957,,,,26.442137,-82.056367
HOLLIE'S BOUTIQUE,1571 PERINWINKLE WAY,,SANIBEL,FL,33957,,,,26.458308,-82.100065
KAYS ON THE BEACH,606-5 TH AVE,,NAPLES,FL,34102,,,,26.133968,-81.795309
OOH OOH SHOES,350 12TH AVE SOUTH,,NAPLES,FL,34102,,,,26.132151,-81.801177
WIND IN THE WILLOWS,793 FIFTH AVE SO.,,NAPLES,FL,34102,,,,26.141721,-81.796241
PGSWF INC. DBA:H.T. CHITTUM & CO.,4242 GULFSHORE BLVD. N,,NAPLES,FL,34103,,,,26.19569,-81.8113
SIMPLY NATURAL,4330 GULF SHORE BLVD STE 302,,NAPLES,FL,34103,,,,26.19687,-81.81254
SOURCE CLOTHING COMPANY,2700 IMMOKALEE RD STE 6,,NAPLES,FL,34110,,,,26.2724,-81.76725
GEORGIE'S,1089 N. COLLIER BLVD #415,,MARCO ISLAND,FL,34145,,,,25.953538,-81.72255
LIFE VIEW LLC. DBA: WISH ON MAIN,8111 LAKEWOOD MAIN ST.,,LAKEWOOD RANCH,FL,34202,,,,27.394884,-82.434976
PINK & NAVY,2404 LANDINGS CIR,,BRADENTON,FL,34209,,,,27.520574,-82.645793
CS AND DJ LLC. DBA:PANACHE,1441 MAIN ST,,SARASOTA,FL,34236,,,,27.336734,-82.541758
ISLAND PURSUIT,400 MADISON DRIVE STE 206,,SARASOTA,FL,34236,,,,27.31979,-82.57803
"FOXY LADY SARASOTA, FL",209 BEACH ROAD,,SARASOTA,FL,34242,,,,27.273057,-82.563669
SUNBUG,141 W. VENICE AVE,,VENICE,FL,34285,,,,27.099643,-82.445296
THE COTTON CLUB,626 N CITRUS AVE.,,CRYSTAL RIVER,FL,34428,,,,28.900287,-82.593324
ADOBE EAST INC.,303 S.E. 17TH ST.,,OCALA,FL,34471,,,,29.173173,-82.133085
LA BOUTIQUE (SPRINGHILL),4123 MARINER BLVD,,SPRING HILL,FL,34609,,,,28.490506,-82.542967
CLAM SHELL,6 SW OSCEOLA ST,,STUART,FL,34994,,,,27.198508,-80.25283
WERNER'S,1115 4TH ST S.W,,CULLMAN,AL,35055,,,,34.171877,-86.851608
"SERENDIPITY BTQ (VESTAVIA, AL)",3124 HEIGHTS VILLAGE,,VESTAVIA,AL,35243,,,,33.445932,-86.750203
BRALEX CONSTRUCTION INC. DBA:ERVIN'S,2003 32ND ST.,,NORTHPORT,AL,35476,,,,33.238376,-87.577197
"MONOGRAM FEVER BOUTIQUE, INC.","5100 CURRY HWY, STE 180",,JASPER,AL,35503,,,,33.943032,-87.218208
SHOEFISTICATED,101-B MAIN ST WEST,,HARTSELLE,AL,35640,,,,34.444176,-86.933514
M&F CASUALS,380 FAIRHOPE AVE,,FAIRHOPE,AL,36532,,,,30.522787,-87.903489
BEACH HOUSE BOUTIQUE,3800 GULF SHORES PKWY STE 350,,GULF SHORES,AL,36542,,,,30.301118,-87.681027
JANE LOVES SHOES LLC.,27267 PERDIDO BEACH BLVD C107,,ORANGE BEACH,AL,36561,,,,30.275267,-87.562755
CANTRELL'S CLOTHING,115 MAIN STREET,,SMITHVILLE,TN,37166,,,,35.960752,-85.814462
THE FRENCH SHOPPE,2817 WEST END AVE SUITE #120,,NASHVILLE,TN,37203,,,,36.144523,-86.812761
LEVY'S INC,3900 HILLSBORO PK # 36,,NASHVILLE,TN,37215,,,,36.121352,-86.805953
MERCH NORTHSHORE,800 LEE AVENUE,,LOOK OUT MOUNTAIN,TN,37350,,,,35.005788,-85.345643
T. MICHELLE,1409 N. JACKSON STREET,,TULLAHOMA,TN,37388,,,,35.374994,-86.223556
MERCH NORTHSHORE DBA: ABBY LANE BOUTIQUE,300 CHEROKEE BLVD STE 120,,CHATATANOOGA,TN,37405,,,,35.063762,-85.312077
MAHONEY'S,830 SUNSET DRIVE,,JOHNSON CITY,TN,37604,,,,36.334256,-82.389208
RHYTHM IN BOOTS,600 STATE STREET,,BRISTOL,TN,37620,,,,36.595155,-82.183347
FARMERS DAUGHTER REST & GENERAL STORE,7700 ERWIN HWY,,CHUCKEY,TN,37641,,,,36.150059,-82.657963
MARJ ON MAIN,103 E MAIN STREET,,JONESBOROUGH,TN,37659,,,,36.294321,-82.473413
BOYD THOMAS CLOTHING,227 W. BROADWAY AVE,,MARYVILLE,TN,37801,,,,35.754398,-83.973148
THE LILY PAD BTQ.,209 N. MAIN ST.,,SWEETWATER,TN,37874,,,,35.599813,-84.462924
JANICE ANN'S FASHION,905 E. EMORY RD,,KNOXVILLE,TN,37938,,,,36.055857,-83.9873
SOUTHERN MUSE,2140 W. POPLAR AVE. SUITE#104,,COLLIERVILLE,TN,38017,,,,35.047469,-89.713036
UNLACED,3440 WYNMONT GROVE,,COLLIERVILLE,TN,38017,,,,35.055133,-89.715919
THE UPPER LEVEL,745 W. POPLAR AVE. SUITE 2,,COLIERVILLE,TN,38017,,,,35.045781,-89.687594
VILLAGE TAILOR,575 MALL BLVD,,DYERSBURG,TN,38024,,,,36.063669,-89.390146
"MERLE NORMAN  (REPLEY, TN)",333 CLEVELAND ST.,,RIPLEY,TN,38063,,,,35.763692,-89.539475
LIFE IS GOOD- MEMPHIS TN,100 PEABOY PL. SUITE# 175,,MEMPHIS,TN,38103,,,,35.154875,-90.049631
WSA INC\ DBA WINFIELDS SHOES & ACC,2 SOUTH MAIN STREET,,MEMPHIS,TN,38103,,,,35.145058,-90.052724
CHOCOLAT,931 TOSCANA PARK,,MEMPHIS,TN,38117,,,,35.106297,-89.91244
NANCY CARNEY FRINGE,802 EVENTIDE,,MEMPHIS,TN,38120,,,,35.109014,-89.864824
BETTY HAYS BOUTIQUE,7820 POPLAR AVE #3,,GERMANTOWN,TN,38138,,,,35.090366,-89.802145
SUZANNE'S DESIGNS,2093 SONNING DRIVE,,GERMANTOWN,TN,38138,,,,35.091992,-89.799297
MAM'SELLE / THOP,907 VANN DR UNIT D,,JACKSON,TN,38305,,,,35.670321,-88.853091
BLOSSOMS,556 HWY 6 EAST,,BATESVILLE,MS,38606,,,,34.309963,-89.935313
SOMETHING SPECIAL,117 W BANKHEAD ST,,NEW ALBANY,MS,38652,,,,34.494422,-89.009164
PAISLEY PINEAPPLE,6515 GOODMAN ROAD #2,,OLIVE BRANCH,MS,38654,,,,34.96206,-89.874254
JE. NEILSON CO.,119 COURTHOUSE SQUARE,,OXFORD,MS,38655,,,,34.366647,-89.518523
UPSTAIRS CLOSET,136 NORFLEET DR,,SENATOBIA,MS,38668,,,,34.628047,-89.958073
MERLE NORMAN COSMETICS,3457 MARCIA LOUISE DR,,SOUTHAVEN,MS,38672,,,,34.912922,-89.958979
TWELVE FIFTY ONE,1321 MAIN ST.,,TUNICA,MS,38676,,,,34.689293,-90.383322
COUNTRY GENTLEMAN,1644 HWY I SOUTH,,GREENVILLE,MS,38701,,,,33.314539,-91.02297
THE WISHING WELL BOUTIQUE,341 COTTON ROW,,CLEVELAND,MS,38732,,,,33.747931,-90.721806
ABRAHAMS,115 FRONT STREET,,INDIANOLA,MS,38751,,,,33.452905,-90.650892
SPARROWS ON MAIN,810 EAST MAIN,,TUPELO,MS,38804,,,,34.257309,-88.685176
WILLOW AT MERLE NORMAN,413 S MAIN STREET,,AMORY,MS,38821,,,,33.981939,-88.48621
GINGER'S,1801 S HARPER RD #18,,CORINTH,MS,38834,,,,34.914273,-88.501035
BLISS BTQ,802 E. MAIN ST.,,FULTON,MS,38843,,,,34.273489,-88.389134
THORN BIRDS BOUTIQUE,1231 FIRST AMERICA DRIVE,,LUKA,MS,38852,,,,34.81583,-88.2318
RED KARMA,3935 HIGHWAY 9 S,,PONTOTOC,MS,38863,,,,34.235834,-89.084335
AVA MICHAELS BOUTIQUE,BRENDA TALLENT 27 CR432,,VERDAMAN,MS,38878,,,,33.896961,-89.221899
ARRAY BOUTIQUE,1321 SUNSET DR. SUITE K,,GRENADA,MS,38901,,,,33.768875,-89.81462
DATTELS,1321 J SUNSET DRIVE,,GRENADA,MS,38901,,,,33.768928,-89.8045
SMITH & CO.,301 W. ADAMS,,GREENWOOD,MS,38930,,,,33.526787,-90.190027
GOLDBERGS,121 HAYDEN,,BELZONI,MS,39038,,,,33.174455,-90.488966
FLAUNT,612 HIGHWAY 16 EAST,,CARTHAGE,MS,39051,,,,32.785217,-89.524057
SULLIVAN'S,109 NORTHSIDE SHOPPING CENTER,,KOSCIUSKO,MS,39090,,,,33.055142,-89.5913
KATIE'S LADIES,140 LIBERTY RD,,NATCHEZ,MS,39120,,,,31.554256,-91.383425
BELLE G,2626 N. HILLS ST.,,MERIDIAN,MS,39305,,,,32.409444,-88.705674
WILLIAMS BROS,10360 RAOD 375,,PHILIDELPHIA,MS,39350,,,,32.754387,-89.116797
JOHN WHITE,215 S 40TH AVENUE,,HATTIESBURG,MS,39402,,,,31.322042,-89.348168
QUARTER CENTURY,602 CARROLL GARTIN BLVD SUITE B,,LAUREL,MS,39440,,,,31.691731,-89.13235
PANACHE APPAREL & ACCESSORIES INC.,9354 THREE RIVERS RD. STE A,,GULFPORT,MS,39503,,,,30.422868,-89.086973
ACCENT FOOT FASHIONS DBA LEE TRACY,1000 GOVERNMENT STREET SUITE 103,,OCEAN SPRINGS,MS,39564,,,,30.413451,-88.82754
SARA KATE,133 DAVIS AVE SUITE I,,PASS CHRISTIAN,MS,39571,,,,30.317134,-89.242587
MELANGE,66 BRICKERTON,,COLUMBUS,MS,39701,,,,33.51693,-88.414786
SISTERS FINE CLOTHING,401 B EAST LAMPKIN STREET,,STARKVILLE,MS,39759,,,,33.462594,-88.811896
J.B.C. ENTERPRISES,24 N. 3RD ST.,,DANVILLE,KY,40422,,,,37.651436,-84.771779
OLIVE YOU BOUTIQUE,118 MERIDIAN WAY SUITE I,,RICHMOND,Kentucky,40475,,,,37.734676,-84.335281
MABEL AND MOSS,938 EASTERN PARKWAY,,LOUISVILLE,KY,41217,,,,38.218305,-85.735642
H2H Apparel,"5101 Hinkleville Rd, Suite 510",,Paducah,Kentucky,42001,,,,37.078308,-88.690033
HOUSE TO HOME CREATIONS,4746 HANSEN ROAD,,PADUCAH,KY,42001,,,,37.066126,-88.693215
DK KELLEY,305 S 12TH ST,,MURRAY,KY,42071,,,,36.605496,-88.315064
JORDANS SALON,218 REYNOLDS RD,,GLASGOW,KY,42141,,,,37.014006,-85.93094
"EXCURIONS, INC",2738 FREDERICA STREET,,OWENSBORO,KY,42301,,,,37.750322,-87.115585
EXCURIONS INC.,2738 FREDERICA STREET,,OWENSBORO,KY,42301,,,,37.750322,-87.115585
RAIMENT & BOON,47 BOGGS CT,,E-TOWN,KY,42701,,,,37.642671,-85.89337
AUDACIOUS BOUTIQUE,4375 W. DUBLIN GRANVILLE RD,,DUBLIN,OH,43017,,,,40.098089,-83.106182
LEFLAIR BTQ,241 W BRIDGE STREET,,DUBUIN,OH,43017,,,,40.097769,-83.121452
WEATHER VANE,103 SCOTT STREET,,GAMBIER,OH,43022,,,,40.376791,-82.395981
THE JAMES STORE,124 E. BROADWAY,,GRANVILLE,OH,43023,,,,40.067458,-82.519484
TRE BRI BOUTIQUE,1480 N 21ST STREET,,NEWARK,OH,43055,,,,40.087935,-82.427198
MODE ALISE,7227 N HIGH ST #122,,WORTHINGTON,OH,43085,,,,40.108399,-83.018943
BENESQUE BOUTIQUE,240 W SIXTH AVE,,LANCASTER,OH,43130,,,,39.719838,-82.605835
SHARFF'S,45 W. MAIN STREET,,LOGAN,OH,43138,,,,39.54007,-82.409611
LEANDER LTD,621 BRIGHTON ST.,,PICKERINGTON,OH,43147,,,,39.873883,-82.768106
FABTIQUE,1657 W. LANE AVE.,,COLUMBUS,Ohio,43221,,,,40.006759,-83.054638
FABTIQUE,1698 BERKSHIRE ROAD,,COLUMBUS,OH,43221,,,,40.005518,-83.055282
GINNYS INSPIRED FASHIONS,133 S. MAIN STREET,,BOWLING GREEN,OH,43402,,,,41.374297,-83.650183
NEWPORT DRY GOODS,4066 E. HARBOR ROAD,,PORT CLINTON,OH,43452,,,,41.523269,-82.854602
RAGAZZA,103 LOUISIANA AVE,,PERRYSBURG,OH,43551,,,,41.560305,-83.629678
PASSSION 4 FASHION BOUTIQUE,1228 APACHE DR,,WAUSEON,OH,43567,,,,41.565779,-84.120419
WADE'S CLOTHING,3546 MAPLE AVE,,ZANESVILLE,OH,43701,,,,39.987436,-82.021894
CASCADES BOUTIQUE,10 W. WASHIONGTON ST,,CHAGRIN FALLS,OH,44022,,,,41.429998,-81.392124
FIND ME,24 N. MAIN ST,,CHAGRIN,OH,44022,,,,41.430503,-81.391282
TONI IN STYLE,17 N FRANKLIN,,CHAGRIN FALLS,OH,44022,,,,41.430356,-81.391857
BREEZEWOOD GARDENS,17600 CHILLICOTHE ROAD,,CHAGRIN FALLS,OH,44023,,,,41.390202,-81.339393
FOLIO APPAREL,114 EAST AURORA RD,,NORTHFIELD,OH,44067,,,,41.314019,-81.534882
BEAD PARADISE,29 W COLLEGE STREET,,OBERLIN,OH,44074,,,,41.291366,-82.218496
GEIGER'S,14710 DETROIT AVE,,LAKEWOOD,OH,44107,,,,41.485312,-81.798745
INNUENDO,19144 OLD DETROIT RD,,ROCKY RIVER,OH,44116,,,,41.482757,-81.8347
JOSS UNLIMITED CORP,28699 CHAGRIN BLVD #320,,WOODMERE,OH,44122,,,,41.462974,-81.476636
TICKNORS MEN'S CLOTHIER,2101 RICHMOND ROAD,,BEACHWOOD,OH,44122,,,,41.501416,-81.497787
KNUTH'S,30619 PINETREE ROAD,,PEPPER PIKE,OH,44124,,,,41.462461,-81.46015
AMERIMARK DIRECT L.L.C,6864 ENGLE ROAD,,CLEVELAND,OH,44130,,,,41.381728,-81.825162
CARA'S BOUTIQUE,30179 DETROIT,,WESTLAKE,OH,44145,,,,41.463126,-81.954145
SAVVY CHIC,403 E. ROYALTON RD. #116,,BROADVIEW HTS.,OH,44147,,,,41.314272,-81.682262
LA TI DA BOUTIQUE,85 SOUTH MAIN STREET UNIT B,,HUDSON,OH,44236,,,,41.236523,-81.439775
RILEY CLEANERS DBA RILEY'S OF HUDSON,100 N. MAIN ST,,HUDSON,OH,44236,,,,41.241422,-81.440544
FILOMENA GUAITIERI,470 MERRIMAN RD,,AKRON,OH,44303,,,,41.10455,-81.542581
ALLIE M.,2299 WEST MARKET ST,,AKRON,OH,44313,,,,41.118509,-81.588638
GEM SET JEWELRY & ACCESSORIES,6955 MARKERT,,YOUNGSTOWN,OH,44512,,,,41.025158,-80.668667
SUZANNES,813 BOARDMAN POLAND RD.,,BOARDMAN,OH,44512,,,,41.023687,-80.639118
2 CUTE KIDS BOUTIQUE LLC,128 W. 2ND ST,,DOVER,OH,44622,,,,40.521038,-81.475606
VITA,1289 EDISON STREET N.W. #250,,HARTVILLE,OH,44632,,,,40.975346,-81.361889
CLAUDINE & CO. LLC,130 W. HIGH AVE,,NEW PHILADELPIA,OH,44663,,,,40.4895,-81.446595
SAWMILL CREEK SHOPS,600 MARINER VILLAGE,,HURON,OH,44839,,,,41.413697,-82.59405
U BE DAZZLED,509 SCHARF STREET,,NEW WASHINGTON,OH,44854,,,,40.963278,-82.858639
THE FABULOUS FEMALE,211 W WATER ST,,SANDUSKY,OH,44870,,,,41.456957,-82.713369
THREADS INC,2451 W. MARKET ST,,TIFFIN,OH,44883,,,,41.109535,-83.217846
PURSE SNICKETY,840 N. LEXINGTON SPRINGMILL RD.,,MANSFIELD,OH,44906,,,,40.775553,-82.589818
K. PONCHET,1017 MCBURNEY DRIVE,,LEBANON,OH,45036,,,,39.421366,-84.21944
OH SUZANNA,1941 HART ROAD,,LEBANON,OH,45036,,,,39.466536,-84.227564
ROSE & REMINGTON,15 E. MAIN STREET,,LEBANON,OH,45036,,,,39.433186,-84.207895
BOLERO MENSWEAR,417 VINE STREET.,,CINCINNATI,OH,45202,,,,39.100517,-84.512774
CURATE,3433 EDWARDS RD,,CINCINNATI,OH,45208,,,,39.138857,-84.443688
TAG ONLINE BOUTIQUE,2397 SHIMMERING BAY LANE,,CINCINNATI,OH,45244,,,,39.096688,-84.321321
YOUNIQUES,529 S BROADWAY,,GREENVILLE,OH,45331,,,,40.100216,-84.630692
BARCLAY'S,314 318 N. MAIN ST,,PIQUA,OH,45356,,,,40.149264,-84.239987
LADY LOOM,232 XENIA AVE,,YELLOW SPRINGS,OH,45387,,,,39.805781,-83.889054
GRACE LANE BOUTIQUE,243 E 2ND STREET,,DAYTON,OH,45402,,,,39.761923,-84.187532
GET DRESSED,2501 FAR HILL'S AVE,,DAYTON,OH,45419,,,,39.713376,-84.167179
PIECES OF STYLE LTD,18 W FRANKLIN STREET,,CENTERVILLE,OH,45459,,,,39.62824,-84.159365
ZIG ZAG GALLERY,101 E. ALEX BELL RD #172,,DAYTON,OH,45459,,,,39.673516,-84.223866
TERI ANN'S,290 FRONT STREET,,MARIETTA,OH,45750,,,,39.414289,-81.455551
JEAN & LILY'S BOUTIQUE,2419 ALLEN TOWN RD,,LIMA,OH,45805,,,,40.749449,-84.152077
THE DRESSING ROOM BTQ FINDLAY,2181 COUNTY RD #140,,VAN BUREN,OH,45840,,,,41.13593,-83.688397
BETSEY'S BOUTIQUE SHOP,139 S. MAIN STREET,,ROCKFORD,OH,45882,,,,40.691228,-84.646579
AH COLLECTION,14511 CLAY TERRACE BLVD,,CARMEL,IN,46032,,,,39.998674,-86.129562
BASH BOUTIQUE,149 N. WALNUT STREET,,WESTFIELD,IN,46074,,,,40.043146,-86.126129
SIRO'S CHIC BOUTIQUE,285 S MAIN STREET,,ZIONSVILLE,IN,46077,,,,39.949231,-86.261099
ANTHONY LEIGH SCOTT ENTERPRISES INC,1430 N TALBOTT ST.,,INDIANAPOLIS,IN,46202,,,,39.786312,-86.155057
DELANEYS,11715 FOX  RD,,INDIANAPOLIS,IN,46236,,,,39.9018,-85.959252
AMY LAURIE'S,613 N MAIN STREET,,CROWN POINT,IN,46307,,,,41.424457,-87.364667
THE ARTFUL GARDEN ( CALL ),118 S MAIN ST,,CROWN POINT,IN,46307,,,,41.417342,-87.363994
"THREADS APPAREL, LLC",401 N. HALLECK STREET,,DE MOTTE,IN,46310,,,,41.205834,-87.197761
ZANDSTRA'S STORE FOR MEN,2627 HIGHWAY AVENUE,,HIGHLAND,IN,46322,,,,41.555675,-87.465847
JUDEE'S,1104 INDIANA AVE,,LA PORTE,IN,46350,,,,41.606281,-86.71882
JUDEE'S,1104 INDIANA AVE,,LA PORTE,IN,46350,,,,41.606281,-86.71882
URBAN SOLES INC,624 FRANKLIN ST,,MICHIGAN CITY,IN,46360,,,,41.715928,-86.901
IVY BTQ / D GIRLS LIMITED LLC,64 W. LINCOLNWAY,,VALAPARAISO,IN,46383,,,,41.46767,-87.061836
BEYOND PINK LLC,721 N CALUMET AVE,,VALPARAISO,IN,46383,,,,41.538574,-87.032692
THE PICTURE SHOW,1600A EAST BRISTOL ST,,ELKHART,IN,46514,,,,41.702744,-85.955682
STEPHENSONS OF ELKHART INC,211 S MAIN STREET,,ELKHART,IN,46516,,,,41.407859,-85.846579
JULES BOUTIQUE (GOSHEN),130 MAIN ST,,GOSHEN,IN,46526,,,,41.585131,-85.834629
WOLDRUFF'S FOOTWEAR & APPAREL,129 S. MAIN ST,,GOSHEN,IN,46526,,,,41.585122,-85.834629
JUDEE'S,1205 UNIVERSITY EAST,,GRANGER,IN,46530,,,,41.721014,-86.165389
SATORI BTQ,12460 N CAMELOT TRAIL,,MILFORD,IN,46542,,,,41.415073,-85.792447
HEAD OVER HEELS,225 HARRISON ST LL4,,SHIPSHEWANA,IN,46565,,,,41.677638,-85.579014
INSPIRE ME,520 E COLFAX AVE,,SOUTH BEND,IN,46617,,,,41.677647,-86.244126
BANGS SALON & SPA/ ON THE FRINGE,1639 N IRONWOOD DR,,SOUTH BEND,IN,46635,,,,41.697608,-86.216643
CALICOS & COLLECTIBLES,130 N. PUBLIC SQ.,,ANGOLA,IN,46703,,,,41.635165,-84.999255
THREE SISTERS,223 W. MAUMEE ST,,ANGOLA,IN,46703,,,,41.634683,-85.000607
THE HANGER BOUTIQUE,537 W. JEFFERSON BLVD,,FORT WAYNE,IN,46802,,,,41.074923,-85.146384
ESSENTIALS & FROSTING,5916 COVINGTON ROAD,,FORT WAYNE,IN,46804,,,,41.059973,-85.215904
MAINSTREAM BOUTIQUE - FORT WAYNE,4110 JEFFERSON POINTE BLVD,,FORT WAYNE,IN,46804,,,,41.057168,-85.239172
SUSAN'S FASHIONS,6340 W. JEFFERSON BLVD,,FT. WAYNE,IN,46804,,,,41.058216,-85.22479
ELLE ONLINE BOUTIQUE,702 LADDIE LANE,,FT WAYNE,IN,46845,,,,41.198186,-85.132423
RAVE,1306 E. BROADWAY,,LOGANSPORT,IN,46947,,,,40.756317,-86.353221
THE RAVE,5010 CANTERBURY,,LOGANSPORT,IN,46947,,,,40.761442,-86.297079
FLIRT,625 MAIN ST,,ROCHESTER,IN,46975,,,,41.067478,-86.215627
FLIRT (ROCHESTER),625 MAIN ST,,ROCHESTER,IN,46975,,,,41.067478,-86.215627
FORD'S,3000 N WHEELING,,MUNCIE,IN,47303,,,,40.217512,-85.401275
THE SECRET INGREDIENT,720 EAST MAIN ST.,,RICHMOND,IN,47374,,,,39.829216,-84.892023
TIVOLI FASHIONS,101 W. KIRKWOOD AVE# 106,,BLOOMINGTON,IN,47404,,,,39.166346,-86.534248
DD DECORE,2034 E. GRAMERCY PARK DR,,BLOOMINGTON,IN,47408,,,,39.209536,-86.512915
THE LOOKING GLASS,507 3RD AVENUE,,JASPER,IN,47546,,,,38.380845,-86.919066
POSH BOUTIQUE,124 A MAIN STREET,,VINCENNES,IN,47591,,,,38.680158,-87.532316
POSH BOUTIQUE (VINCENNES),124 A MAIN STREET,,VINCENNES,IN,47591,,,,38.680158,-87.532316
GRACEFUL LADY,805 E PARK ST,,FORT BRANCH,IN,47648,,,,38.252133,-87.568906
SCHON BOUTIQUE,2015 W. Franklin Street,,Evansville,IN,47713,,,,37.980707,-87.594114
CHERY KREMER,1428 S. 4TH STREET,,TERRE HAUTE,IN,47802,,,,39.451632,-87.412354
CHERYL KREMER,1428 S. 4TH STREET,,TERRE HAUTE,IN,47802,,,,39.451632,-87.412354
LYNN'S BOUTIQUE,321 BARTON AVE,,TERRE HAUTE,IN,47803,,,,39.46478,-87.382713
HEATHCLIFF,101 N WASHINGTON,,CRAWFORDSVILLE,IN,47933,,,,40.04184,-86.901567
ARIADA BTQ,168 S OLD WOODWARD AVE,,BIRMINGHAM,MI,48009,,,,42.546272,-83.214163
DETROIT REPUBLIC APPAREL,34625 CENTAUR DR,,CLINTON TWP,MI,48045,,,,42.552863,-82.883436
IRRESISTIBLE BTQ.,DANIELLE WILLIAMS,,SOUTHFIELD,MI,48076,,,,42.498117,-83.205798
V2V,415 N. FIFTH AVE.,,ANN ARBOR,MI,48104,,,,42.284611,-83.746207
BEVERLY RAE'S,306 W. MAIN STREET,,BRIGHTON,MI,48116,,,,42.529681,-83.783058
VOGELS & FOSTERS,109 S. MAIN,,CHELSEA,MI,48118,,,,42.318063,-84.020389
VAN DAM'S,111 E. MAIN,,NORTHVILL,MI,48167,,,,42.431319,-83.482802
LITTLE BLACK HEART BOUTIQUE,470 FOREST STE 18,,PLYMOUTH,MI,48170,,,,42.369301,-83.471616
MAGGIE & ME,926 WEST ANN ARBOR TRAIL,,PLYMOUTH,MI,48170,,,,42.370075,-83.470223
COBBLESTONE ROSE,101 S ANN ARBOR RD,,SALINE,MI,48176,,,,42.166302,-83.780812
VENUE SOUTH LYON,1059 POLO DR.,,SOUTH LYON,MI,48178,,,,42.481016,-83.658964
WILLOW TREE,3000 BIDDLE ,,WYANDOTTE,MI,48192,,,,42.20297,-83.149752
COUNTRY ENCHANTMENTS,2945 BIDDLE AVE,,WYANDOTTE,MI,48192,,,,42.203742,-83.148848
FEEL FREE FASHION & BEAUTY LLC,20310 HUNTINGTON,,DETROIT,MI,48219,,,,42.442018,-83.234101
SAVVY CHIC (GROSS POINTE),17118 KERCHEVAL,,GROSSE POINTE,MI,48230,,,,42.390336,-82.914872
PEPPERTREE FASHION  WITH A FLAIR,302 WALNUT BLVD,,ROCHESTER,MI,48307,,,,42.679564,-83.134996
HERSH'S INC.,6901 ORCHARD LAKE ROAD,,W. BLOOMFIELD,MI,48322,,,,42.533592,-83.360482
YNOT COUTURE BOUTIQUE,7065 HILLSIDE DR,,W. BLOOMFIELD,MI,48322,,,,42.527587,-83.422112
BARONS WHOLESALE CLOTHIERS INC,27888 ORCHARD LAKE ROAD,,FARMINGTON HILLS,MI,48334,,,,42.499932,-83.358084
THE SHIRT BOX,32500 NORTHWESTERN HWY,,FARMINGTON HILLS,MI,48334,,,,42.526105,-83.351189
THE CLOTHING COVE,414 N MAIN STREET,,MILFORD,MI,48381,,,,42.591126,-83.600007
ECLECTIONS,495 FENWAY SUITE #1,,FENTON,MI,48430,,,,42.80289,-83.72564
JUST JULIES INC.,117 E. MAIN ST.,,FLUSHING,MI,48433,,,,43.063217,-83.85518
BASKET PLUS,12235 S. SAGINAW ST,,GRAND BLANC,MI,48439,,,,42.922092,-83.621516
JAY'S SPORTING GOODS,8800 S. CLAIRE AVE.,,CLAIRE,MI,48617,,,,43.881057,-84.767867
"WILLOW (CLARE,MI)",420 N. MCEWAN ST,,CLARE,MI,48617,,,,43.821647,-84.768203
RIVERWALK THREADS,777 W. CEDAR AVE,,GLADWIN,MI,48624,,,,43.980628,-84.495182
WILLOW (MIDLAND),129 E. MAIN STREET,,MIDLAND,MI,48640,,,,43.613043,-84.244883
MONITOR PHARMACY,2981 MIDLAND RD,,BAY CITY,MI,48706,,,,43.602403,-83.934027
O'CONNOR'S,116 NEWMAN STREET,,E. TAWAS,MI,48730,,,,44.279802,-83.490284
FRANKENMUTH WOOLEN MILL,570 SOUTH MAIN STREET,,FRANKENMUTH,MI,48734,,,,43.328989,-83.739615
TOM BILLIG FLOWERS & GIFTS,109 W. SUPERIOR ST,,ALMA,MI,48801,,,,43.378833,-84.662162
BOUTIQUE BY MARY KENT,1805 WHITEGATE LANE,,E. LANSING,MI,48823,,,,42.754239,-84.46469
TRILLIUM FINE CLOTHING,123 E. BROADWAY ST,,MOUNT PLEASANT,MI,48858,,,,43.604612,-84.776059
GREENLEAF HG DBA SYDNEY,100 WEST MICHIGAN,,KALAMAZOO,MI,49007,,,,42.291524,-85.583222
"LANDEES, LLC",245 SOUTH KALAMAZOO MALL,,KALAMAZOO,MI,49007,,,,42.290091,-85.58302
TULIPS LITTLE POP UP SHOP LLC,2030 PARKVIEW AVE,,KALAMAZOO,MI,49008,,,,42.259854,-85.614295
MOXIE'S BOUTIQUE,321 STATE STREET,,ST JOSEPH,MI,49085,,,,42.109266,-86.481771
CRESCENT MOON,413 PHOENIX STREET,,SOUTH HAVEN,MI,49090,,,,42.403297,-86.275659
FOUR WINDS CASINO RESORT,RECEIVING DOCK A-D,,NEW BUFFALO,MI,49117,,,,41.79273,-86.746022
WHITTAKER HOUSE,26 N. WHITTAKER,,NEW BUFFALO,MI,49117,,,,41.794414,-86.744088
MARIBETH'S,10 N. HOWELL ST,,HILLSDALE,MI,49242,,,,41.920214,-84.63215
TOMMY'S MICHIGAN,4020 WEST RIVER DR,,COMSTOCK PARK,MI,49321,,,,43.035613,-85.663409
HIDDEN TREASURES OF FREMONT,6585 W 44TH ST,,FREMONT,MI,49412,,,,43.474829,-85.965202
THE OUTPOST OF HOLLAND,25 EAST 8 TH STREET,,HOLLAND,MI,49423,,,,42.790474,-86.106401
KITT'N KABOODLE,177 S HANCOCK,,PENTWATER,MI,49449,,,,43.780654,-86.43295
SINBAD,237 BUTLER ST,,SAUGATUCK,MI,49453,,,,42.656269,-86.203908
JOC BOUTIQUE,110 S. LAKE AVE,,SPRING LAKE,MI,49456,,,,43.076573,-86.185628
PITKIN DRUG & GIFT SHOPPE,101 W. COLBY ST,,WHITEHALL,MI,49461,,,,43.40951,-86.348062
EMMANUEL INC,220 LYON STREET SUITE 130,,GRAND RAPIDS,MI,49503,,,,42.966841,-85.673399
LEIGH'S,1942 BRETON ROAD SE,,GRAND RAPIDS,MI,49506,,,,42.928817,-85.609157
DEAR PRUDENCE,820 FOREST HILLS AVE SE,,GRAND RAPIDS,MI,49546,,,,42.947825,-85.555665
LAVOIE DESIGNS,P.O. BOX 186,,ALDEN,MI,49612,,,,44.900641,-85.232932
NORTHERN DECOR,253 S. BENZIE BLVD,,BULAH,MI,49617,,,,44.628207,-86.095536
MAKSE BOUTIQUE,5700 S. FORWARD RD,,FALMOUTH,MI,49632,,,,44.255457,-85.0944
HULLS OF FRANKFORT INC,419 MAIN ST,,FRANKFORT,MI,49635,,,,44.632692,-86.238689
DAISEY JANE,PO BOX 827,,LELAND,MI,49654,,,,45.02305,-85.75981
SERENDIPITY ( BIG RAPIDS),8700 W FALMOUTH RD,,MCBAIN,MI,49657,,,,44.2375,-85.269642
THE OUTPOST OF MANISTEE,359 RIVER STREET,,MANISTEE,MI,49660,,,,44.24791,-86.32163
CRYSTAL MOUNTAIN RESORT & SPA,125 CRYSTAL MOUNTAIN DRIVE,,THOMPSONVILLE,MI,49683,,,,44.515798,-85.996685
CALIS INC,242 E FRONT STREET,,TRAVERSE CITY,MI,49684,,,,44.763945,-85.61915
KAYS,219 E. FRONT ST,,TRAVERSE CITY,MI,49684,,,,44.764317,-85.620115
MURIELS CLOTHING WITH DISTINCTION,238 E FRONT STREET,,TRAVERSE CITY,MI,49684,,,,44.763944,-85.619302
WHAT TO WEAR (TRAVERSE CITY) DARLA,126 E. FRONT ST,,TRAVERSE CITY,MI,49684,,,,44.763933,-85.622497
MYERS,136 W. CHISHOLM,,ALPENA,MI,49707,,,,45.062524,-83.433798
THE CLOTHING COMPANY,339 BRIDGE ST,,CHARLEVOIX,MI,49720,,,,45.150351,-85.136218
BLACK WHITE & MORE,229 N. MAIN,,CHEBOYHAN,MI,49721,,,,45.647652,-84.47435
THE ISLANDER SHOPPE,29699 E CHANNEL RD,,DRUMMOND ISLAND,MI,49726,,,,45.999082,-83.748005
OLD SPUD WAREHOUSE,314 S. OTSEGO AVE,,GAYLORD AVE,MI,49734,,,,45.024656,-84.677865
WOOLY BUGGERS,695 MURNER RD.,,GAYLORD,MI,49735,,,,45.036985,-84.704138
J. DAPCO,118 MICHIGAN AVE,,GRAYLING,MI,49738,,,,44.660923,-84.715187
MC CLUTCHEYS,3510 S. STRAITS HWY,,INDIAN RIVER,MI,49749,,,,45.373686,-84.629652
GRAND HOTEL,286 GRAND AVE,,MACKINAC ISLAND,MI,49757,,,,45.848461,-84.622376
COUNTRY CASUALS,326 E LAKE STREET,,PETOSKEY,MI,49770,,,,45.374804,-84.956442
CUTLERS,216 HOWARD ST,,PETOSKEY,MI,49770,,,,45.375364,-84.955809
THE PAVILLION,180 N. STATE ST.,,ST. IGNACE,MI,49781,,,,45.867993,-84.724506
BARISH'S,321 ASHMOUND STREET,,SAULT STE. MARIE,MI,49783,,,,46.4953,-84.345317
LISA ANN,1305 LUDINGTON ST,,ESCANABA,MI,49829,,,,45.745609,-87.065667
GETZ'S,218 S. FRONT STREET,,MARQUETTE,MI,49855,,,,46.542344,-87.393284
B.BELLE,207 MAIN ST,,AMES,IA,50010,,,,42.025292,-93.612145
WHIMZE BOUTIQUE,429 DOUGLAS AVE,,AMES,IA,50010,,,,42.025805,-93.612289
THE FUNKY ZEBRA ANKEY,129 CARVER AVE,,ANKENY,IA,50021,,,,41.724208,-93.565423
STYLE WORKS,512 WASHIGTON AVE,,IOWA FALL,IA,50126,,,,42.43026,-93.253363
PURPLE POPPY,5800 MERLE HAY RD SUITE #5,,JOHNSTON,IA,50131,,,,41.666295,-93.698984
WILLARD'S,36 W. MAIN STREET,,MARSHALLTOWN,IA,50158,,,,42.049046,-92.914457
SHERRY HALLS D.B.A. EARTH ANGELS,2450 KENDALL STREET,,OSCEOLA,IA,50213,,,,41.045186,-93.740903
THE CORNERSTONE (PELLA),617 FRANKLIN,,PELLA,IA,50219,,,,41.406262,-92.915386
JAMI HILL FUNKY ZEBRAS AMES,509 N MAIN ST,,RODES,IA,50234,,,,41.929862,-93.185846
LANE ENTERPRISES DBA CINDY'S BOUTIQUE,114 5TH ST,,WES DES MOINES,IA,50265,,,,41.570147,-93.709317
MAINSTREAM BOUTIQUE- WAUKEE,9500 UNIVERSITY AVE.,,W. DES MOINES,IA,50266,,,,41.599563,-93.838762
BACK COUNTRY,2702 BEAVER AVE,,DES MOINES,IA,50310,,,,41.619231,-93.673274
B.POSH BOUTIQUE,2721 86TH ST.,,URBANDALE,IA,50322,,,,41.618743,-93.735025
TWIST,2805 100 STREET,,URBANDALE,IA,50322,,,,41.61997,-93.755285
MOORMAN CLOTHIERS,1 SOUTH FEDERAL,,MASON CITY,IA,50401,,,,43.151625,-93.2009
THE GOODNATURE SHOP,415 MAIN ST.,,CLEAR LAKE,IA,50428,,,,43.136704,-93.380389
ARTS SHOES,533 MAIN ST,,OSAGE,IA,50461,,,,43.284327,-92.813171
MISTER G'S,102 W. MAIN ST,,CLARION,IA,50525,,,,42.731836,-93.732939
THE MARKET,5743 300TH ST,,FENTON,IA,50539,,,,43.212255,-94.45429
JENNIFER'S ON MAIN,303 MAIN CEDAR,,CEDAR FALLS,IA,50613,,,,42.53575,-92.445918
SAXONY,104 N. MAIN STREET,,CHARLES CITY,IA,50616,,,,43.066797,-92.679134
"THE BLUE IRIS, LLC / BLUETIQUE",110 WEST MAIN,,NEW HAMPTON,IA,50659,,,,43.059203,-92.317059
JC FASHIONETTE,210 W. MAIN,,CHEROKEE,IA,51012,,,,42.749753,-95.551955
KEVA BOUTIQUE,115 E MAIN STREET,,CHEROKEE,IA,51012,,,,42.749571,-95.550441
CLAUSSEN'S,10 CENTRAL AVE NW,,LE MARS,IA,51031,,,,42.793165,-96.166315
A LA MODE,5001 SERGEANT RD. SUITE#390,,SIOUX CITY,IA,51106,,,,42.445733,-96.341333
KARI'S,513 GRAND,,SPENCER,IA,51301,,,,43.142902,-95.144958
GEHLSEN'S INC DBA REYNOLD'S CLOTHING,1323 BROADWAY,,DENISON,IA,51442,,,,42.016734,-95.354301
GOTTA HAVE  IT INC,315 BLUFF STREET,,DUBUQUE,IA,52001,,,,42.496165,-90.667518
Z & Z LLC DBA ELLE BOUTIQUE,5670 CLAY RIDGE DR.,,DUBUQUE,IA,52002,,,,42.507988,-90.762761
J. TUPY'S,211 W. WATER STREET,,DECORAH,IA,52101,,,,43.303918,-91.787712
"LEUTHOLDS  CRESCO, IA",202 N ELM,,CRESCO,IA,52136,,,,43.37374,-92.116394
TEXTILES INC,109 S. DUBUQUE ST,,IOWA,IA,52204,,,,41.686351,-92.063603
LILLIAN'S OF MARION,2575 PENNINGTON DR,,MARION,IA,52302,,,,42.025391,-91.583106
ALMOST FAMOUS INC,955 VALLEY DR,,MONTICELLO,IA,52310,,,,42.250076,-91.205119
THE COLONY SHOP,720 AVE G,,FT MADISON,IA,52627,,,,40.630815,-91.310606
"DAFFODIL ROW, LLC",19257 252ND AVE,,BETTENDORF,IA,52722,,,,41.587365,-90.413331
VIGNETTES,4460 TAHOE CT,,BETTENDOIF,IA,52722,,,,41.56637,-90.492575
GENTRY SHOP,5515 UTICA RIDGE ROAD,,DAVENPORT,IA,52807,,,,41.578278,-90.511969
THE GENTRY SHOP,5515 UTICA RIDGE RD,,DAVENPORT,IA,52807,,,,41.578278,-90.511969
ZING BOUTIQUE,1512 WOODLAND DR.,,GRAFTON,WI,53024,,,,43.3327,-87.941068
KACIA,795 F. WOODLAKE RD,,KOHLER,WI,53044,,,,43.743851,-87.78082
FAYE'S,18900 W BLUEMOUND RD,,BROOKFIELD,WI,53045,,,,43.037862,-88.148212
M.E. LOU,18900 W. BLUEMOUND RD #115,,BROOKFIELD,WI,53045,,,,43.037862,-88.148212
ALI RAE'S,1300 COUNTRYSIDE LANE,,BROOKFIELD,WI,53045,,,,43.048321,-88.139926
WISH (BROOKFIELD),18125 ELM TERRACE DRIVE,,BROOKFIELD,WI,53045,,,,43.055651,-88.137787
THE BARN OWL LLC,W 383 N 6151 SAND BEACH RD,,OCONOMOWOC,WI,53066,,,,43.130712,-88.507254
NEXT DOOR,N51 W34917 WISCONSIN AVE,,OKAUCHEE,WI,53069,,,,43.111958,-88.438994
RRT DESIGNS LLC DBA NEXTDOOR,N51  W34917 WISCONSIN AVE.,,OKAUCHEE,WI,53069,,,,43.11362,-88.43593
TLC CASUALS,635 RIVERFRONT DR,,SHEBOYGAN,WI,53081,,,,43.747882,-87.710378
LAKE BEN INC,CORNERSTONE SHOP & GALLERY,,LAKE GENEVA,WI,53147,,,,42.617877,-88.52023
STEPHANIE HORNE BTQ.,244 N. BROADWAY,,MILWAUKEE,WI,53202,,,,43.033468,-87.906801
BRYSON REID FOREVER CLASSIC,3900 W BROWN DEE RD #A259,,MILWAUKEE,WI,53209,,,,43.179149,-87.959232
DRAGON FLY BOUTIQUE (MILWAUKEE),6300 CEDAR ST,,MILWAUKEE,WI,53213,,,,43.041557,-87.9911
"URBAN LAUNDRY BOUTIQUE, LLC",7602 HARWOOD AVE,,WAUWATOSA,WI,53213,,,,43.049855,-88.007692
9903 LLC DBA:MODE,9125 W NORTH AVE,,WAUWATOSA,WI,53226,,,,43.060122,-88.027065
MILAEGER'S,4838 DOUGLAS AVE,,RACINE,WI,53402,,,,42.782035,-87.809399
VELVET AND TULLE BOUTIQUE,5905 N GLENMOOR LN,,JANESVILLE,WI,53545,,,,42.759191,-89.041685
VELVET BUTTON BTQ,4214 MORRIS PARK RD,,MCFARLAND,WI,53558,,,,42.996525,-89.326479
CHAUETTE,1827 PARMENTER STREET,,MIDDLETON,WI,53562,,,,43.095593,-89.511392
JOANNE'S DRESS SHOP,1020-17TH AVE,,MONROE,WI,53566,,,,42.601488,-89.63841
"JAZZMAN, INC",340 STATE ST,,MADISON,WI,53703,,,,43.074992,-89.391137
RUPERT CORNELIUS,702 N. MIDUALE,,MADISM,WI,53705,,,,43.073147,-89.45681
TERESE ZACHE DESIGNS,7313 WEST TOWNE WAY,,MADISON,WI,53719,,,,43.054949,-89.508683
MA CANDIS BOUTIQUE,133 W. MAPLE ST,,LANCASTER,WI,53813,,,,42.848112,-90.709993
WALL STREET INC,109 E. BLACKHAWK AVE,,PRARRIE DU CHIEN,WI,53821,,,,43.051811,-91.14642
THE CLOTHING COMPANY (WICONSIN),519 BROADWAY,,WISCONSIN DELLS,WI,53965,,,,43.627833,-89.769696
MAINSTREAM BTQ - HUDSON,2250 BADGER DRIVE,,HUDSON,WI,54016,,,,44.961543,-92.725703
ELAN,218 LOCUST ST,,HUDSON,WI,54016,,,,44.975804,-92.756674
LADIES CHOICE BOUTIQUE,905 N HWY 141,,CRIVITZ,WI,54114,,,,45.235819,-87.997027
LITTLE SHOPPE,15481 COMMERCIAL RD,,LAKEWOOD,WI,54138,,,,45.301018,-88.529939
BODY ESSENTIALS,126 S. MAIN ST,,SHAWANO,WI,54166,,,,44.51168,-88.330014
BLACKSMITH CLOTHING CO,7806 HORSESHOE BAY RD,,EGG HARBOR,WI,54209,,,,45.048786,-87.280452
ACUTE ANGLE,210 N. 8TH ST.,,MANITOWOC,WI,54220,,,,44.094219,-87.658019
"ON DECK CLOTHING COMPANY, INC.",10635 N. BAY SHORE DRIVE,,SISTER BAY,WI,54234,,,,45.187239,-87.123538
ZULOU LLC,235 N BROADWAY,,GREEN BAY,WI,54303,,,,44.519052,-88.020255
LADY SAVANNAH,2071 CENTRAL DR,,GREEN BAY,WI,54311,,,,44.463512,-87.980832
NICOLE'S ONE CHICK LLC,620 N. THIRD ST,,WAUSAU,WI,54403,,,,44.961981,-89.628013
SCHROEDER,W 9635 CITY RD D,,ANTIGO,WI,54409,,,,45.160809,-89.093942
GIRLS IN PEARLS BOUTIQUE,1016 MAIN STREET,,STEVENS POINT,WI,54481,,,,44.523516,-89.584115
JUST BECAUSE,415 ONEIDA STREET,,MINOCQUA,WI,54548,,,,45.870251,-89.710142
DALES CLOTHING,121 4TH ST SOUTH,,LACROSSE,WI,54601,,,,43.811047,-91.235545
TOUCH OF CLASS,312 MAIN ST,,LA CROSSE,WI,54601,,,,43.812517,-91.252074
MAINSTREAM BOUTIQUE - ONALASKA,"1125 MAIN STREET, SUITE 180",,ONALASKA,WI,54650,,,,43.884625,-91.221391
ULTIMATE SALON & SPA DBA URBAN SHOETIQUE,2850 MIDWEST DR SUITE #101,,ONALASKA,WI,54650,,,,43.879667,-91.188482
DETAILS,502 WATER STREET,,EAU CLAIRE,WI,54703,,,,44.802202,-91.509977
MAINSTREAM BTQ - MENOMONIE,1506  9TH STREET,,MENOMONIE,WI,54751,,,,44.868847,-91.919381
DOCKSIDE MERCANTILE,304 1ST ST,,PEPIN,WI,54759,,,,44.438653,-92.146114
BROADWAY,204 S. BROADWAY,,STANLEY,WI,54768,,,,44.958544,-90.937857
SPOONER MERCANTILE CO.,145 WALNUT STREET,,SPOONER,WI,54801,,,,45.826393,-91.888153
BODINS,121 RIHENBOUSE AVE,,BAYFIELD,WI,54814,,,,46.853517,-90.915934
MAINSTREAM BOUTIQUE CUMBERLAND,1317 2ND AVE.,,CUMBERLAND,WI,54829,,,,45.534222,-92.021736
BRINKLEY'S BOUTIQUE,419 N. MAIN STREET,,OSHKOSH,WI,54901,,,,44.018392,-88.537662
Brinkleys Boutique,419 N. Main Street ,,Oshkosh,Wisconsin,54901,,(920) 479-1680,,44.018392,-88.537662
BRINKLEY'S BOUTIQUE,419 N. MAIN ST,,OSHKOSH,WI,54901,,,,44.018392,-88.537662
J. HAWKINSON,10 EAST COLLEGE AVE STE114,,APPLETON,WI,54911,,,,44.262162,-88.405929
LILLIANS OF APPLETON,115 E COLLEGE AVE,,APPLETON,WI,54911,,,,44.261634,-88.405217
HAMILTONS LADY'S APPAREL,105 W HURON ST,,BERLIN,WI,54923,,,,43.968573,-88.947105
GENERAL STORE OF ADAMS,349 COUNTY ROAD M,,COLOMA,WI,54930,,,,43.952213,-89.647869
SAAVY BOUTIQUE,420 N. COUNTRY LANE,,FOND DU LAC,WI,54935,,,,43.789537,-88.406739
BILL PAUL LIMITED,112 W. WISCONSIN AVE,,NEENAH,WI,54956,,,,44.186566,-88.46229
Brinkleys Boutique,123 Watson Street,,Ripon,Wisconsin,54971,,(920) 896-0620,,43.845482,-88.83864
THE LEADER,133 S MAIN,,CAMBRIDGE,MN,55008,,,,45.571788,-93.224334
ROXY'S ACCESSORIES,18793 EMBRY AVE,,FARMINGTON,MN,55024,,,,44.677759,-93.169795
MAINSTREAM BOUTIQUE- FOREST LAKE,2009 W. BROADWAY AVE # 800,,FOREST LAKE,MN,55025,,,,45.283367,-93.009551
J JULES FASHION,6750 W FRONTAGE RD #311,,MEDFORD,MN,55049,,,,44.169381,-93.26112
ANNA'S CLOSET,314 DIVISION ST SOUTH,,NORTHFIELD,MN,55057,,,,44.456959,-93.160253
"PINK MOOSE, LLC",1300 FRONTAGE ROAD WEST,,STILLWATER,MN,55082,,,,45.037164,-92.825587
BIBELOT,1114 GRAND AVE.,,SAINT PAUL,MN,55105,,,,44.939734,-93.147338
BOMBSHELL,794 GRAND AVE,,SAINT PAUL,MN,55105,,,,44.939821,-93.133535
TRADE WINDS,857 GRAND AVE,,ST. PAUL,MN,55105,,,,44.940229,-93.135879
GOODTHINGS,2184 4TH STREET,,WHITE BEAR LAKE,MN,55110,,,,45.085097,-93.008229
MAINSTREAM BOUTIQUE - WHITE BEAR LAKE,4729 HIGHWAY 61 N.,,WHITE BEAR LAKE,MN,55110,,,,45.084943,-93.011158
MAINSTREAM BOUTIQUE - ROSEVILLE,1635 WEST COUNTY RD. C,,ROSEVILLE,MN,55113,,,,45.023031,-93.170446
MAINSTREAM BOUTIQUE - MENDOTA HEIGHTS,750 MAIN STREET SUITE# 113,,MENDOTA HEIGHTS,MN,55118,,,,44.884844,-93.121863
MAINSTREAM BOUTIQUE (APPLEVALLEY),15322 GALAXIE AVE #115,,APPLE VALLEY,MN,55124,,,,44.726424,-93.207119
STYLE NICHE BOUTIQUE,13432 GENEVA WAY,,APPLE VALLEY,MN,55124,,,,44.754724,-93.216365
MAINSTREAM BTQ  WOODBURY,755 BIELENBERG DR  #106,,WOODBURY,MN,55125,,,,44.937878,-92.953441
EVE AND ME BOUTIQUE,3603 ROUND LAKE BLVD,,USE EVEANDMEBT,MN,55303,,,,45.218447,-93.358184
EVE & ME BOUTIQUE,3603 ROUND LAKE BLVD,,ANOKA,MN,55303,,,,45.218447,-93.358184
MAINSTREAM BTQ (CHANHASSEN),600 MARKET ST,,CHANHASSEN,MN,55317,,,,44.860943,-93.536681
AMORE & FEDE,226 WATER ST,,EXCEISIOR,MN,55331,,,,44.903217,-93.566898
SHINE BOUTIQUE,2552 HORIZON DRIVE,,BURNSVILLE,MN,55337,,,,44.792043,-93.240054
SINGLETON JEANS,12241- 23RD AVE,,BURNSVILLE,MN,55337,,,,44.781428,-93.244068
BLUESTEM BRANDS,7075 FLYING CLOUD DRIVE,,EDEN PRARIE,MN,55344,,,,44.874908,-93.411986
GENERAL STORE OF MINNETONKA,14401 HWY 7,,MINNETONKA,MN,55345,,,,44.921821,-93.463774
RUTH STRICKER'S FITNESS DBA THE MARSH,15000 MINNETONKA BLVD,,MINNETONKA,MN,55345,,,,44.937936,-93.470246
MAINSTREAM BOUTIQUE - MAPLE GROVE,15501 GROVE CIRCLE N,,MAPLE GROVE,MN,55369,,,,45.134307,-93.477219
EUJEANCO,35433 HELIUM ST NW,,PRINCETON,MN,55371,,,,45.611073,-93.406974
ONE SEXY BIKER CHICK,17476 DEERFIELD DR.,,PRIOR LAKE,MN,55372,,,,44.700697,-93.407459
LA BELLE BOUTIQUE,8160 COUNTY RD. 42 #400,,SAVAGE,MN,55378,,,,44.747735,-93.383011
BILLS TOGGERY INC,138 LEWIS ST. S,,SHAKOPEE,MN,55379,,,,44.797951,-93.525365
SHELLY BOUTIQUE,126 LEWIS STREET S,,SHAKOPEE,MN,55379,,,,44.798094,-93.525556
CLEAR WATER CLOTHING,132 S. OLIVE,,WACONIA,MN,55387,,,,44.848727,-93.787911
BLANC DE BLANC,691 LAKE ST,,WAYZATA,MN,55391,,,,44.969564,-93.512046
STACEY JOHNSON,6158 GOLDEN VALLEY RD.,,GOLDEN VALLEY,MN,55401,,,,44.993477,-93.357279
"LEN DRUSKIN, INC.","40 S 7 STREET, SUITE 202",,MINNEAPOLIS,MN,55402,,,,44.977378,-93.273094
INDIGO SWAN JEWERLY & FINE ART,4161 18TH AVE S,,MINNEAPOLIS,MN,55407,,,,44.927219,-93.248239
LOCAL MOTION,2813 HENNEPIN AVE S,,MINNEAPOLIS,MN,55408,,,,44.951508,-93.298108
BAY STREET,3001 HENNEPIN AVE S.,,MINNEAPOLIS,MN,55408,,,,44.948514,-93.298279
CORSET BOUTIQUE & PERSONAL STYLING,5400 FRANCE AVE S.,,EDINA,MN,55410,,,,44.905051,-93.329331
APRICOT LANE BTQ,1669 WEST END BLVD,,ST LOUIS PARK,MN,55416,,,,44.966357,-93.347647
EDINA CC,5100 WOODDALE AVE,,EDINA,MN,55424,,,,44.910794,-93.340481
FASHIONOLOGIE,3940 W. 50TH STREET,,EDINA,MN,55424,,,,44.912867,-93.331044
ST. CROIX RETAIL,7874 12TH AVE,,BLOOMINGTON,MN,55425,,,,44.860617,-93.259613
JUDY JORDAN MARCHANDISING,4445 WEST 77TH STREET STE#202,,EDINA,MN,55435,,,,44.86251,-93.337215
TRAIL MARK,3265 GALLERIA,,EDINA,MN,55435,,,,44.877175,-93.323945
MAINSTREAM BOUTIQUE  CLOQUET,1306 CLOQUET AVE. SUITE 2,,CLOQUET,MN,55720,,,,46.721356,-92.449778
PIRAGIS NORTHWOODS COMPANY,105 NORTH CENTRAL AVENUE,,ELY,MN,55731,,,,47.903426,-91.867165
BENDER'S SHOE & SPORT,409 NW 1ST AVE,,GRAND RAPIDS,MN,55744,,,,47.236387,-93.530366
SILVER BIRCH GIFT SHOP,3923 FIRST AVE.,,HIBBING,MN,55746,,,,47.402963,-92.942604
LOTUS ON THE LAKE,600 E. SUPERIOR ST,,DULUTH,MN,55802,,,,46.792237,-92.090733
CATHERINE IMPORTS,11 E. SUPERIOR STREET,,DULUTH,MN,55802,,,,46.787457,-92.097842
HERS,107 FIRST STREET SOUTHWEST,,ROCHESTER,MN,55902,,,,44.022688,-92.465012
ASTRUP DRUG INC,905 NORTH MAIN ST,,AUSTIN,MN,55912,,,,43.67412,-92.974837
Urban Shoetique,2850 MIDWEST DRIVE SUITE 104,,ONALASKA,Wisconsin,55987,,,,43.879667,-91.188482
WILD GINGER,320 S MAIN STREET,,ZUMBROTA,MN,55992,,,,44.293858,-92.669297
CREEKSIDE BOUTQUE,120 N AUGUSTA COURT # 101,,MANKATO,MN,56001,,,,44.188561,-93.94846
MAINSTREAM BOUTIQUE - MANKATO,1901 MADISON AVE SUITE#110,,MANKATO,MN,56001,,,,44.167036,-93.975548
LEUTHOLDS,2426 BRIDGE AVE,,ALBERT LEA,MN,56007,,,,43.679704,-93.358747
A TO ZINNIA FLORAL & GIFTS,15 S. BROADWAY,,NEW ULM,MN,56073,,,,44.312049,-94.459431
GEYERMANS CLOTHING COMPANY INC,201 WEST MAIN,,PIPESTONE,MN,56164,,,,43.878421,-96.407356
THE CLOTHIER BY DAWN``,110 EAST MAIN ST,,PIPESTONE,MN,56164,,,,44.00755,-96.100804
DIANNE'S DOCKSIDE,1716 HWY 59,,SLAYTON,MN,56172,,,,44.097049,-95.74323
KRISTI'S KLOSET DBA KRISTI'S FOR WOMEN,233 WEST MAIN STREET,,MARSHALL,MN,56258,,,,44.447105,-95.789121
MY MIDLIFE CLOSET AND ALI J BOUTIQUE,20 CENTRAL AVE.,,NEW LONDON,MN,56273,,,,45.301145,-94.94333
BON JOS,602 BROADWAY,,ALEXANDRIA,MN,56308,,,,45.885828,-95.37793
The Clothesline ,225 MAIN STREET,,PIERZ,Minnesota,56364,,(320) 468-2999,theclothesline@centurylink.net,45.982791,-94.10579
BIDI BOUTIQUE LIS LLC,28274 NATURE RD,,ROYALTON,MN,56373,,,,45.834961,-94.066937
EVELIE BLU COLLECTIONS,1190 FLAMEWOOD DR,,SAUK RAPIDS,MN,56379,,,,45.58491,-94.078684
CHRISTMAS POINT,14803 EDGEWOOD DR,,BAXTER,MN,56425,,,,46.366566,-94.244979
LUNDRIGANS CLOTHING,35732 ALLEN AVE,,CROSSLAKE,MN,56442,,,,46.671317,-94.101931
SUMMERHILL FARM INC.,24013 US 71,,PARK RAPIDS,MN,56470,,,,47.007809,-95.108025
LESLIE'S CLOTHING,31024 COUNTY ROAD 112,,PEQUOT LAKE,MN,56472,,,,46.603156,-94.309522
RIGHT ARM INVESTMENTS DBA THE NINES,910 WASHINGTON AVE,,DETROIT LAKES,MN,56501,,,,46.817124,-95.845476
DOT & MINNIE'S,148 1ST. AVE S,,PERHAM,MN,56573,,,,46.593824,-95.573885
BOUTIQUE ON FOX,1902 FOX DRIVE NW,,BEMIDJI,MN,56601,,,,47.486798,-94.926031
"I.H. STEWART, INC DBA THE HIDE AWAY",326 3RD STREET,,INTERNATIONAL FALLS,MN,56649,,,,48.602875,-93.404122
"PINE, LLC",6076 S. THUNDER LAKE DRIVE NE,,REMER,MN,56672,,,,46.932346,-93.963663
"FOUR SEASONS (CROOKSTON, MN)",101 N. BROADWAY,,CROOKSTON,MN,56716,,,,47.774146,-96.606974
TWO TWENTY BLING BOUTIQUE,14357 STATE HWY 220 SW EAST,,GRAND FORKS,MN,56721,,,,47.959397,-97.020393
ESTELLE STYLE,1500 E. LIBERTY STREET,,BRANDON,SD,57005,,,,43.605223,-96.568764
STAN'S MEN & WOMEN'S APPAREL,105 N. EGAN AVE,,MADISON,SD,57042,,,,44.005126,-97.113946
BLUE MONARCH,120 MAIN STREET,,VERMILLION,SD,57069,,,,42.841423,-97.067465
ATTITUDES,1700 S. WESTERN AVE.,,SIOUX FALLS,SD,57105,,,,43.530435,-96.750616
HALBERSTADTS CLOTHIERS INC,3607 W 41ST STREET,,SIOUX FALLS,SD,57106,,,,43.514453,-96.770046
YOUR UPTOWN CLOSET,2700 W. SUDBURY,,SIOUX FALLS,SD,57108,,,,43.476046,-96.755329
MAINSTREAM BOUTIQUE - ABERDEEN,SHOPPES AT DAWLEY FARMS,,SIOUX FALLS,SD,57110,,,,43.548613,-96.633203
BRASEN GREY BOUTIQUE,8409 E. WILLOW WOOD ST,,SIOUX FALLS,SD,57110,,,,43.546381,-96.622457
DORALES,5 SOUTH MAPLE,,WATERTOWN,SD,57201,,,,44.899961,-97.113289
A TOUCH OF COUNTRY,289 DAKOTA AVE SOUTH,,HURON,SD,57350,,,,44.363541,-98.214368
AL'S OASIS INC,1000 E. HWY 16,,OACOMA,SD,57365,,,,43.803072,-99.382136
FASHION RX,129 HYDE DR,,PIERRE,SD,57501,,,,44.383048,-100.367614
MONA LISA'S ON MAIN,615 MAIN STREET,,RAPID CITY,SD,57701,,,,44.080962,-103.227203
UNTAMED ACCESSORIES & CLOTHING,617 MAIN ST,,RAPID CITY,SD,57701,,,,44.080981,-103.228068
"KTD ENTERPRISES, INC DBA WEATHERED VANE",2255 HAINES AVE # 300,,RAPID CITY,SD,57701,,,,44.107262,-103.222856
HUDSON AND MAIN,111 E. HUDSON ST,,SPEARFISH,SD,57783,,,,44.488802,-103.858529
TWISTED SISTERS BOUTIQUE,2214 AMHERST AVE,,BUTTE,MT,57901,,,,45.986251,-112.505759
INDIGO LLC,502 DAKOTA AVE,,WAHPETON,ND,58075,,,,46.264097,-96.607141
WINSTON & CO,1702 4TH ST N,,WAHPETON,ND,58075,,,,46.285379,-96.605018
SCHEELS HOME AND HARDWARE,3202 13TH AVE. SOUTH,,FARGO,ND,58103,,,,46.860509,-96.830741
SCHEELS HOME & HARDWARE,3202  13TH AVE S,,FARGO,ND,58103,,,,46.860509,-96.830741
SCHEELS,1551 45TH STREET S,,FARGO,ND,58103,,,,46.85745,-96.864197
MAINSTREAM BOUTIQUE - FARGO,2603 KIRSTEN LANE S. #103,,FARGO,ND,58104,,,,46.831871,-96.822347
HG CLOTHING LLC.,2603 KIRSTEN LANE SUITE# 103,,FARGO,ND,58104,,,,46.831871,-96.822347
MAINSTREAM BTQ - GRAND FORKS,2712 SO. COLUMBIA ROAD,,GRAND FORKS,ND,58201,,,,47.866638,-97.141144
ALLISONICOLE'S,4571 S. WASHINGTON ST,,GRAND FORKS,ND,58201,,,,47.877177,-97.04376
ROOTS BTQ & SALON,1120 N. STREET,,BISMARCK,ND,58501,,,,46.816035,-100.700296
APRICOT LANE BOUTIQUE,1001 W INTERSTATE AVE. #116,,BISMACK,ND,58503,,,,46.833383,-100.808769
MAINSTREAM BTQ (BISMARK),931 S WASHINGTON,,BISMARK,ND,58504,,,,46.795389,-100.793979
LILLIAN'S,1681 3RD AVE W.,,DICKINSON,ND,58601,,,,46.900982,-102.792248
MAINSTREAM BTQ - DICKINSON,401 W. VILLARD STREET,,DICKINSON,ND,58601,,,,46.879191,-102.791345
YELLOWSTONE TRADING POST,109 E. MAIN STREET,,COOKE CITY,MT,59020,,,,45.019138,-109.935445
NEECEES,2821 2ND AVENUE NORTH,,BILLINGS,MT,59101,,,,45.782584,-108.50774
CRICKET CLOTHING CO,2814 2ND AVE. N,,BILLINGS,MT,59101,,,,45.78236,-108.507068
DESMONDS OF BILLINGS INC,2819 2ND AVENUE NORTH,,BILLINGS,MT,59101,,,,45.782623,-108.507657
THE BASE CAMP,1730 GRAND AVE,,BILLINGS,MT,59102,,,,45.783814,-108.560491
BIG BEAR SPORTS CENTER,2618 KING AVE WEST,,BILLINGS,MT,59102,,,,45.753684,-108.580516
THE JOY OF LIVING,1528 WEST 24TH,,BILLINGS,MT,59102,,,,45.786137,-108.576841
NASSELLA LLC,1811 WATERFORD CIRCLE,,BILLINGS,MT,59106,,,,45.789978,-108.623403
HOLLY & CO,124 5TH ST S,,GLASGOW,MT,59230,,,,48.194439,-106.636771
DRAGONFLY DRY GOODS,504 CENTRAL AVENUE,,GREAT FALLS,MT,59401,,,,47.505134,-111.298634
LARSON CLOTHING CO.,159 MAIN ST,,SHELBY,MT,59474,,,,48.505744,-111.856675
COBBLESTONE CLOTHING,828 GREAT NORTHERN BLVD # 103,,HELENA,MT,59601,,,,46.596177,-112.037659
KALLY'S KORNER,"102 N MAIN ST,",,BUTTE,MT,59701,,,,46.013735,-112.535568
FUSION BOUTIQUE,200 E. PARK AVE,,ANACONDA,MT,59711,,,,46.129294,-112.951147
JONAH & SAGE,240 EAST MAIN STREET,,BOZEMAN,MT,59715,,,,45.679037,-111.032852
FIRST RESORT CLOTHING,219 MAIN ST,,POLSON,MT,59860,,,,47.693667,-114.163086
CROWN ENT.  INC DBA SPORTSMAN & SKI,145 HUTTON RANCH RD,,KALISPELL,MT,59901,,,,48.234616,-114.328795
S.M. BRADFORD,206 CENTRAL AVE,,WHITEFISH,MT,59937,,,,48.410352,-114.336952
FOUR SQUIRES (ANTIOCH),414 LAKE STREET,,ANTIOCH,IL,60002,,,,42.477057,-88.097486
FOUR SQUIRES,414 LAKE STREET,,ANTIOCH,IL,60002,,,,42.477057,-88.097486
SAVVY SPIRIT,200 APPLEBEE STREET,,BARRINGTON,IL,60010,,,,42.155839,-88.139688
THE SOUTH BARRINGTON CLUB,3 TENNIS CLUB LANE,,SOUTH  BARRINGTON,IL,60010,,,,42.073548,-88.144517
THE CLOTHES GALLERY,51 N. WILLIAMS ST,,CRYSTAL LAKE,IL,60014,,,,42.242337,-88.31773
ANDEE PAWLOW AND ASSOCIATES,660 INDIAN HILL RD,,DEERFIELD,IL,60015,,,,42.165205,-87.863276
GUYS AND CO,827 WAUKEGAN RD.,,DEERFIELD,IL,60015,,,,42.168169,-87.845769
"TEMPTATIONS (GLENCOE, IL)",665 VERNON AVE,,GLENCOE,IL,60022,,,,42.133315,-87.758746
FIRE AND ICE,1484 WAUKEGAN ROAD,,GLENVIEW,IL,60025,,,,42.082327,-87.799406
BONNIE'S CHIC BOUTIQUE,34121 N US HWY 45,,GRAYSLAKE,IL,60030,,,,42.358653,-88.000763
BETT'S,678 CENTRAL AVE,,HIGHLAND PARK,IL,60035,,,,42.184592,-87.80186
"ENAZ, LTD",444 CENTRAL AVENUE,,HIGHLAND PARK,IL,60035,,,,42.186339,-87.796807
E STREET DENIM,1876 FIRST STREET,,HIGHLAND PARK,IL,60035,,,,42.186452,-87.800628
CQC BOUTIQUE,17 STONE CREEK DRIVE,,HAWTHORN WOODS,IL,60047,,,,42.218115,-88.08124
HOUSE OF BETTY JANE INC,499 ELA ROAD,,LAKE ZURICH,IL,60047,,,,42.18883,-88.10336
LIBERTYVILLE CLUB,1030 S. FOURTH AVE,,LIBERTYVILLE,IL,60048,,,,42.267065,-87.941448
AUGUST MAY,1436 GREGORY CT,,INDIANA CREEK,IL,60061,,,,42.229972,-87.984114
PAYTON ROSE,2760 DUNDEE RD,,NORTHBROOK,IL,60062,,,,42.138854,-87.846684
UP TOWN GIRLZ,110 S. PROSPECT AVE,,PARK RIDGE,IL,60068,,,,42.009268,-87.831475
ILLUSSIONS BY JILL,275 PARKWAY DR,,LINCOLNSHIRE,IL,60069,,,,42.180349,-87.92741
FINERY & FINISHES,10315 MAIN STREET,,RICHMOND,IL,60071,,,,42.476026,-88.306313
RAINY DAY RETAILERS,25130 WEST IVAN HOE ROAD,,WAUCONDA,IL,60084,,,,42.249187,-88.122796
ALICE B,127 MCHENRY ROAD,,BUFFALO GROVE,IL,60089,,,,42.156341,-87.95785
LAD & LASSIE,1115 CENTRAL,,WILMETTE,IL,60091,,,,42.076468,-87.705775
ENAZ FOR LIFE,309 HAPP ROAD,,NOTHFIELD,IL,60093,,,,42.09975,-87.768995
FOXTAIL BOUTIQUE,160 E LAKE ST,,BLOOMINGDALE,IL,60108,,,,41.957779,-88.073537
THE UPTOWN SHOP,129 N YORK ST.,,ELMURST,IL,60126,,,,41.90081,-87.939823
DEEDEE & EDEE,7415 W. MADISON,,FOREST PARK,IL,60130,,,,41.879731,-87.810393
BLUE ROSE SHOE CORP,7500 MADISON ST,,FOREST PARK,IL,60130,,,,41.879652,-87.812026
THE LITTLE TRAVELER,404 S. 3RD STREET,,GENEVA,IL,60134,,,,41.883635,-88.309457
LOLA,686 ROOSEVELT ROAD,,GLEN ELLYN,IL,60137,,,,41.859722,-88.057563
Lizzy's Pink Boutique,303 W State St,,Sycamore,Illinois,60178,,,,41.988973,-88.68686
LIZZY'S PINK BOUTIQUE,303 W. STATE ST,,SYCAMORE,Illinois,60178,,,,41.988973,-88.68686
STRUT INC DBA NILIA NARACE,31W007 NORTH AVE,,WEST CHICAGO,IL,60185,,,,41.91543,-88.224381
BELLA ROBA,104 N. HALE ST.,,WHEATON,IL,60187,,,,41.865122,-88.108463
STELLA,2116 CENTRAL ST,,EVANSTON,IL,60201,,,,42.064208,-87.702916
LINDA BOUVILOM,2610 CENTRAL ST. #3A,,EVANSTON,IL,60201,,,,42.064137,-87.709677
MY SISTER & ME,1 N. WHITE ST,,FRANKFORT,IL,60423,,,,41.498608,-87.849052
IMAGES MED SPA DBA BLING BTQ.,19070 EVERETT BLVD,,MOKENA,IL,60448,,,,41.544615,-87.853969
CONCEPT VENTURE DBA IZZY'S GIFTS,11318 W LINCOLN HWY,,MOKENA,IL,60448,,,,41.50477,-87.892706
ME TU BOUTIQUE,216 N. LIBERTY,,MORRIS,IL,60450,,,,41.357848,-88.423928
JEAN THERAPY,14360 S. LA GRANGE RD. UNIT D,,ORLAND PARK,IL,60462,,,,41.628811,-87.85431
JEANS AND CUTE TOP,5116 MAIN ST,,DOWNERS GROVE,IL,60515,,,,41.794341,-88.010735
STYLE STUDIO,1015 CURTISS ST,,DOWNERS GROVE,IL,60515,,,,41.793552,-88.009785
THE DISTRICT FASHION GROUP,11 E. FIRST GROUP,,HINSDALE,IL,60521,,,,41.801843,-87.928443
CLEO BOUTIQUE,36 SOUTH LA GRANGE RD,,LA  GRANGE,IL,60525,,,,41.814261,-87.870011
VENI VIDI VAL,25. S. LA GRANGE RD,,LA GRANGE,IL,60525,,,,41.815019,-87.86933
BIOLOGIE BOUTIQUE,4228 GAGE AVE,,LYONS,IL,60534,,,,41.814357,-87.815486
DEAN'S,226 S. MAIN ST,,NAPERVILLE,IL,60540,,,,41.772073,-88.149223
AMERICAN MALE & CO,27 MAIN ST,,OSWEGO,IL,60543,,,,41.684663,-88.352147
SWEET PEA & ME DBA HAVE TO HAVE,24041 W LOCKPORT ST,,PLAINFIELD,IL,60544,,,,41.608315,-88.204489
THE MISTER SHOP,7501 N. CERMAK RD.,,N. RIVERSIDE,IL,60546,,,,41.847098,-87.81029
NANETTE'S,101 E. CENTER STREET,,YORKVILLE,IL,60560,,,,41.647332,-88.445727
ROSSACE INC,165 N CANAL ST #1028,,CHICAGO,IL,60606,,,,41.885125,-87.639404
MAINSTREAM BTQ - CHICAGO,"4357 N LINCOLN AVE, UNIT C",,CHICAGO,IL,60618,,,,41.961178,-87.683285
ALCALA'S BOUTIQUE,1739 W CHICAGO AVE,,CHICAGO,IL,60622,,,,41.895737,-87.671266
PRIMA COISVAE BOUTIQUE,7136 S OAKLEY AVE,,CHICAGO,IL,60636,,,,41.763623,-87.681027
BE INSPIRED LLC,6808 N LORON AVE,,CHICAGO,IL,60646,,,,42.004867,-87.772682
PHAYES MEN,2501-B N. MILWAUKEE AVE.,,CHICAGO,IL,60647,,,,41.9268,-87.703278
"EAST BANK CLUB VENTURE, LLC",500 N. KINGSBURY STREET,,CHICAGO,IL,60654,,,,41.890109,-87.639315
MISERICORDIA,2051 W. DEVON AVENUE,,CHICAGO,IL,60689,,,,41.997717,-87.681686
STRAWBERRY LANE,6 W BAY PATH,,GALENA,IL,61036,,,,42.410602,-90.347253
K. PAIGE,10684 MAIN STREET,,ROSCOE,IL,61073,,,,42.416006,-89.009849
ROXY CARMICHAEL LLC,310 N. ALPINE ROAD,,ROCKFORD,IL,61107,,,,42.268222,-89.02925
THAT BOUTIQUE,1617A N. ALPINE RD,,ROCKFORD,IL,61107,,,,42.285632,-89.028945
"GWK ENTERPRISES, INC FOUR SEASONS",120 SOUTH STATE STREET,,GENESEO,IL,61254,,,,41.452455,-90.155442
JILLIANS BOUTIQUE,1009 25TH ST,,PERU,IL,61354,,,,41.343753,-89.118528
LITTLE BLUE DRESS,514 S MAIN ST,,PRINCETON,IL,61356,,,,41.370212,-89.465191
XANADU FASHIONS,78 S. SEMINARY STREET,,GALESBURG,IL,61401,,,,40.94657,-90.364952
DKF INC. DBA PRINCESS SHOPPE,1520 E JACKSON STREET,,MACOMB,IL,61455,,,,40.458966,-90.650296
DKF INC DBA ONE EAST BOUTIQUE,1 EAST SIDE SQUARE,,CANTON,IL,61520,,,,40.555633,-90.034506
ANN'S,316 S. MAIN,,MORTON,IL,61550,,,,40.60828,-89.463177
MARLATT INC. RIVIERA TAN AND SALON,2133A COURT STREET,,PEKIN,IL,61554,,,,40.558496,-89.616004
BURPOS BTQ.,106 W. WASHINGTON STREET,,BLOOMINGTON,IL,61701,,,,40.479379,-88.993945
SHOO SHOO BABY,203 N. PROSPECT ST # 200,,BLOOMINGTON,IL,61704,,,,40.481934,-88.9491
CHAMPAIGN SURPLUS INC.,303 S. NEIL STREET,,CHAMPAIGN,IL,61820,,,,40.11403,-88.243794
VILARDOS,1400 WHISPERING PINE LN,,WHITE HEATH,IL,61884,,,,40.123515,-88.482245
WHAT TO WEAR (EDWARDSVILLE) JILL,921 ARBOR VITAE SUITE #104,,EDWARDSVILLE,IL,62025,,,,38.841819,-89.877841
ARTEMIS VINTAGE,1018 WOODLEAF,,OFALLON,IL,62269,,,,38.603873,-89.900962
JS BOUTIQUE LLC. DBA:BASKET CASE,112 SUMMERLIN RIDGE,,OFALLON,IL,62269,,,,38.623084,-89.912156
YELLOW KISS BOUTIQUE,4430 BUNKER DRIVE,,QUINCY,IL,62305,,,,39.985541,-91.399076
MILLENNIUM ACCESSORIES,113 E. JEFFERSON AVE.,,EFFINGHAM,IL,62401,,,,39.121106,-88.541602
MY SISTERS CLOSET,364 S. SIDE SQUARE,,CARLINVILLE,IL,62626,,,,39.279124,-89.881752
THE WARDROBE,830 S. GRAND AVE WEST,,SPRINGFIELD,IL,62704,,,,39.786791,-89.665986
CARNABY SQUARE,115 E. MAIN STREET,,FAIRFIELD,IL,62837,,,,38.379761,-88.359771
THE CORNER,335 N MARKET ST,,MT. CARMEL,IL,62863,,,,38.408813,-87.760269
CARL'S FOR MEN AND WOMEN,3004 BROADWAY,,MT VERNON,IL,62864,,,,38.315145,-88.928016
TICKLED PINK BOUTIQUE & GIFT,1342 E MAIN,,CARBONDALE,IL,62901,,,,37.734326,-89.189199
GYPSY MOON BOUTIQUE,460 DROIT RD,,GALATIA,IL,62935,,,,37.782319,-88.601063
WHITE LILI BOUTIQUE,704 E. 5TH STREET,,METROPOLIS,IL,62960,,,,37.146879,-88.72453
FASHION CONNECTION DBA MARIAS BTQ,1352 CLARKSON CLAYTON CENTER,,ELLISVILLE,MO,63011,,,,38.603372,-90.588811
HEELS BOUTIQUE,170 PLAZA DRIVE,,WILDWOOD,MO,63040,,,,38.581678,-90.629279
ADDI'S INC.,124 W MAIN ST.,,WASHINGTON,MO,63090,,,,38.559842,-91.011783
LEOPARD BOUTIQUE LLC.,20 ALLEN AVE SUITE 100,,WEBSTER GROVES,MO,63119,,,,38.594073,-90.360705
ALPINE SHOP,440 N KIRKWOOD RD.,,ST. LOUIS,MO,63122,,,,38.586003,-90.405535
DETALLE BOUTIQUE,2961 DOUGHERTY FERRY RD,,ST LOUIS,MO,63122,,,,38.569226,-90.477816
HAPPY FEET DBA:SOLE COMFORT,8823 LADUE RD.,,LA DUE,MO,63124,,,,38.653859,-90.349597
MERCY GIFT SHOP,615 S. NEW BALLAS ROAD,,ST. LOUIS,MO,63141,,,,38.645626,-90.446306
MICHELLES,229 N MAIN STREET,,ST CHARLES,MO,63301,,,,38.78294,-90.480787
CARRIES BOUTIQUE,815 BROCKWELL DR,,DARDENNE PRAIRIE,MO,63368,,,,38.779305,-90.748906
CAROLYN'S APPAREL,1271 STATE HIGHWAY P,,NEW MADRID,MO,63869,,,,36.671104,-89.601224
LA BOUTIQUE,1929 N. WESTWOOD BLVD.,,POPLAR BLUFF,MO,63901,,,,36.775572,-90.422109
"BLISS BOUTIQUE (BLUE-SPRINGS, MO)",1765 NW BURDETT CROSSING,,BLUE SPRINGS,MO,64015,,,,39.037914,-94.273486
KLEINSCHMIDTS WESTERN STORE,19715 OUTER ROAD,,HIGGINSVILLES,MO,64037,,,,38.992687,-93.669931
ALISSA'S FLOWERS INC.,19321 E US 40 HWY STE H,,INDEPENDENCE,MO,64055,,,,39.0297,-94.355545
FINISHINGS FOR HER,312 SW MAIN ST.,,LEES SUMMIT,MO,64063,,,,38.911362,-94.377739
GIGI'S,920 MAIN,,LEXINGTON,MO,64067,,,,39.185698,-93.884409
BEE HIVE BOUTIQUE,350 S 291 HWY,,LIBERTY,MO,64068,,,,39.298945,-94.436314
PINK MAISY LLC.,406 W. PINE ST. SUITE D,,RAYMORE,MO,64083,,,,38.808706,-94.457214
SHOP GIRLS,6215 OAK ST,,KANSAS CITY,MO,64113,,,,39.014072,-94.583608
MOD PODGE BOUTIQUE,624 FRANCIS ST.,,ST. JOSEPH,MO,64501,,,,39.767245,-94.852811
WHAT TO WEAR,20 N. DELAWARE,,BUTLER,MO,64730,,,,38.257679,-94.333308
POVERTY FLATS INC. DBA:BLAIR'S LANDING,5845 OSAGE BEACH PARKWAY,,OSAGE BEACH,MO,65065,,,,38.152329,-92.626989
SYNCHRONICITY DBA UNDER THE SUN,8 SUNSET HILL,,SUNRISE BEACH,MO,65079,,,,38.176541,-92.786578
MY SISTER'S CIRCUS,1110 E. BROADWAY #A,,COLUMBIA,MO,65201,,,,38.951241,-92.324835
"SISTER & CO. (SEDALIA, MO)",7030 WHITE BIRCH DR.,,SEDALIA,MO,65301,,,,38.698002,-93.304097
SISTERS & CO. LOCKETT LASSIE LLC.,3805 SOUTH LIMIT,,SEDALIA,MO,65301,,,,38.678033,-93.251072
QUEEN ELIZABETH LLC. DBA:GRAND GLITZ,3265 FALLS PARKWAY SUITE E& F,,BRANSON,MO,65616,,,,36.625506,-93.281804
GRAND GLITZ (COMFORT BY DESIGN),2800 WEST HIGHWAY 76 SUITE#521,,BRANSON,MO,65616,,,,36.638218,-93.270161
FASHION HOUSE,109 W. VETERANS BLVD.,,BRANSON,MO,65616,,,,36.644798,-93.218771
GLITZ,211 E WASHINGTON STREET,,MARSHFIELD,MO,65706,,,,37.338724,-92.904945
SAVY TRENDS BOUTIQUE,901 SOUTH ST.,,STOCKTON,MO,65785,,,,37.681676,-93.797692
FABRIC TOWN,1717 E. CHEROKEE STE 107,,SPRINGFIELD,MO,65804,,,,37.17872,-93.263659
GOOD & PERFECT GIFTS,1145 E. REPUBLIC RD,,SPRINGFIELD,MO,65807,,,,37.138284,-93.278915
M&M ASSOCIATES DBA:ECCENTRICITY,716 MASSACHUSETTS,,LAWRENCE,KS,66044,,,,38.970572,-95.235669
MAINSTREAM BOUTIQUE (OLATHE),15056 S BLACK BOB ROAD,,OLATHE,KS,66062,,,,38.855914,-94.762338
TEAELLA,17219 W 161 PL,,OLATHE,KS,66062,,,,38.833357,-94.784983
EARL M. LEIGHTER DBA EJ'S BOUTIQUE,5037 W. 119TH ST,,OVERLAND PARK,KS,66209,,,,38.91194,-94.642936
REVELRY BOUTIQUE LLC,13630 HAUSER ST. APT 201,,OVERLAND PARK,KS,66221,,,,38.880405,-94.740707
MAGNOLIA'S BOUTIQUE,300 W. VINE ST.,,JUNCTION CITY,KS,66441,,,,39.017063,-96.833909
"THE BOUTIQUE, LLC",318 POYNTZ AVE.,,MANHATTN,KS,66502,,,,39.179525,-96.561127
VALLEY VET,1118 PONY EXPRESS HWY,,MARYSVILLE,KS,66508,,,,39.853112,-96.666258
SONDER SALON,321 MAIN,,NEODESHA,KS,66757,,,,37.417338,-95.678368
SATURDAY MORNING BOUTIQUE,226 WEST MAIN STREET,,COUNCIL GROVE,KS,66846,,,,38.661063,-96.49175
6TH STREET FASHIONS & FOOTWEAR INC.,218 W 6TH ST.,,CONCORDIA,KS,66901,,,,39.571228,-97.661892
"ROBIN'S (EL DORADO,KS)",113 W. CENTRAL,,EL DORADO,KS,67042,,,,37.817239,-96.850399
"HELLO BEAUTIFUL (PRATT, KS)",701 RIDGEWAY,,PRATT,KS,67124,,,,37.639232,-98.755874
"THE LBD, ETC",1403 N. LINDEN CIRCLE,,WICHITA,KS,67206,,,,37.709647,-97.235197
K.LANES,600 S TYLER,,WICHITA,KS,67209,,,,37.673422,-97.442833
WILD AT HEART,1820 N. TYLER,,WICHITA,KS,67212,,,,37.716802,-97.44398
PENNY LAYNE,112 N. SANTA FE AVE.,,SALINA,KS,67401,,,,38.841175,-97.608725
GINGERS UPTOWN INC.,721 5TH STREET,,CLAY CENTER,KS,67432,,,,39.377132,-97.126786
CLASSY LADY BOUTIQUE,220 N DOUGLAS AVE.,,ELLSWORTH,KS,67439,,,,38.730372,-98.230319
GUYS N GALS,106 N. MAIN,,MCPHERSON,KS,67460,,,,38.369744,-97.666679
GUYS SHOP OF MEPHERSON,106 N MAIN,,MCPHERSON,KS,67460,,,,38.369744,-97.666679
RENUE SALON & SPA,1314 WARNER RD,,GREAT BEND,KS,67530,,,,38.36485,-98.804288
"DRESS IT UP, INC.",511 BROADWAY,,LARNED,KS,67550,,,,38.179012,-99.098778
ARMAR BOUTIQUE,1905 AVE. I,,LYONS,KS,67554,,,,38.405903,-98.144048
REFINE LLC.,115 W. 10TH ST.,,HAYS,KS,67601,,,,38.872068,-99.331366
"THE CLOSET BOUTIQUE (RUSSELL, KS)",713 N. MAIN ST.,,RUSSELL,KS,67665,,,,38.892515,-98.859565
WOMEN'S BOUTIQUE THE DRESSER,152 S. PENN,,OBERLIN,KS,67749,,,,39.819845,-100.528764
BLUSH KANSAS,101 S MAIN STREET,,CIMARRON,KS,67835,,,,37.806684,-100.348656
JANET'S BRIDAL SHOP,1010 SOUTH VAN BUREN STREET,,HUGOTON,KS,67951,,,,37.171198,-101.351085
KAJOMA'S BOUTIQUE LLC,104 E 1ST STREET,,PAPILLION,NE,68046,,,,41.156614,-96.042672
MAINSTREAM BOUTIQUE - OMAHA,1201 S 157TH ST. #A3,,OMAHA,NE,68130,,,,41.247445,-96.159856
JC VAL INVESTMENTS DBA: BLISS BOUTIQUE,2332 186TH CIRCLE,,OMAHA,NE,68130,,,,41.23631,-96.204708
CMEL DBA:HUSH LA BOUTIQUE,16950 WRIGHT PLAZA SUITE 109,,OMAHA,NE,68130,,,,41.233611,-96.17898
FABULOUS FASHIONS BOUTIQUE,3415 N 143RD CIRCLE,,OMAHA,NE,68164,,,,41.289024,-96.135439
KIRTSEY,120 E 5TH ST,,YORK,NE,68467,,,,40.865596,-97.592056
RACHEL'S BOUTIQUE,7121 PIONEERS BLVD.,,LINCOLN,NE,68506,,,,40.769192,-96.622815
3 DAUGHTERS BOUTIQUE,311 N 8TH #102,,LINCOLN,NE,68508,,,,40.816203,-96.710331
BARBARA JEAN'S,2605 13TH ST,,COLUMBUS,NE,68601,,,,41.429039,-97.359888
SWANS APPAREL,205 MAIN STRET,,WAYNE,NE,68787,,,,42.622302,-97.266799
BOW & ARROW BOUTIQUE,2112 CENTRAL AVE.,,KEARNEY,NE,68847,,,,40.697162,-99.082111
GARY MICHAEL'S,642 W 2ND ST,,HASTINGS,NE,68901,,,,40.585375,-98.389708
DIVINE BOUTIQUE,605 MINOR AVE,,BERTRAND,NE,68927,,,,40.526909,-99.634352
THE 308 BOUTIQUE,320 WEST AVENUE,,HOLDREGE,NE,68949,,,,40.429207,-99.325955
RUSTIC & RED LLC.,139 WEST 8TH,,COZAD,NE,69130,,,,40.859282,-99.987077
NAILS BY BECKY,218 N. MAIN,,VALENTINE,NE,69201,,,,42.873462,-100.550166
FEBE III LLC,474 METAIRIE RD STE 702,,METAIRIE,LA,70005,,,,29.985309,-90.129726
MAPLE ST. CLOTHING,7732 MAPLE ST,,NEW ORLEANS,LA,70118,,,,29.942274,-90.130183
BALLIN'S,4001 EARHART BLAVD.,,NEW ORLEANS,LA,70125,,,,29.956742,-90.097893
JACI BLUE LLC,2111 MAGAZINE STREET,,NEW ORLEANS,LA,70130,,,,29.930165,-90.076131
JO & GRACE,1437 ST CHARLES STE.109,,HOUMA,LA,70360,,,,29.581561,-90.746703
COLUMBIA STREET MERCANTILE,236 N COLUMBIA STREET,,COVINGTON,LA,70433,,,,30.475647,-90.094215
JEWELIE'S BOUTIQUE,407 RENA DR.,,LAFAYETTE,LA,70503,,,,30.186593,-92.047719
LI TTLE TOWN,1116 COOLIDGE BLVD,,LAFAYETTE,LA,70503,,,,30.204683,-92.017432
LAFAYETTE BARGAIN STORE DBA BEVOS,DBA BEVO'S,,LAFAYETTE,LA,70506,,,,30.195474,-92.081292
MARCEAUX'S CLOTHING CO.,918 N. LAKE ARTHUR AVE.,,JENNINGS,LA,70546,,,,30.22868,-92.663236
GRANDMOTHER'S BUTTONS,9814 ROYAL ST,,ST. FRANCISVILLE,LA,70775,,,,30.774764,-91.385449
"MA PETITE, INC.",2561 CITIPLACE COURT # 400,,BATON ROUGE,LA,70808,,,,30.423592,-91.129051
SCHICK & SASSY BOUTIQUE,6475 HWY. 155,,SALINE,LA,71070,,,,32.206316,-92.936235
COULEUR COSMETIC BOUTIQUE,855 PIERRMONT RD. SUITE#126,,SHREVEPORT,LA,71106,,,,32.454856,-93.747712
THE LOFT,10801 WHITESTAR DR,,BASTROP,LA,71220,,,,32.795041,-91.873723
FASHION OF RUSTON,208W PARK AVE.,,RUSTON,LA,71270,,,,32.528964,-92.639861
JOHN WARD INTERIORS,1504 METRO DRIVE,,ALEXANDRIA,LA,71301,,,,31.274856,-92.475946
HARRISONS DEPARTMENT STORE,103 EAST ADAMS STREET,,HAMBURG,AR,71648,,,,33.226609,-91.797324
ACCESSORY GALLERY,2020 CENTRAL AVEN,,HOT SPRINGS,AR,71901,,,,34.492085,-93.058608
ACE OF DIAMOND,201 W MAIN,,MURFREEBORO,AR,71958,,,,34.062463,-93.691081
MERLE NORMAN BETH TAYLOR,322 WEST CYPRESS STREET,,BRINKLEY,AR,72021,,,,34.887343,-91.195601
LEFLERS,1114 OAK STREET,,CONWAY,AR,72032,,,,35.090949,-92.440365
BLISS SALON & BOUTIQUE,219 W MARKET AVE.,,SEARCY,AR,72143,,,,35.249515,-91.739499
POW INC DBA BEYOND COTTON,10700 RODNEY PARHAM ROAD UNIT C-3,,LITTLE ROCK,AR,72212,,,,34.771654,-92.39139
FORSYTHE'S,11525 CANTRELL ROAD STE# 201,,LITTLE ROCK,AR,72212,,,,34.792765,-92.402839
VESTA'S BOUTIQUE,11525 CANTRELL RD #303,,LITTLE ROCK,AR,72212,,,,34.792765,-92.402839
ME & MY SISTER,321 W. MAIN ST,,BLYTHEVILLE,AR,72315,,,,35.927342,-89.906412
WENFIELD'S,600 SOUTHWEST DR.,,JONESBORO,AR,72401,,,,35.815703,-90.712477
IMA'S FASHIONS INC.,309 W. GARLAND ST.,,PARAGOULD,AR,72450,,,,36.053648,-90.489004
MOSIAC BOUTIQUE,223 - A PRUETT ST,,PARAGOULD,AR,72450,,,,36.058118,-90.485786
CHRISTOPER'S,13 SPRING STREET,,EUREKA SPRINGS,AR,72632,,,,36.402901,-93.736804
LEANING WILLOW,1602 SR 124,,RUSSELLVILLE,AR,72802,,,,35.299861,-93.11312
HAZEL'S HAVEN,4120 ROGERS AVE SUITE 102,,FORT SMITH,AR,72903,,,,35.368912,-94.386356
SIMPLY SILVER DBA:SIMPLY SASSY APPAREL,2812 BERRYWOOD CIRCLE,,EDMOND,OK,73034,,,,35.674874,-97.443073
SHOE BAZAAR,704 S BROADWAY ST.,,MARLOW,OK,73055,,,,34.64047,-97.957683
THE KLOSET CORP.,208 WEST MAIN STREET,,WEATHERFORD,OK,73096,,,,35.525861,-98.709229
NANCY FARHA'S,9205 NORTH PENNSYLVANIA AVE.,,OKLAHOMA CITY,OK,73120,,,,35.56395,-97.549406
MARIA'S GARDEN,112 WHEELER ST. SW,,ARDMORE,OK,73401,,,,34.173894,-97.141134
THE SWANKY EDGE,119 BLUE RIDGE DR.,,ELK CITY,OK,73644,,,,35.383045,-99.401521
THE VOGUE BOUTIQUE,109 N MAIN ST.,,ELK CITY,OK,73644,,,,35.410756,-99.405068
PEARL JUNKIE LLC.,1305 INDIAN DR.,,ENID,OK,73703,,,,36.386064,-97.893752
LA DEE DA,403 COLLEGE AVE,,ALVA,OK,73717,,,,36.804909,-98.666928
MAXINE'S,802 MAIN STREET,,WOODWARD,OK,73801,,,,36.436343,-99.389562
THE FIXY FARMHOUSE,131 MAPLE DRIVE,,SHATTUCK,OK,73858,,,,36.262364,-99.88406
THE DISTRICT ON MAIN,406 W. WILL ROGERS BLVD,,CLAREMORE,OK,74017,,,,36.312109,-95.613969
ELIZABETH'S INC.,236 S. KNOBLOCK ST.,,STILLWATER,OK,74075,,,,36.119933,-97.065209
RIBBONS ON PEORIA,3525 S. PEORIA,,TULSA,OK,74105,,,,36.112467,-95.975545
THE SNOW GOOSE,1814 UTICA SQUARE,,TULSA,OK,74114,,,,36.131356,-95.962838
COMPLIMENTS,8931 S YALE AVE SUITE J,,TULSA,OK,74137,,,,36.034763,-95.921962
BELLA MEA'S,1601 E. OKMULGEE AVE.,,MUSKOGEE,OK,74403,,,,35.740911,-95.351142
JUNIES CLOSET,110 N. MUSKOGEE AVE,,TAHLEQUAH,OK,74464,,,,35.913396,-94.970763
PURPLE PLUME,225 DEWEY AVENUE,,POTEAU,OK,74953,,,,35.052139,-94.62131
JONI'S BOUTIQUE,7300 LONE STAR DR. SUITE C-115,,PLANO,TX,75024,,,,32.768734,-96.864895
SANDI'S BOUTIQUE,115 SOUTH TRAVIS  #A10,,SHERMAN,TX,75090,,,,33.635989,-96.608737
TRENDZ N TRADITIONS,113 N BALLAN AVE.,,WYLIE,TX,75098,,,,33.012135,-96.534936
CASSADY'S,800 N BEATON ST,,CORSICANA,TX,75110,,,,32.100436,-96.468521
LAKESIDE ALLURE RW,467 RIDGE POINT DR.,,HEATH,TX,75126,,,,32.832389,-96.453217
FRONT DOOR FASHION,2119 Farrington Street,,DALLAS,TX,75207,,(469) 351-7144,,32.79649,-96.831077
IVY JANE DBA: COUSIN EARL,1050 N. CLINTON,,DALLAS,TX,75208,,,,32.757171,-96.841136
MARY BETH,4719 W. LOVERS LANE,,DALLAS,TX,75209,,,,32.851531,-96.828066
CANAL CLOTHING,6465 E. MOCKINGBIRD LANE,,DALLAS,TX,75214,,,,32.837608,-96.751386
MELVILLE THOMAS DBA MEL CREWS,8316 PRESTON CTR. PLAZA,,DALLAS,TX,75225,,,,32.863498,-96.803123
KASSEIGH'S,118 W. 2ND ST,,MT. PLEASANT,TX,75455,,,,33.157713,-94.969134
LOU NELL FASHION,122 LEE STREET,,SULPHUR SPRINGS,TX,75482,,,,33.119141,-95.59787
LABELS BOUTIQUE,2801 ROBIN LN.,,TEXARKANA,TX,75503,,,,33.4614,-94.090856
BARRONS,405 LOOP 281 W,,LONGVIEW,TX,75605,,,,32.54248,-94.756142
SOMETHING SPECIAL (DAINGERFIELD),111 COFFEY,,DAINGERFIELD,TX,75638,,,,33.032543,-94.722278
B.J. TAYLOR & CO.,117 E. MAIN STREET,,HENDERSON,TX,75652,,,,32.153267,-94.798442
FOX III SALON & SPA,119 S. MARSHALL,,HENDERSON,TX,75652,,,,32.152146,-94.79801
KIMBOZE BOUTIQUE,400 N. MAIN,,LONE STAR,TX,75668,,,,32.94592,-94.71045
DEBORAH'S BTQ,100 W GRAND AVE SUITE A,,MARSHALL,TX,75670,,,,32.548674,-94.367322
AMY B'S (AMY S. BARBER),1512 WAVERLY STREET,,TYLER,TX,75701,,,,32.312418,-95.283156
KATHY'S BTQ,122 N PALESTINE ST,,ATHENS,TX,75751,,,,32.205021,-95.853557
GAUDY COUTURE INC,17968 FM 2493,,FLINT,TX,75762,,,,32.219702,-95.350538
VILLAGE SHOP,401 S. MAIN STREET,,QUITMAN,TX,75783,,,,32.793566,-95.451632
RENEES AT THE RED DOOR,1318 LUFKIN AVE,,LUFKIN,TX,75901,,,,31.336561,-94.715005
THE CASTLE COLLECTION,137 S. RIDGEWAY,,CLEBURNE,TX,76033,,,,32.339572,-97.407284
MACHELLE'S,5611 COLLEYVILLE BLVD. #200,,COLLEYVILLE,TX,76034,,,,32.890175,-97.146501
"JEANS CROSSING, INC.",1442 E HWY 377,,GRANBURY,TX,76048,,,,32.439219,-97.765403
ASHLIN'S LTD.,413 S. MAIN ST.,,GRAPEVINE,TX,76051,,,,32.937254,-97.07812
JANE ABBY BOUTIQUE,2102 CR-304,,RAINBOW,TX,76077,,,,32.292598,-97.709225
TRULY TRENDY,1713 BETHAL RD.,,WEATHERFORD,TX,76086,,,,32.736968,-97.798914
THE WARDROBE,4528 HARTWOOD DR,,FORT WORTH,TX,76109,,,,32.708662,-97.387423
MIK'S RB & KIT INC.,2302 BROOK AVE.,,WICHITA FALLS,TX,76301,,,,33.891176,-98.503889
HARVEST DRUG & GIFT,4426 KELL BLVD,,WICHITA FALLS,TX,76309,,,,33.876988,-98.556151
BOAZ DEPT. STORE,507 ELM,,GRAHAM,TX,76450,,,,33.106561,-98.589249
"THREE GIRLS & THREAD, LLC. DBA:ZOOTY'S",3606 OAKWOOD COURT,,TEMPLE,TX,76504,,,,31.110104,-97.378637
"COCHRAN, BLAIR, & POTTS",221 EAST CENTRAL AVE.,,BELTON,TX,76513,,,,31.056005,-97.462831
SIMPLY GENERATIONS,911 MAIN STREET,,JUNCTION,TX,76849,,,,30.48907,-99.77057
THE TURNER COLLECTION,1821 KNICKERBOCKER RD. SUITE D,,SAN ANGELO,TX,76904,,,,31.427756,-100.458347
KEL INC. DBA:DIMENSIONS IN FASHION,6100 WESTHEIMER,,HOUSTON,TX,77057,,,,29.738965,-95.490272
SCRUPLES,5446 FM 1960 RD,,HOUSTON,TX,77069,,,,29.981418,-95.511385
GUMBO INC. DBA:IT'S ALL ABOUT YOU,14072 MEMORIAL DR.,,HOUSTON,TX,77079,,,,29.771156,-95.591361
VICKIE LYNN'S LLC.,8525 JCKRABBIT RD. SUITE N,,HOUSTON,TX,77095,,,,29.901879,-95.621295
"HELLO BEAUTIFUL BOUTIQUE (CONROE, TX)",3915 W. DAVIS ST. STE#230,,CONROE,TX,77304,,,,30.324262,-95.493565
MCADAMS DRY GOODS,2121 AVE P,,HUNTSVILLE,TX,77340,,,,30.710574,-95.557211
OUTBACK WESTERN WEAR LLC,30405 DOBBIN HUFSMITH RD,,MAGNOLIA,TX,77354,,,,30.188319,-95.637943
THE BLVD DBA:BLVD 346,25241 FM 2978,,TOMBALL,TX,77375,,,,30.128644,-95.595144
MAINSTREAM BOUTIQUE - SPRING,6392 LOUETTA ROAD,,SPRING,TX,77379,,,,30.028448,-95.512032
MAINSTREAM BOUTIQUE (THE WOODLANDS),3091 COLLEGE PARK DR. #193,,THE WOODLANDS,TX,77384,,,,30.207538,-95.459036
INITIALLY YOURS,15411 PRADE RANCH LN.,,CYPRESS,TX,77429,,,,30.001823,-95.643337
J BARTON CLOTHIERS,23501 CINCO RANCH BLVD #B120,,KATY,TX,77494,,,,29.742023,-95.774469
VESSEL & THREADS,3215 WOODWIND DRIVE.,,MONTGOMERY,TX,77556,,,,30.392717,-95.610162
ELAINES FASHIONS,107 WEST WAY SUITE 3,,LAKE JACKSON,TX,77566,,,,29.043384,-95.452608
WINS-WALKER DBA:GINGER SNAPS,2318 BULLHEAD DR.,,LEAGUE CITY,TX,77573,,,,29.475409,-95.11885
MAINSTREAM BOUTIQUE (PEARLAND),2705 EAST BROADWAY,,PEARLAND,TX,77581,,,,29.554776,-95.258633
COTERIE BOUTIQUE,4114 LAKE ATLAS DR. STE. 130,,BRYAN,TX,77807,,,,30.671076,-96.479892
TRES CHIC BOUTIQUE (BRENHAM),201 EAST MAIN ST.,,BRENHAM,TX,77833,,,,30.167659,-96.39728
THE PALM TREE,6322 N NAVARRO,,VICTORIA,TX,77904,,,,28.854478,-96.996441
CELESTE,140 SOUTH MAIN ST,,BOERNE,TX,78006,,,,29.793327,-98.731616
BELLAS COTTAGE INC.,109 S. KATHLEEN,,BEEVILLE,TX,78102,,,,28.406626,-97.736429
GRUENE WITH ENVY,1706 HUNTER RD.,,NEW BRAUNFELS,TX,78130,,,,29.739514,-98.102461
"GROVE HILL, LTD.",355 E. BASSE RD.,,SAN ANTONIO,TX,78209,,,,29.497353,-98.478449
"JULIAN GOLD, LTD.",4109 MCCULLOUGH AVE.,,SAN ANTONIO,TX,78212,,,,29.468342,-98.492167
PINKY'S BOUTIQUE,4215 MCCULLOUGH AVE,,SAN ANTONIO,TX,78212,,,,29.469762,-98.491926
GENERAL STORE AND LEATHER GOODS MGMT,DBA BIRKENSTOCK GENERAL STORE,,SAN ANTONIO,TX,78230,,,,29.545289,-98.556564
PILAR INC.,3814 S ALAMEDA #32,,CORPUS CHRISTI,TX,78411,,,,27.744056,-97.381274
SHOP 112,5401 N. 10TH STREET #112,,MCALLEN,TX,78501,,,,26.252609,-98.222207
FASHION POSH,117 E. JACKSON STREET,,HARLINGTON,TX,78550,,,,26.192918,-97.695453
CECILY'S LLC,516 N. SHARY RD. STE F,,MISSION,TX,78572,,,,26.206525,-98.286137
RENVEN LLC. DBA:RENEE'S OF SOUTH PADRE,3920 N. SHARY RD.,,PALMHURST,TX,78573,,,,26.24901,-98.279017
IN STEP FASHIONS,324 E. MAIN STREET,,FREDERICKSBURG,TX,78624,,,,30.272089,-98.867828
"HILL COUNTRY OUTFITTERS, INC.",115 EAST MIAN ST.,,FREDERICKSBURG,TX,78624,,,,30.274621,-98.871917
PINK POPPY,210 WOODSTONE DRIVE,,GEORGETOWN,TX,78628,,,,30.616691,-97.696019
SHEAR DESIGNS,805 ST JOSEPH,,GONZALES,TX,78629,,,,29.543029,-97.543969
CIAO BELLA,309 MAIN ST #6,,MARBLE FALLS,TX,78654,,,,30.571982,-98.27718
TWO P'S & CALLI'S BTQ,690 CENTER POINT RD STE 205,,SAN MARCOS,TX,78666,,,,29.766922,-97.967904
DOVETAIL'S OF WIMBERLEY LLC.,13701 RANCH ROAD 12,,WIMBERLEY,TX,78676,,,,29.995521,-98.093885
TREASURE HOUSE,12905 CORIANDER DR,,AUSTIN,TX,78729,,,,30.45055,-97.767912
THE GIFT SOLUTION INC.,2901 CAPITAL OF TEXAS HWY,,AUSTIN,TX,78746,,,,30.327453,-97.811132
SUE PATRICK,5222 BURNET ROAD SUITE #150,,AUSTIN,TX,78756,,,,30.324299,-97.740202
KJD INC. DBA:JULIEN THE VILLAGE PEDLAR,200 N. GETTY ST.,,UVALDE,TX,78801,,,,29.211336,-99.786629
J. JUNE,1207 OAK LANE,,HONDO,TX,78861,,,,29.363451,-99.144168
THE PEPPERMINT TREE AND THE BRANCH,218 S THIRD,,CANADIAN,TX,79014,,,,35.913056,-100.385662
B. WHIMSY,213 DENROCK,,DALHART,TX,79022,,,,36.063828,-102.523051
3 TWENTY EIGHT,243 N. MAIN STREET,,HEREFORD,TX,79045,,,,34.816554,-102.39952
KESSY'S NOOK,121 WEST TEXAS ST,,WHEELER,TX,79096,,,,35.443899,-100.274616
THE SECRET PLACE,3690 S. SONCY ROAD,,AMARILLO,TX,79119,,,,35.168062,-101.938731
MAIN PLACE,101-A E. BROADWAY,,BROWNFIELD,TX,79316,,,,33.178327,-102.274669
MAIN PLACE,101-A E. BROADWAY,,BROWNFIELD,TX,79316,,,,33.178327,-102.274669
YOUR SHOP,804 AUSTIN,,LEVELLAND,TX,79336,,,,33.586145,-102.377002
J HOFFMAN/THREE WORLDS INC,4918 50TH STREET,,LUBBOCK,TX,79414,,,,33.549126,-101.916962
ACCESSORY TOUCH,5217 82ND #205,,LUBBOCK,TX,79424,,,,33.518872,-101.924899
VILLAGE SHOES & BOUTIQUE INC.,201 WALNUT ST.,,ABILENE,TX,79601,,,,32.450626,-99.731236
LAURAS BOUTIQUE,3214 S 27TH,,ABILENE,TX,79605,,,,32.418277,-99.762589
MERLE NORMAN / ADA MARIE'S,3209 COURTYARD DRIVE STE# B,,MIDLAND,TX,79705,,,,32.032016,-102.126079
VICTORIA'S DECOR & DESIGN,305 N. MAIN STREET,,ANDREWS,TX,79714,,,,32.320751,-102.547339
CAROLINA SANDOVAL BOUTIQUE,2220 BASSET AVE,,EL PASO,TX,79901,,,,31.771479,-106.463756
TRES MARIPOSAS,5857 NORTH MESA,,EL PASO,TX,79912,,,,31.824974,-106.523848
ELI ASH BY HEALING ARTS DBA CARLY'S BTQ,7401 GRANDVIEW,,ARVADA,CO,80002,,,,39.799811,-105.079183
BELLA A BOUTIQUE,14805 W. 64TH AVE UNIT A,,ARVADA,CO,80007,,,,39.813024,-105.165656
FABFIT LLC,3331 GRAYLOCK RUN,,BROOMFIELD,CO,80023,,,,39.997839,-105.030028
ELIZABETH'S EMBELLISMENTS,6115 PUBLIC ROAD,,LAFAYETTE,CO,80026,,,,40.026334,-105.104899
MAINSTREAM BTQ - CASTLE PINES,872 W. HAPPY CANYON ROAD,,CASTLE PINES,,80108,,,,39.426511,-104.901395
VISION AT HAPPY,2240 MERCANTILE AVE SUITE 101,,CASTLE ROCK,CO,80109,,,,39.40212,-104.886577
WILD BLUE BOUTIQUE,4940 SOUTH YOSEMITE STREET,,GREENWOOD VLG,CO,80111,,,,39.625566,-104.883422
ROSEY'S BY DIANE LLC,1546 HERMOSA DR,,HIGHLANDS RANCH,CO,80126,,,,39.542002,-104.97151
PARKER PANACHE,19561 E. MAIN STREET,,PARKER,CO,80138,,,,39.518508,-104.761483
"KIOTI, INC",250 FILLMORE UNIT C,,DENVER,CO,80206,,,,39.720209,-104.953268
PINE CREEK CLOTHING DBA WISH BTQ,1099 S GAYLORD STREET,,DENVER,CO,80209,,,,39.696726,-104.961904
GRACIES BOUTIQUE,1511 S. PEARL ST.,,DENVER,CO,80210,,,,39.689126,-104.980539
KLOZ PARTY BY PINK PONY,11400 W. BEAR CREEK DRIVE,,LAKEWOOD,CO,80227,,,,39.655599,-105.125399
SELFIE STYLER INC.,3117 S EMPORIA CT,,DENVER,CO,80231,,,,39.659971,-104.876147
CHANGES IN LATITUDE,2525 ARAPAHOE,,BOULDER,CO,80302,,,,40.015267,-105.262598
"THE RITZ BOULDER, CO",959 WALNUT STREET,,BOULDER,CO,80302,,,,40.016664,-105.282325
VIOLETTE,4647 S HAMPTON CIR,,BOULDER,CO,80302,,,,40.046648,-105.245178
JACQUE MICHELLE,2670 BROADWAY,,BOULDER,CO,80304,,,,40.025152,-105.281161
BABY DOES CLOTHING & ACCESSORIES,1116 WASHINGTON AVE,,GOLDEN,CO,80401,,,,39.755523,-105.221879
BELVIDERE & HERN,308 A SOUTH MAIN ST,,BRECKENRIDGE,CO,80424,,,,39.479255,-106.045225
CAAMANO/ AMAZONIAS SWEATERS,1655 AIRPORT RD,,BRECKENRIDGE,CO,80424,,,,39.503543,-106.051927
LOOK WHAT I FOUND,25797 CONFER ROAD SUITE #B217,,CONIFER,CO,80433,,,,39.543278,-105.294583
ANGEL CONCEPT,7100 ANDREA LANE,,MORRISON,CO,80465,,,,39.587361,-105.229833
ALLEN'S CLOTHING,P.O BOX 771215,,STEAMBOAT SPRINGS,CO,80477,,,,40.486391,-106.829354
LIGHT FM & SONS,830 LINCOLN AVE,,STEAMBOAT SPRINGS,CO,80487,,,,40.486438,-106.834792
APPAREL VALLEY,471 MAIN STREET,,LONGMONT,CO,80501,,,,40.167119,-105.102917
TWENTY THREE TREES,2315 E. HARMONY RD. STE. 200,,FORT COLLINS,CO,80528,,,,40.521263,-105.034959
ALL THE THINGS DBA ELIZA ELAINE,7996 FAITH CT,,FREDERICK,CO,80530,,,,40.101863,-104.923078
CLOZ LLC DBA:CLOZ TO HOME BOUTIQUE,120 E 4TH ST.,,LOVELAND,CO,80537,,,,40.395176,-105.075189
LEMONS & LACE BOUTIQUE,5378 BROOKLINE DR,,TIMNATH,CO,80547,,,,40.51174,-104.950079
ELLY BLUE,2605 W COLORADO AVE,,COLORADO SPRINGS,CO,80904,,,,38.84803,-104.864316
MACKENZIE & WEST LLC,"2530 W COLORADO AVE, SUITE A",,COLORADO SPRINGS,CO,80904,,,,38.848231,-104.863697
WHAT TO WEAR ROCKY MOUNTAIN,2144 ROCKING HORSE COURT,,COLORADO SPRINGS,CO,80921,,,,39.022581,-104.786459
CHIC JUNQUE,5701 WHISKEY RIVER DR,,COLORADO SPRINGS,CO,80923,,,,38.914986,-104.694483
IT'S POSH BOUTIQUE,6121 BOW RIVER DR,,COLORADO SPRINGS,CO,80923,,,,38.923499,-104.730946
"RAZMATAZ, LLC",335 S. UNION AVE.,,PUEBLO,CO,81003,,,,38.262671,-104.615955
HAPPY TRAILS,454 PAGOSA ST,,PAGOSA SPRINGS,CO,81147,,,,37.267032,-107.010959
"PE101 ASPEN, CO",500 E COOPER AVE,,ASPEN,CO,81611,,,,39.188095,-106.818516
EMAGINARY LLC TRAFFIC,255 GOLD RIVERS CT #160,,BASALT,CO,81621,,,,39.367794,-107.034817
SUSAN'S FLOWERS,453 MAIN ST,,CARBONDALE,CO,81623,,,,39.400682,-107.21154
"PE101 EDWARDS, CO","0225 MAIN STREET, STE 107",,EDWARDS,CO,81632,,,,39.642786,-106.590275
PTARMIGAN SPORT,137 MAIN ST,,EDWARDS,CO,81632,,,,39.643629,-106.591031
PEPI SPORTS,231 BRIDGE STREET,,VAIL,CO,81657,,,,39.641123,-106.373788
LITTLE AMERICA,2800 W. LINCOLN WAY,,CHEYENNE,WY,82009,,,,41.118772,-104.858084
SENSUOUS SHE,106 IVINSON,,LARAMIE,WY,82070,,,,41.311898,-105.595663
COLONEL CODY'S EMPORIUM,1192 SHERIDAN AVE,,CODY,WY,82141,,,,44.525857,-109.064427
PLUSH PONY,1350 SHERIDAN AVE,,CODY,WY,82414,,,,44.525892,-109.061038
POWELL MERCANTILE,235 N. BENT ST,,POWELL,WY,82435,,,,44.755043,-108.757371
FASHION CROSSROADS,228 E. 2ND STREET,,CASPER,WY,82601,,,,42.848864,-106.323382
SUN TAN USA,1512 E. 2ND ST,,CASPER,WY,82601,,,,42.848903,-106.305011
SPORTS LURE,66 SOUTH MAIN ST,,BUFFALO,WY,82834,,,,44.345782,-106.69952
THE SPORTS LURE,66 SOUTH MAIN,,BUFFALO,WY,82834,,,,44.345782,-106.69952
THE FASHION CENTER,53 S STATE ST,,PRESTON,ID,83263,,,,42.094991,-111.876601
MC PHERSONS,301 MAIN,,SALMON,ID,83467,,,,45.17613,-113.896276
MILLIE GRACE CORPORATION,2629 N EAGLE ROAD #100,,MERIDIAN,ID,83646,,,,43.629013,-116.354325
MARLA JUNE'S CLOTHING COMPANY,811 W. BANNOCK,,BOISE,ID,83702,,,,43.617335,-116.202755
DRAGONFLY INCORPORATED (BOISE),414 MAIN ST,,BOISE,ID,83702,,,,43.613448,-116.19881
"BOARDWALK BOUTIQUE, INC.","210 E. SHERMAN AVE, STE 111",,COEUR D ALENE,ID,83814,,,,47.673153,-116.783321
MARIE'S BOUTIQUE,117 S 4TH ST,,COEUR D' ALENE,ID,83814,,,,47.672843,-116.781492
CAROSEL EMPORIUM,1016 OTTIS BASIN RD,,SAGLE,ID,83860,,,,48.188283,-116.66642
ALAFINA LLC,824 SOUTH 820 EAST,,HEBER CITY,UT,84032,,,,40.497232,-111.399868
WATER FROM THE MOON,118 SOUTH 500 WEST,,HEBER,UT,84032,,,,40.506178,-111.422359
BAHNHOF SPORT WAREHOUSE,693 MAIN STREET,,PARK CITY,UT,84060,,,,40.646521,-111.497611
INSPIRE FASHIONS,1056 WEST HWY 40 #2,,VERNAL,UT,84078,,,,40.451936,-109.546341
MARELLA FASHIONS,91 W MAIN ST,,"VERNAL,",UT,84078,,,,40.455547,-109.530156
CHRISTENSEN'S (RICHFIELD),39 NORTH MAIN,,RICHFIELD,UT,84701,,,,38.768634,-112.084966
CHRISTENSEN'S,761 SOUTH BLUFF STREET,,ST. GEORGE,UT,84770,,,,37.094658,-113.584242
"ARIZONA BILTMORE,WALDORF ASTORIA RESORT",2400 EAST MISSOURI,,PHOENIX,AZ,85016,,,,33.524065,-112.022874
CARINE,5033 N 44TH STREET,,PHOENIX,AZ,85018,,,,33.510281,-111.986531
KISS ME KATE,5039 N. 44TH STREET,,PHOENIX,AZ,85018,,,,33.510425,-111.986529
ALIXANDRA COLLECTIONS,7027 E. 5TH AVE,,SCOTTSDALE,AZ,85251,,,,33.497185,-111.929799
OBJECTS,6560 N. SCOTTSDALE ROAD,,SCOTTSDALE,AZ,85253,,,,33.532554,-111.926113
ESSENZA BOUTIQUE,8936 E. PINNACLE PEAK ROAD,,SCOTTSDALE,AZ,85255,,,,33.69889,-111.888793
CHERYL'S OF FOUNTAIN HILLS,16858 AVE. OF THE FOUNTAINS #102,,FOUNTAIN HILLS,AZ,85268,,,,33.603966,-111.716181
WHAT WOMEN WANT,1825 E GUADALUPE RD STE 106,,TEMPE,AZ,85283,,,,33.363609,-111.910235
LIMITED ADDITIONS,4300 N CAMPBELL AVE STE#20,,TUCSON,AZ,85718,,,,32.285304,-110.943308
SAGE BRUSH TRADERS L.L.C.,120 N. LEROUX,,FLAGSTAFF,AZ,86001,,,,35.199144,-111.648309
CLASSY & SASSY BOUTIQUE,1930 WOODLAND CT,,WORTHINGTON,MN,86187,,,,43.603666,-95.625302
ISN'T SHE LOVELY,276 N SR89A # D2,,SEDONA,AZ,86336,,,,34.54504,-112.470356
DAHLING IT'S YOU ISNT SHE LOVELY,276 N SR89A # D2,,SEDONA,AZ,86336,,,,34.54504,-112.470356
HILLSON'S WESTERN WEAR,8800 CENTRAL S.E.,,ALBUQUERQUE,NM,87123,,,,35.073638,-106.549436
"GET IT TOGETHER DBA:ON YOUR FEET, INC.",530 MONTEZUMA AVE.,,SANTA FE,NM,87501,,,,35.685206,-105.946919
MAVERICKS OF SANTA FE,80 EAST  SAN FRANCISCO ST.,,SANTA FE,NM,87501,,,,35.686934,-105.938328
SPOTTED BEAR,127 PASEO DEL PUEBLO SUR,,TAOS,NM,87571,,,,36.406122,-105.57371
"STEPPIN' OUT (TAOS, NM)",120 K BENT STREET,,TAOS,NM,87571,,,,36.408167,-105.573596
EMERALD ISLE BOUTIQUE,1701 CALLE DE MERCADO #2,,LAS CRUCES,NM,88005,,,,32.28077,-106.795339
CHEEKY CHICKS,2521 AVENIDA DE MESILLA #B,,MESILLA,NM,88046,,,,32.274421,-106.792958
IMAGES BOUTIQUE,2400 NORTH GRIMES SUITE B2,,HOBBS,NM,88240,,,,32.726963,-103.142885
BLOOM,20 BROADMOOR PARK,,HOBBS,NM,88240,,,,32.724675,-103.131098
HIGH COUNTRY SPORTS INC,2716 SUDDERTH DRIVE,,RUIDOSO,NM,88345,,,,33.332299,-105.67758
BRUNELL'S INC.,2316 SUDDERTH,,RUIDOSO,NM,88345,,,,33.331281,-105.669264
"EDS APPAREL LTD, LLC.",3930 LAS VEGAS BLVD SO. #108,,LAS VEGAS,NV,89119,,,,36.093875,-115.176468
ROD MICHAELS INC/ DBA: MOROVATI VOMO,816 SOUTH LOS ANGELES STREET,,LOS ANGELES,CA,90014,,,,34.0415,-118.25266
HELPING HAND GIFT SHOP,8700 BEVERLY BLVD,,LOS ANGELES,CA,90048,,,,34.076545,-118.380005
"SANDY ASTON STABLE, INC",ASTON'S,,BONSALL,CA,92003,,,,33.27616,-117.1941
ARANELLE,2940 STATE STREET,,CARLSBAD,CA,92008,,,,33.16041,-117.348974
LAVENDER BLUE BOUTIQUE,519 GRAND AVE.,,CARLSBAD,CA,92008,,,,33.16071,-117.349282
LA BOUTIQUE LE DEUX,1438 CAMINO DEL MAR,,DELMAR,CA,92014,,,,32.959277,-117.265556
DURANTES MENSWEAR,1412 CAMINO DEL MAR,,DEL MAR,CA,92014,,,,32.958725,-117.26539
TRE BOUTIQUE,2690 VIA DE LA VALLE SUITE D 240,,DEL MAR,CA,92014,,,,32.981202,-117.25043
MABELS,136 SOUTH CEDROS AVE,,SOLANA BEACH,CA,92075,,,,32.99157,-117.270394
BAZAAR DEL MUNDO,4133 TAYLOR STREET,,SAN DIEGO,CA,92110,,,,32.757288,-117.197794
MALIBU FASHIONS & POSH,6315 CAMINITO SALADO,,SAN DIEGO,CA,92111,,,,32.772121,-117.18193
ALEXANDRITE ACTIVE & GOLF WEAR,78-100 MAIN STREET,,LA QUNITA,CA,92253,,,,34.05197,-118.24339
NOVECENTO SPORTS,7988 E. COAST HWY,,NEWPORT BEACH,CA,92657,,,,33.569562,-117.832159
BLONDIES,155 EL CAMINO REAL,,TUSTIN,CA,92780,,,,33.744854,-117.823282
SHANT INC\ DBA ART'S TAILORING,1010 E. IMPERIAL HWY. STE B-3,,BREA,CA,92821,,,,33.9125,-117.890247
MEADOW,309 E. MAIN ST,,VENTURA,CA,93001,,,,34.280957,-119.296083
RAINS,218 E. OJAI AVE,,OJAI,CA,93023,,,,34.448096,-119.245258
NATASHA,1231 A STATE ST,,SANTA BARBARA,CA,93101,,,,34.421897,-119.707135
H. WALKERS CLOTHING,1700 K STREET # 100,,BAKERSFIELD,CA,93301,,,,35.37465,-119.026781
NEW MOON,791 MAIN,,CAMBRIA,CA,93428,,,,35.567095,-121.099335
"POPPY - SOPHIA BOUTIQUE, LLC",911 EMBARCADERO,,MORRO BAY,CA,93442,,,,35.367126,-120.853898
PISMO COLLECTIONS,505 FIVE CITIES DR,,PISMO,CA,93449,,,,35.135088,-120.62456
DEASEE'S BOUTIQUE,4319 STEWART RD,,SANTA MARIA,CA,93454,,,,34.893892,-120.313448
THE DRESSING ROOM (TEHACHAPI),112-A E. TEHACHAPI BLVD,,TEHACHAPI,CA,93561,,,,35.131751,-118.446851
MS. FABULOUS,NW CORNER SAN CARLOS AND SEVENTH,,CARMEL,CA,93921,,,,36.549729,-121.922515
MORNING GLORY,1436 BURLINGAME AVE,,BURLINGAME,CA,94010,,,,37.577588,-122.349129
CHATEAU STE SHIRTS,1355 LINCOLN AVE,,CALISTOGA,CA,94515,,,,38.578283,-122.579398
ORCHARD'S LAZY K HOUSE,4010 MT DIABLO BLVD,,LAFAYETTE,CA,94549,,,,37.890439,-122.151843
PAULA WALSH,5786 SHADOW RIDGE,,PLEASANTON,CA,94566,,,,37.645601,-121.877409
DAISY CLOTHING BOUTIQUE,1332 MAIN STREET,,SAINT HELENA,CA,94574,,,,38.504843,-122.469207
ELEMENTS RETAIL GROUP,2937 COLLEGE AVE.,,BERKELEY,CA,94705,,,,37.857741,-122.2528
CORINTHIAN YACHT CLUB,43 MAIN ST,,TIBURON,CA,94920,,,,37.871529,-122.457221
ACCENTS,815 GRANT AVE,,NAVATO,CA,94945,,,,38.106827,-122.567011
J. FERMI,21 WESTERN AVE,,PETALUMA,CA,94952,,,,38.233752,-122.641609
HUBBA HUBBA,11 PRINCESS ST,,SAUSALITO,CA,94965,,,,37.854861,-122.479273
IRMA'S,230 5TH STREET,,HOLLISTER,CA,95023,,,,36.851632,-121.401569
THE LIBRARY,34 N. SANTA CRUZ AVE.,,LOS GATOS,CA,95030,,,,37.223541,-121.983169
LI ENTERPRISE GROUP DBA EPIC MENS,1072 S. DE ANZA BLVD,,SAN JOSE,CA,95129,,,,37.307686,-122.031403
EVE & ME,1700 MC HENRY SUITE 27,,MODESTO,CA,95350,,,,37.66895,-120.992355
ROSSINI 2 INC.,3224 MCHENRY AVE.,,MODESTO,CA,95350,,,,37.684536,-120.994071
ZIZI,334 HEALDSBURG AVE,,HEALDSBURG,CA,95448,,,,38.610597,-122.870436
FANCY THAT,10483 LANSING STREET,,MENDOCINO,CA,95460,,,,39.306709,-123.798232
ANGELIQUE,452 FIRST ST. EAST,,SONOMA,CA,95476,,,,38.292624,-122.456462
ERALDI'S MENS WEAR,475 FIRST ST. WEST,,SONOMA,CA,95476,,,,38.292476,-122.459039
CIARA'S IRISH SHOP,334 2ND STREET,,EUREKA,CA,95501,,,,40.804043,-124.168097
KATIA'S COLLECTION,2618 RIVERPINE COURT,,CARMICHAEL,CA,95608,,,,38.612781,-121.325736
AMBIANCE GALLERY INC,262 MAIN STREET,,PLACERVILLE,CA,95667,,,,38.728014,-120.803168
COTTON CLUB,2331 J STREET,,SACRAMENTO,CA,95816,,,,38.575658,-121.475526
COTTON CLUB (SACRAMENTO),2331 J STREET,,SACRAMENTO,CA,95816,,,,38.575658,-121.475526
COTTON PARTY,337 BROADWAY ST,,CHICO,CA,95928,,,,39.728561,-121.839691
FOR ELYSE,228 BROADWAY ST,,CHICO,CA,95928,,,,39.729244,-121.841084
SIDESTREET BTQ (SOUTH LAKE TAHOE),4000 LAKE TAHOE BLVD # 19,,SOUTH LAKE TAHOE,CA,96150,,,,38.954468,-119.945221
"MO, JO AND ZOE",10076 DONNER PASS ROAD,,TRUCKEE,CA,96161,,,,39.328147,-120.185241
PARK AND LU BOUTIQUE LLC,1315 SE 16TH AVE,,CANBY,OR,97013,,,,45.249098,-122.678594
GLASS BUTTERFLY,29 W. POWELL,,GRESHAM,OR,97030,,,,45.498101,-122.431768
DREAM STREET LLC,2149 CASCADE AVE,,HOOD RIVER,OR,97031,,,,45.708899,-121.533917
THE RUDDY DUCK,504 OAK ST.,,HOOD RIVER,OR,97031,,,,45.709021,-121.515683
"ACCESSORIES FROM THE HEART, INC",220 A. AVENUE SUITE# 100,,LAKE OSWEGO,OR,97034,,,,45.419344,-122.666036
MELA,390 N STATE ST SUITE #124,,LAKE OSWEGO,OR,97034,,,,45.418998,-122.663308
PIGMENTS: A UNIQUE BOUTIQUE,333 SOUTH STATE ST SUITE F,,LAKE OSWEGO,OR,97034,,,,45.41419,-122.663112
THE DIFFERENCE,17750 LOWER BOONES FERRY RD.,,LAKE OSWEGO,OR,97035,,,,45.397639,-122.741232
TWO OLD BAGS,13746 REGENCY CT,,LAKE OSWEGO,OR,97035,,,,45.427266,-122.7317
FLAT BOUTIQUE,719 MAIN STREET,,OREGON CITY,OR,97045,,,,45.358343,-122.607806
MY MOTHER KNOWS,12120  HAZELDELL AVE,,OREGON CITY,OR,97045,,,,45.322833,-122.617706
"CHIC RIDER DESIGNS, INC",2316 SE NASH CT.,,TROUTDALE,OR,97060,,,,45.524593,-122.378296
JUDY VAN DE GRAFF,205 MARTIN CT.,,WEST LINN,OR,97068,,,,45.353072,-122.58519
LINDA ERRICO,9701 SE JOHNSON CREEK BLVD N107,,HAPPY VALLEY,OR,97086,,,,45.457992,-122.562246
FOUR SEASON'S CLOTHING,1405 COMMERCIAL ST.,,ASTORIA,OR,97103,,,,46.188834,-123.828156
TONIS BOUTIQUE,1130 COMMERCIAL ST,,ASTONA,OR,97103,,,,46.189176,-123.830919
DENA'S SHOP ON THE CORNER,"123 S. HEMLOCK, SUITE# 10",,CANNON BEACH,OR,97110,,,,45.896436,-123.960728
YAMHILL VALLEY GOODS,416 NE3RD ST,,MCMINNVILLE,OR,97128,,,,45.209868,-123.195433
DIAMND ART JWLR DBA SO CHIC BTQ.,307 MAIN AVE,,TILLAMOOK,OR,97141,,,,45.456016,-123.843673
PALOMA,6316 SW CAPITOL HWY,,PORTLAND,OR,97201,,,,45.478215,-122.694564
COCO GETS DRESSED,7015 SE MILWAUKIE AVE,,PORTLAND,OR,97202,,,,45.47348,-122.649042
JOY'S UPTOWN STYLE,1627 NW GLISAN ST,,PORTLAND,OR,97209,,,,45.526872,-122.687883
OXALIS,1824 NW 24TH AVE,,PORTLAND,OR,97210,,,,45.535882,-122.700533
FROCK INC,1439 NE ALBERTA ST,,PORTLAND,OR,97211,,,,45.559281,-122.650889
THE ARRANGEMENT,4210 NE FREMONT,,PORTLAND,OR,97212,,,,45.548115,-122.619462
FYBERWORKS BTQ,4300 SE HAWTHORNE BLVD,,PORTLAND,OR,97215,,,,45.51185,-122.617959
"CC MCKENSIE SHOE & APPAREL,LLC",7000 NE AIRPORT WAY,,PORTLAND,OR,97218,,,,45.589054,-122.593522
SWITCH SHOES & CLOTHING,7871 SW CAPITOL HWY,,PORTLAND,OR,97219,,,,45.467893,-122.714325
MAGGIE'S BOUTIQUE,4816 SW. SCHOLLS FERRY ROAD,,PORTLAND,OR,97225,,,,45.484856,-122.750452
RAGAN'S BOUTIQUE LLC,2718 N.E. WASCO STREET,,PORTLAND,OR,97232,,,,45.531935,-122.637685
THE FLAT,719 MAIN ST,,OREGON CITY,OR,97267,,,,45.358343,-122.607806
OLIVA'S,315 CHEMEKETA ST NE,,SALEM,OR,97301,,,,44.94267,-123.03889
DEBRA HERRING STUDIO,4093 COMMERCIAL ST SE #140,,SALEM,OR,97302,,,,44.897272,-123.038365
EMMA DOWNTOWN,422 FIRST AVE W,,ALBANY,OR,97321,,,,44.636817,-123.109207
THE NATTY DRESSER,425 FIRST AVE W.,,ALBANY,OR,97321,,,,44.637111,-123.109273
SIBLING REVELRY,145 NW 2ND STREET,,CORVALLIS,OR,97330,,,,44.564872,-123.259241
THE CLOTHES TREE,204 SW MADISON AVE,,CORVALLIS,OR,97333,,,,44.563015,-123.26076
GOLDEN CRANE,114 SW 3RD ST,,CORVALLIS,OR,97333,,,,44.564101,-123.261302
TOUJOURS BOUTIQUE INC,"704 NW BEACH DR,",,NEWPORT,OR,97365,,,,44.63904,-124.060777
FIDDLER'S GREEN,91292 HWY 99 NORTH,,EUGENE,OR,97402,,,,44.025882,-123.028708
GILT & GOSSAMER,3979 TERRACE TRAIL,,EUGENE,OR,97405,,,,44.025123,-123.154531
BANDON MERCANTILE,535 2ND ST.,,BANDON,OR,97411,,,,43.119342,-124.409581
HAIR CO ETC SALON AND DAY SPA LLC,275 GOLDEN AVE,,COOSBAY,OR,97420,,,,43.362593,-124.215592
ON YOUR FEET WITH A SPLASH,1377 BAY ST,,FLORENCE,OR,97439,,,,43.966727,-124.105942
NW OUTDOORS,435 SEJACKSON,,ROSEBURG,OR,97470,,,,43.2165,-123.34174
KIXX,264-C EAST MAIN STREETQ,,ASHLAND,OR,97520,,,,42.19551,-122.711944
NICHE BOUTIQUE,531 N. 1ST RD,,LAKEVIEW,OR,97630,,,,42.190183,-120.345617
DESPERADO,330 SW POWERHOUSE DR. ST 120,,BEND,OR,97701,,,,44.047748,-121.314313
HIGH DESERT RANCH & HOME,350 NE ADDISON AVE.,,BEND,OR,97701,,,,44.07645,-121.301248
LULU'S BOUTIQUE (BEND),150 NW MINNESOTA AVE,,BEND,OR,97701,,,,44.058422,-121.31363
VILLAGE THREADS,60808 GOLDENWOOD LOOP,,BEND,OR,97702,,,,44.008899,-121.352906
RICHES & RAGS,395 N MAIN,,PRINEVILLE,OR,97754,,,,44.303648,-120.847314
BEDOUIN,143 EAST HOOD ST.,,SISTERS,OR,97759,,,,44.290215,-121.549352
ANDEES BOUTIQUE,243 E MAIN STE# A,,HERMISTON,OR,97838,,,,45.840655,-119.288619
RESTORATION HAIR CO,1602 4TH ST,,LA GRANDE,OR,97850,,,,45.325611,-118.096641
IN MY ELEMENT,3815 W. VALLEY HWY. N.,,AUBURN,WA,98001,,,,47.342421,-122.251341
DAVID LAWRENCE,700 110TH AVE NE # 275,,BELLEVUE,WA,98004,,,,47.616158,-122.193242
JENKA INC. DBA SOUND STYLES,100 5TH AVE. N,,EDMONDS,WA,98020,,,,47.810728,-122.376953
ANNABELLE'S,817 238TH STREET SE,,BOTHELL,WA,98021,,,,47.78229,-122.221625
BRIDGET BOUTIQUE,1617 COLE ST,,ENUMCLAW,WA,98022,,,,47.203767,-121.989391
SUBURBAN SOUL BOUTIQUE,317 NW GILMAN BLVD. # 21,,ISSAQUAH,WA,98027,,,,47.539722,-122.042218
"STYLE ME, LLC",4652  243RD CT. SE,,ISSAQUAH,WA,98029,,,,47.561165,-122.015971
FORGET ME NOT FASHIONS,18209 80TH AVE. S,,KENT,WA,98032,,,,47.438513,-122.234014
CHANGES INC,319 4TH  AVE #202,,KIRKLAND,WA,98033,,,,47.678223,-122.202884
HEPBURN DBA HALEY'S COTTAGE,52 LAKE SHORE PLAZA,,KIRKLAND,WA,98033,,,,47.676334,-122.206864
BIRCHES HABITAT,202 N BEND WAY,,NORTH BEND,WA,98045,,,,47.495759,-121.787067
SELAH GIFT AN EXPRESSO,307 BENDIGO BLVD N,,NORTH BLEND,WA,98045,,,,47.497367,-121.785348
ESME & ELODIE,16810 104TH AVE SE,,RENTON,WA,98055,,,,47.451703,-122.201708
SANDY LEW,1408 FIRST AVE,,SEATTLE,WA,98101,,,,47.608215,-122.339128
SIMPLE LIFE,201 PINE ST,,SEATTLE,WA,98101,,,,47.610232,-122.339327
SANDY MCNEEL,3670 WOODLAND PARK AVE N,,SEATTLE,WA,98103,,,,47.652373,-122.3436
BALLARD,5334 BALLARD AVE NW,,SEATTLE,WA,98107,,,,47.667368,-122.383895
BLINX CLOTHING,"278 WINSLOW WAY E, SUITE 109",,BAINBRIDGE ISLAND,WA,98110,,,,47.625013,-122.519121
MAGNOLIAS,6350 LARIAT LOOP,,BAINBRIDGE ISLAND,WA,98110,,,,47.604923,-122.565964
CARMILIA'S,4528 CALIFORNIA AVENUE,,SEATTLE,WA,98116,,,,47.562019,-122.386557
JERRICA KOSTIS,9222 8TH AVE NW,,SEATTLE,WA,98117,,,,47.696766,-122.36579
ROSITA'S BOUTIQUE,88 LENORA,,SEATTLE,WA,98121,,,,47.611348,-122.344832
VIXEN,3209 W MCGRAW ST,,SEATTLE,WA,98199,,,,47.639316,-122.39885
BURKETT'S LTD.,2617 COLBY AVE,,EVERETT,WA,98201,,,,47.98305,-122.208375
RENEE'S,2820 COLBY AVE,,EVERETT,WA,98201,,,,47.979872,-122.209023
UPSTAGE,520 COMMERCIAL AVE,,ANACORTES,WA,98221,,,,48.517665,-122.613022
TIDES OF ANACORTES,5110 MARITIME LANE,,ANACORTES,WA,98221,,,,48.49779,-122.674864
BLUE HORIZON,1302 12TH HWY STREET,,BELLINGHAN,WA,98225,,,,48.719885,-122.502486
LULU (BELLINGHAM),124  W. HOLLY ST,,BELLINGHAM,WA,98225,,,,48.750322,-122.479681
THREE FRENCH HENS,1100 HARRIS AVE,,BELLINGHAM,WA,98225,,,,48.720002,-122.503065
STATEMENT APPAREL LLC,2945 NEWMARKET ST. #107,,BELLINGHAM,WA,98226,,,,48.770502,-122.443801
PRETTY SIMPLE,855 S ALDER STREET STE B,,BURLINGTON,WA,98233,,,,48.468725,-122.334315
COLLECTIONS BTQ.,24 FRONT STREET,,COUPEVILLE,WA,98239,,,,48.221352,-122.688042
COTTONS,714 SOUTH FIRST ST.,,LA CONNER,WA,98257,,,,48.390539,-122.497579
DRAGONFLY BOUTIQUE,2310 CALLOW RD UNIT 1,,LAKE STEVENS,WA,98258,,,,48.018084,-122.091092
WILLEMINA'S,8071 GUIDE MERIDIAN,,LYNDEN,WA,98264,,,,48.934336,-122.487707
MAIN CLOTHING COMPANY,14090 FRYELANDS BLVD.,,MONROE,WA,98272,,,,47.869987,-122.010103
MAIN CLOTHING COMPANY,14090 FRYELANDS BLVD.,,MONROE,WA,98272,,,,47.869987,-122.010103
EMBELLISH,223 S. 1ST ST,,VERNON,WA,98273,,,,48.420616,-122.337558
HOUSE OF STYLE,510 S. 1ST STREET,,MOUNT VERNON,WA,98273,,,,48.419316,-122.33772
THE CASUAL HOUSE,690 SE PIONEER WAY STE 101,,OAK HARBOR,WA,98277,,,,48.288399,-122.649365
CURVY COWGIRL COUTURE,2701 BICKFORD AVE STE A,,SNOHOMISH,WA,98290,,,,47.94305,-122.108497
TAMMY'S BOUTIQUE,901 1ST STREET,,SNOHOMISH,WA,98290,,,,47.911031,-122.093383
LAURIE'S BOUTIQUE,8502 271ST ST. #2,,STANWOOD,WA,98292,,,,48.245156,-122.349841
LAURIE'S,8502 271ST STREET NW,,USE ACCT# LAURIES,WA,98292,,,,48.242012,-122.350907
POPPY & ROSE,13933 68TH AVE SE,,SNOHOMISH,WA,98296,,,,47.869996,-122.141976
LALLIE MAE'S BOUTIQUE LLC,632 BAY STREET,,PORT ORCHARD,WA,98366,,,,47.5421,-122.638335
EXPRESSIONS APPAREL,834 WATER ST.,,PORT TOWNSEND,WA,98368,,,,48.114825,-122.756155
CHANTILLY BY THE BAY,18925 FRONT ST. NE,,POUSLBO,WA,98370,,,,47.73516,-122.647448
MAD MAGGIE,131 E. WASHINGTON ST,,SEQUIM,WA,98382,,,,48.079397,-123.10143
A PICKET FENCE INC,1006 MAIN ST,,SUMNER,WA,98390,,,,47.203166,-122.241461
MY CLOSET ENVY LLC / MCE,1018 MAIN STREET,,SUMNER,WA,98390,,,,47.203162,-122.241026
SLATE,18215 9TH ST EAST #105,,LAKE TAPPS,WA,98391,,,,47.250968,-122.185861
HARBOR NATURALS CLOTHING CO.DBA ENVY,3813 NORTH 26TH STREET,,TACOMA,WA,98407,,,,47.271237,-122.488052
JASMINKA,3820 N. 26TH ST,,TACOMA,WA,98407,,,,47.27091,-122.48841
D'AMICOS,1031 REGENTS BLVD,,FIRCREST,WA,98466,,,,47.239509,-122.517778
INDUSTRIE CLOTHIERS,4419 HARRISON AVE NW #103,,OLYMPIA,WA,98502,,,,47.046773,-122.957825
DEBBIE'S BOUTIQUE,120-A SOUTH TOWER,,CENTRALI,WA,98531,,,,46.715422,-122.954342
GRACIE'S BOUTIQUE,429 N MARKET BLVD,,CHEHALIS,WA,98532,,,,46.664385,-122.968537
CAMAS BEAUTY BAR & BOUTIQUE,4005 NW JASMINE ST,,CAMAS,WA,98607,,,,45.608572,-122.424121
POSH ON COMMERCE,3609 OAK ST,,LONGVIEW,WA,98632,,,,46.157438,-122.97638
OUT ON A LIMB,240 SW 2ND STREET,,STEVENSON,WA,98648,,,,45.693708,-121.883339
WILLOWS (VANCOUVER),104 GRAND BLVD #106,,VANCOUVER,WA,98661,,,,45.619412,-122.64414
SI JOLIE,11102 NE FOURTH PLAIN,,VANCOVER,WA,98662,,,,45.665975,-122.55901
LULU'S,1887 MAIN ST,,WASHOUGAL,WA,98671,,,,45.578722,-122.35207
COLLINS GIFT & WOMEN FASHIONS,2 SOUTH WENATCHEE AVE,,WENATCHEE,WA,98801,,,,47.424362,-120.311861
ICICLE RIVER CLOTHING,639 FRONT ST,,LEAVENWORTH,WA,98826,,,,47.5945,-120.663463
SILVER SAGE,606 W BROADWAY,,MOSES LAKE,WA,98837,,,,47.127771,-119.286164
FIDDLESTICKS,1601 SUMMITVIEW,,YAKIMA,WA,98902,,,,46.599974,-120.530789
"WANDA LOUISE, LLC",1512 MCFARLANE ROAD,,COLVILLE,WA,99114,,,,48.438585,-118.02088
NORTH COUNTRY SHOP DBA MY FAV THINGS,306 S WASHINGTON AVE,,NEWPORT,WA,99156,,,,48.178842,-117.043637
LOLO BOUTIQUE,319 W. SECOND AVE,,SPOKANE,WA,99201,,,,47.654401,-117.417377
JEMA LANE BOUTIQUE,613 S. PINES RD,,SPOKANE VALLEY,WA,99206,,,,47.651085,-117.238386
"VICTORIA Z ENTERPRICES, LLC",DBA AUDREY'S BOUTIQUE,,SPOKANE,WA,99207,,,,47.693766,-117.379096
SISTER TO SISTER,10 MERLOT DRIVE #B,,PROSSER,WA,99350,,,,46.219795,-119.784078
SIRIS BOUTIQUE,845 F STREET,,ANCHORAGE,AK,99501,,,,61.213853,-149.893301
OZARKS,4131 OLD SEWARD HWY,,ANCHORAGE,AK,99503,,,,61.183407,-149.867722
HOMER'S JEANS (CALL IF UNDER 9LBS),564 E. PIONEER AVE,,HOMER,AK,99603,,,,59.648174,-151.530985
MIMI'S CLOSET,701 S. KNIK GOOSA BAY ROAD,,WASILLA,AK,99654,,,,61.576557,-149.440248
SHOEFLY INC.,109 SEWARD STREET,,JUNEAU,AK,99801,,,,58.300845,-134.407311
REEDERS INC DBA BRENNER'S,1925 DODGE CIRCLE,,SITKA,AK,99835,,,,57.071946,-135.364913
TONGASS,201 DOCK STREET,,KETCHIKAN,AK,99901,,,,55.341949,-131.648231
THE INCURABLE ROMANTIC,16 W MAIN ST,,WILMINGTON,VT,53630928,,,,42.868945,-72.872419
Z BELLA BOUTIQUE,1903 CAYUGA ST. SUITE 101,,MIDDLETON,WI,`53562,,,,43.096509,-89.513625
Why Knot Sanibel Inc.,2340 Periwinkle Way A-1,,Sanibel,Florida,,,,,26.437148,-82.075858
Urban Shoetique,118 East 2nd Street,,Winona,Minnesota,,,,,44.052924,-91.633962
E&S RABER MODE,ELLERMANSTRAAT 36,,NETHERLANDS,,,,,,36.299233,-89.751194
ELOISE,69 York Street,,FREDERICTON,NB,,,(506) 453-7715,,37.198113,-76.497108
THE CLOTHING STORE,#8 Village Drive,,WESTEROSE,AB,T0C 2V0,,(780) 586-0789,,33.236156,-93.234494
BOYTS DEPARTMENT STORE,11016 - 102Nd Avenue,,FAIRVIEW,AB,T0H 1L0,,(780) 835-4901,,40.817537,-74.000883
RUFFLES 2012 LTD,803 MAIN STREET,,PINCHER CREEK,AB,T0K 1W0,,(403) 627-4640,,35.99071,-96.596227
CRABAPPLE COTTAGE,"#2-27 BALSAM AVENUE, BOX 1029",,BRAGG CREEK,AB,T0L 0K0,,(403) 949-4264,,35.586976,-96.022233
V2 FASHION LTD.,223 24TH STREET,,FORT MACLEAOD,AB,T0L 0Z0,,(403) 894-7897,,44.905962,-93.913561
YOKExHEM,629 3RD ST. SE,,MEDICINE HAT,AB,T1A 0H4,,(403) 527-6264,,32.538075,-98.421901
HELLO GORGEOUS,604 3RD AVENUE SOUTH,,LETHBRIDGE,AB,T1J 0A5,,(403) 942-6046,,37.83442,-86.635195
SOLE DISCRETION,1-124 3RD AVE,,STRATHMORE,AB,T1P 1K1,,(403) 901-0003,,40.414806,-74.035864
WHITE BULL CLOTHING,101-122 4TH AVENUE SW,,HIGH RIVER,AB,T1V 1M6,,(403) 652-1333,,37.817341,-82.80357
BLUE MOON ACCESSORIES,210 - 10816 MacLeod Trail S.E.,,CANMORE,AB,T2J 5N8,,(403) 278-7039,,46.890692,-96.925828
LUNA BLUE,2611 14 ST SW,,CALGARY,AB,T2T 3T9,,(403) 244-1644,,33.180889,-101.298072
CRABAPPLE CLOTHING COMPANY,3526 GARRISON GATE SOUTH WEST,,CALGARY,AB,T2T 6N1,,(403) 686-3661,,40.360223,-79.439801
KOLU ALBERTA,5005 DALHOUSIE DRIVE N.W.,,CALGARY,AB,T3A 1B2,,(403) 288-7732,,33.28589,-101.339267
SOMETHING 2 WEAR,326 ASPEN GLEN LANDING SW,,CALGARY,AB,T3H 0N5,,(403) 457-1182,,33.659034,-101.240945
PAISLEY BOUTIQUE,#23 - 312  5 TH AVENUE WEST,,COCHRANE,AB,T4C 2E3,,(403) 932-4222,,33.133962,-88.150294
SIDE STREET FASHION,DIVISION OF 1823107 ALBERTA LTD.,,RED DEER,AB,T4N 3X9,,(403) 341-4343,,42.121564,-85.526744
COBBS,5015 - 50TH STREET - BAY 107,,SYLVAN LAKE,AB,T4S 1P9,,(403) 887-2727,,42.611422,-83.328547
FRINGE BENEFITS,5001 50Th Street,,CAMROSE,AB,T4V 1R2,,(780) 608-2345,,39.657355,-76.371332
VIRTU BOUTIQUE,5004 - 50TH STREET,,BEAUMONT,AB,T4X 1E6,,(780) 929-8556,,29.895839,-93.982057
FLOC BOUTIQUE,10106 - 124 TH STREET,,EDMONTON,AB,T5N 1P6,,(780) 447-9964,,37.000783,-85.609522
THE AVENUE CLOTHING CO.,10344 - 82Nd Avenue N.W.,,EDMONTON,AB,T6E 1Z8,,(780) 433-8532,,37.000783,-85.609522
SIMS CLOTHING/ISIS CLOTHING CO.,18330 Lessard Road,,EDMONTON,AB,T6M 2W8,,(780) 486-9020,,37.000783,-85.609522
SHOP HARROW,267 WOODLEY DR,,HINTON,AB,T7V 2C5,,(587) 436-9951,,35.473233,-98.36371
K-LEE BOUTIQUE,50-1020 SHERWOOD DRIVE,,SHERWOOD PARK,AB,T8A 2G4,,(780) 417-3131,,26.725966,-80.228432
UNBOUTIQUED,22137 TOWNSHIP ROAD,,ARDROSSAN,AB,T8E 2G1,,(780) 922-2281,,0,0
COWGIRL SISTERHOOD BOUTIQUE,22356 TWP 534,,ARDROSSAN,AB,T8E 2L8,,(250) 371-7899,,38.804836,-77.046921
ENNOJA CLOTHING,101-5 PERRON STREET,,ST. ALBERT,AB,T8N 1E3,,(780) 458-6993,,38.45279,-99.01148
FASHIONISTA,5 9907 100TH AVENUE,,GRANDE PRAIRIE,AB,T8V 0V1,,(780) 532-4550,,33.783578,-88.664183
OAK N BARREL,12705 106TH STREET,,GRANDE PRAIRIE,AB,T8V 2M3,,(780) 518-5331,,33.978229,-88.492626
POISE N'IVY,4721-50TH AVENUE,,LEDUC,AB,T9E 6Y5,,(780) 980-9677,,38.300217,-76.743445
TWICE AS NICE,3901-51ST AVENUE,,LLOYDMINSTER,AB,T9V 2Z2,,(780) 875-5808,,38.300217,-76.743445
CRABAPPLES,302-10TH STREET,,WAINWRIGHT,AB,T9W 1P8,,(780) 842-2723,,70.63694,-160.03833
UNIQUELY U,5003 50TH AVE,,VERMILLION,AB,T9X 1A7,,(780) 853-5895,,39.838952,-87.471163
GHOSTRIDER TRADING CO. LTD.,661 - 2Nd Avenue,,FERNIE,BC,V0B 1M0,,(250) 423-5541,,38.160744,-76.525504
DRAGONFLY & AMBER GALLERY,106-4200 BEACH AVE.,,PEACHLAND,BC,V0H 1X6,,(250) 767-6688,,34.99377,-80.26451
HETHERINGTON &  HOOPER,"1161 MAIN ST., BOX 637",,SMITHERS,BC,V0J 2N0,,(250) 847-2455,,30.442582,-85.046048
DIDI'S BOUTIQUE,"150 BIRCH AVENUE, 100 MILE HOUSE",,MILE HOUSE,BC,V0K 2E0,,(250) 395-6144,,0,0
OUT OF THE BLUE,22-455 BOWEN TRUNK RD.,,BOWEN ISLAND,BC,V0N 1G0,,(604) 229-2252,,48.24121,-122.37071
ZOCALO,441 MARINE DRIVE,,GIBSON LANDING,BC,V0N 1V0,,(604) 886-8801,,35.652446,-88.835682
BEACHOLOGY,1721 COWICHAN BAY ROAD,,COWICHAN BAY,BC,V0R 1N0,,(250) 709-9152,,35.7423,-90.56233
PATRYKA,2720 MILL BAY ROAD,,MILL BAY,BC,V0R 2P0,,(250) 743-3531,,35.824808,-90.510018
SHOES N'SUCH,90 LAKESHORE DR.NE,,SALMON ARM,BC,V1E 1A1,,(250) 832-2543,,33.955844,-84.429549
CROOKED CORNER,9916 - 101St Avenue,,FORT ST-JOHN,BC,V1J 2B2,,(250) 485-1683,,41.453965,-87.453086
COTTON CREEK CLOTHING,488 Baker Street,,NELSON,BC,V1L 4H5,,(250) 354-4002,,34.384355,-84.372812
DENA'S BOUTIQUE,D 105 - 20159  88 TH AVENUE,,LANGLEY,BC,V1M 0A4,,(604) 888-0029,,33.51791,-81.844
KOLU / 0849224 BC LTD.,"1950 HARVEY AVENUE, SUITE #115",,KELOWNA,BC,V1Y 8J8,,(250) 861-5658,,41.460979,-91.698928
GENESIS BEAUTY & BOUTIQUE,3-319 VISTORIA ST,,KAMLOOPS,BC,V2C 2A3,,(250) 819-0916,,32.538075,-98.421901
ALEXANDER CLOTHING,83H 2ND AVENUE SOUTH,,WILLIAMS LAKE,BC,V2G 3W3,,250-392-1161,,32.350818,-89.657235
SHHHH,2348 WESTWOOD DRIVE,,PRINCE GEORGE,BC,V2N 4H3,,(250) 612-2346,,31.734412,-83.286036
LOLLY'S,45891 Wellington Avenue,,CHILLIWACK,BC,V2P 2C8,,(604) 392-9327,,31.148124,-85.371845
WILDFLOWERS STYLE & CO.,UNIT 175 - 20728 WILLOUGHBY TOWN CENTRE DRIVE,,LANGLEY,BC,V2Y 0P3,,(778) 881-2561,,33.51791,-81.844
CREEKSIDE FASHION,3325 Coast Meridian Road,,PORT COQUITLAM,BC,V3B 3N6,,(604) 942-8554,,43.579067,-116.421656
PISTACHIO BOUTIQUE,#550-15335 24TH AVENUE,,SURREY,BC,V4A 2H9,,(604) 385-1067,,48.262429,-101.302713
SOUTH COAST CASUALS,5028 48TH AVENUE,,DELTA,BC,V4K 1V8,,(604) 946-8590,,38.74221,-108.06896
THE PLUM CLOTHING COMPANY,1535 Venables Street,,VANCOUVER,BC,V5L 2G8,,(604) 254-5034,,45.678996,-122.720499
FINE FINDS,1014 MAINLAND STREET,,VANCOUVER,BC,V6B 2T4,,(604) 669-8325,,29.407589,-94.909804
TWO OF HEARTS CLOTHING INC.,1986 W. 4TH AVE.,,VANCOUVER,BC,V6J 1M5,,(604) 428-0998,,45.638957,-122.649312
THE LITTLE PINK DOOR,111 - 2120 Dollarton Hwy.,,NORTH VANCOUVER,BC,V7H 0B5,,(604) 770-1667,,45.701883,-122.689074
SUBLIME FASHIONS,4555B MARINE AVENUE,,POWELL RIVER,BC,V8A 2K5,,(604) 485-5463,,0,0
MOUATS,106 FULFORD GANGES ROAD,,SALT SPRING ISLAND,BC,V8K 2S3,,(250) 537-5551,,37.459336,-87.206541
MARMALADE TARTE,#103-2506 BEACON AVENUE,,SIDNEY,BC,V8L 1Y2,,(778) 426-3356,,40.293558,-84.209198
TULIPE NOIRE CLOTHING,1887 OAK BAY AVENUE,,VICTORIA,BC,V8R 1C6,,(250) 370-5000,,28.630564,-96.636938
MARESA,2227 OAK BAY AVE,,VICTORIA,BC,V8R 1S4,,(blank),,28.556096,-96.600353
THE DANCING LILY,547 JOHNSON STREET,,VICTORIA,BC,V8W 1M2,,(778) 265-2929,,28.649735,-96.885199
FABRICATIONS,125 KENNETH STREET,,DUNCAN,BC,V9L 6A5,,(250) 746-4751,,34.547749,-97.933279
The Cottage Clothing Co,26A 215 Port Augusta St,,Comox,BC,V9M 3M9,,(250) 941-2001,,38.4079,-78.62363
BOUTIQUE BY KIYO,1 - 120 ALBERNI HWY,,PARKVILLE,BC,V9P 2X8,,(250) 248-2000,,39.226586,-76.611084
DAMSELS,413 FITZWILLIAM ST,,NANAIMO,BC,V9R 3A9,,(blank),,42.78064,-72.14175
QUEST SHOES & APPAREL,1060 SHOPPERS ROW,,CAMPBELL RIVER,BC,V9W 2C6,,(250) 286-3212,,37.879486,-82.725052
GAYLES FASHION,5262 ARGYLE ST,,PORT ALBERNI,BC,V9Y 1T9,,(250) 723-2623,,47.014861,-92.612312
PINE RIDGE HOLLOW,BOX 274,,OAKBANK,MB,R0E 1S0,,(204) 777-3881,,36.246153,-115.222064
PACKER'S FASHION,409 MAIN STREET,,SELKIRK,MB,R1A 1V2,,(204) 482-5988,,35.60716,-103.102422
SHELMERDINE,7800 ROBLIN BLVD,,HEADINGLEY,MB,R4H 1B2,,(204) 895-7203,,31.69044,-93.30462
WINKLER CO-OP,370 MAIN STREET,,WINKLER,MB,R6W 4B2,,(204) 325-9595,,31.85314,-103.098202
PAST CONNECTIONS EMPORIUM,5014 50 AVE  BOX 214,,BENTLEY,MB,T0C 0J0,,(403) 658-2300,,37.771478,-97.318704
STILE FASHION ACCESSORIES,801 MAIN STREET,,MONCTON,NB,E1C 1G1,,(506) 862-2247,,0,0
BOUTIQUE JOLIE EVE LTEE.,445 Boulevard St-Pierre,,CARAQUET,NB,E1W 1B2,,(506) 727-4722,,44.334073,-100.094195
BOUTIQUE ZEKARA,(BRANDS BEYOND),,ROTHESAY,NB,E2E 2K9,,(506) 849-6375,,46.529553,-96.349085
ELOISE,69 York Street,,FREDERICTON,NB,E38 3N4,,(506) 453-7715,,37.198113,-76.497108
LEX BOUTIQUE,114 Roseberry Street,,CAMPBELLTON,NB,E3N 2G8,,(506) 753-9993,,30.935644,-85.346802
THE LEATHER HOUSE,162 WATER STREET,,ST. ANDREW,NB,E5B 1B2,,(506) 529-3844,,41.506745,-74.00595
BOUTIQUE JOLYN,651 Main Street,,WOODSTOCK,NB,E7M 2C7,,(506) 328-9628,,0,0
THE MODEL SHOP,415 KENMOUNT ROAD,,ST JOHN'S,NL,A1B 3P9,,(709) 753-7576,,42.979673,-84.581962
GAIL ENTERPRISE,277 WATER STREET,,ST. JOHN'S,NL,A1C 1B4,,(709) 576-6398,,29.900698,-81.312672
PATCHOULI'S,503 CHEBUCTO STREET,,BADDECK,NS,B0E 1B0,,(902) 295-1154,,39.657355,-76.371332
PRIM ROSE LANE,218 LINCOLN STREET,,LUNENBURG,NS,B0J 2C0,,(902) 640-3053,,42.583322,-71.752266
MOMENTS BOUTIQUE,24 INGLIS PLACE,,TRURO,NS,B2N 4B4,,(902) 893-7770,,41.206381,-93.863473
TIMELESS & TWIST,"219 HWY 2, UNIT 1",,ENFIELD,NS,B2T 1C9,,(902) 883-8563,,36.43459,-77.91193
SUIT YOURSELF,1496 LOWER WATER STREET,,HALIFAX,NS,B3J 3R5,,(902) 420-9358,,36.638186,-78.848747
BOUTIQUE ZEKARA,2698 AGRICOLA ST,,HALIFAX,NS,B3K 4C9,,(506) 849-6375,,36.783814,-78.964257
SAMUEL & CO APPAREL LTD.,127 CHAIN LAKE DRIVE,,HALIFAX,NS,B3S 1B3,,(902) 454-7093,,36.951501,-79.357277
LIV FASHION BOUTIQUE,294 MAIN STREET,,KENTVILLE,NS,B4N 1K9,,(902) 680-2242,,0,0
A HEAD OF HAIR,1 WATER STREET,,PICTON,NS,BOK 1H0,,(902) 485-8588,,40.579959,-78.115671
FOR WOMEN ONLY,#106  5102  50TH  AVENUE,,YELLOWKNIFE,NT,X1A 3S8,,(867) 873-9613,,38.300217,-76.743445
JUDY JOANNU,83 MILL ST,,ALMONTE,ON,K0A 1A0,,(613) 291-5264,,39.486021,-96.215981
CRUSH MARKETPLACE,14 MILL STREET,,ALMONTE,ON,K0A1A0,,(613) 461-2211,,39.657355,-76.371332
BIBA,"27 MAIN ST., BOX 157",,MORRISBURG,ON,K0C1X0,,(613) 543-2556,,0,0
BRAG CLOTHING CO.,279 Bloomfield Main,,BLOOMFIELD,ON,K0K 1G0,,(613) 393-5509,,0,0
THE CLAN SHOPPE LIMITED,47 Main Street,,BRIGHTON,ON,K0K 1H0,,(613) 475-2166,,44.925621,-69.673524
BUCKEYE (SURF AND KAWARTHA LIFESTYLE),52/54 Bolton Street,,BOBCAYGEON,ON,K0M 1A0,,(705) 738-2666,,39.547557,-76.321984
SHEPHERD'S FASHION ACCESSORIES,"145 TRAINYARDS DRIVE, UNIT 4",,OTTAWA,ON,K1G 3X8,,(613) 789-7400,,41.34559,-88.84258
FROU FROU BY PAT,159 YORK ST.,,OTTAWA,ON,K1N5T4,,(613) 562-4581,,41.345416,-88.832867
ESCAPE - MIKOCAN INC,703 BANK ST.,,OTTAWA,ON,K1S3V1,,(613) 567-3989,,41.372348,-88.81978
MANHATTAN WEST,322 RICHMOND ROAD,,OTTAWA,ON,K1Z 6X6,,(613) 695-0517,,37.101712,-94.521013
BEL'ORTIE,2768 LAURIER ST.,,ROCKLAND,ON,K4K1A2,,(613) 794-9619,,44.10369,-69.10893
LINDSAY & McCAFFREY LIMITED,1160 Beaverwood Road Unit #9,,MANOTICK,ON,K4M 1A2,,(613) 692-3368,,44.36361,-86.20509
HODGE PODGE,213 MAIN ST. E,,HAWKESBURY,ON,K6A 1A1,,(613) 632-1395,,0,0
ECHO CLOTHING,83 KING ST W,,BROCKVILLE,ON,K6V 3R1,,(blank),,43.245152,-78.204222
ACQUISTI LIFE,19 BRIDGE ST,,CARLTON PLACE,ON,K7C 2V2,,(613) 434-2106,,45.2513,-123.114169
FASHION ENVY,47 Foster Street,,PERTH,ON,K7H 1R9,,(613) 466-0757,,48.754621,-99.438351
CHRIS JAMES,253 ONTARIO STREET,,KINGSTON,ON,K7L 2Z4,,(613) 541-0707,,42.942617,-77.58002
A DASH OF FAB,128 JOHN STREET NORTH,,ARNPRIOR,ON,K7S 2N6,,(613) 717-1233,,33.56198,-80.777828
PURE HONEY BOUTIQUE,217 N FRONT STREET,,BELLEVILLE,ON,K8P 3C3,,(613) 961-5087,,38.545357,-90.198206
STUDIO B,44 DUNDAS STREET WEST,,TRENTON,ON,K8V 3P2,,(613) 394-6638,,40.263997,-74.818496
HAMILTON CREEK,108 Kent Street West,,LINDSAY,ON,K9V 2Y4,,(705) 324-9775,,36.20301,-119.08816
FEMME BY CHRISTINA INC.,10522A ISLINGTON AVE.,,KLEINBURG,ON,L0J 1C0,,905-893-0697,,41.644566,-71.22518
G.FACEY'S CLOTHING,57 Walton Street,,PORT HOPE,ON,L1A 1N2,,(905) 885-1838,,33.797208,-83.714665
SHERIDAN NURSERIES WHITBY,#25 WHITBY GARDEN CENTRE,,WHITBY,ON,L1P 2A9,,(905) 686-0844,,37.68174,-81.207588
TOUS JOURS,5 MAIN STREET WEST,,GRIMSBY,ON,L3M 5J3,,(905) 309-8888,,0,0
SHERIDAN NURSERIES UNIONVILLE,#33 UNIONVILLE GARDEN CENTRE,,UNIONVILLE,ON,L3R 1L5,,(905) 477-2253,,35.096166,-80.507095
CHIC THRILLS,6316 MAIN ST,,WHITCHURCH-STOUFFVILE,ON,L4A 1G8,,(905) 642-3339,,0,0
OAKRIDGE FASHION INC.,14800 YONGE STREET,,AURORA,ON,L4G 1N3,,(905) 726-4063,,39.739249,-104.862881
INJOY YOGA & ACTIVEWEAR INC.,"15263 YONGE STREET, UNIT #4",,AURORA,ON,L4G 1N6,,(905) 727-8419,,39.739249,-104.862881
CASHMERE BLUE,250 King Street,,MIDLAND,ON,L4R 3M3,,(705) 526-2365,,38.877846,-79.833638
SHERIDAN NURSERIES ETOBICOKE,#26 ETOBICOKE GARDEN CENTRE,,MISSISSAUGA,ON,L4X 2S7,,(905) 624-3722,,34.110859,-85.590218
SHERIDAN NURSERIES MISSISSAUGA,#32 MISSISSAUGA/OAKVILLE GARDEN CENTRE,,MISSISSAUGA,ON,L5J 2Y4,,(905) 822-0251,,34.110859,-85.590218
WATCH US WOMEN,1131 Nottinghill Gate,,OAKVILLE,ON,L6M 2G3,,(905) 827-2271,,38.80307,-90.300764
THE OYSTER,460 PEARL ST.,,BURLINGTON,ON,L7R 4G2,,(905) 632-4199,,39.995693,-74.783871
BRITTANY N'BROS,241 QUEEN ST.,,PORT PERRY,ON,L9L 1B9,,(905) 985-9910,,32.64769,-83.687346
THE STYLE BOUTIQUE,75 HURONTARIO STREET,,COLLINGWOOD,ON,L9Y 2L7,,(705) 445-2333,,35.877706,-87.642386
SHERIDAN NURSERIES SCARBOROUGH,#22 SCARBOROUGH GARDEN CENTRE,,SCARBOROUGH,ON,M1H 2V5,,(416) 438-6931,,43.59946,-70.354653
TONI PLUS INC.,"1140 SHEPPARD AVENUE WEST, UNIT 16",,NORTH YORK,ON,M3K 2A2,,(613) 633-9331,,37.273469,-76.670188
BODY BLUE / 862528 ONTARIO INC.,199 DANFORTH AVENUE,,TORONTO,ON,M4K 1N2,,(416) 778-7601,,40.477049,-80.670057
POSH,2016 QUEEN STREET WEST,,TORONTO,ON,M4L 1J3,,(416) 690-5533,,40.472134,-80.973297
NARNIA,3236 YONGE STREET,,TORONTO,ON,M4N 2L4,,(416) 487-7287,,40.477049,-80.670057
SENSE OF INDEPENDANCE,526 LAWRENCE AVENUE WEST,,TORONTO,ON,M6A 1A2,,(416) 481-8242,,35.233401,-87.343398
SEGAL,894 EGLINTON AVENUE WEST,,TORONTO,ON,M6C 2B6,,(416) 783-9787,,40.477049,-80.670057
TRIXIE INC.,2313 BLOOR STREET WEST,,TORONTO,ON,M6S 1P1,,(416) 762-0084,,40.428328,-78.390247
"NORDSTROM CANADA RETAIL, INC.",868 - NATIONAL LOGISTICS SERVICES,,ETOBICOKE,ON,M9W5L9,,(416) 246-9536,,39.608977,-78.940302
ARIA BOUTIQUE,"45 MILL STREET ,UNIT 8",,ELORA,ON,N0B 1S0,,(519) 846-0404,,35.01342,-86.35582
HANNAH'S,"116 MAIN STREET, P.O. BOX 130",,ERIN,ON,N0B 1T0,,(519) 833-2770,,39.685028,-110.854798
KISSES/LIFEOLOGY,247 DURHAM ST,,WALKERTON,ON,N0G 2V0,,(519) 881-3090,,36.449422,-78.567513
CASUAL CORNERS/MENSCH,630 Goderich Street,,PORT ELGIN,ON,N0H 2C0,,(519) 832-2377,,42.101977,-88.055804
EUROPEAN ADDITION,403 Main Street,,EXETER,ON,N0M 1S6,,(519) 235-1795,,45.386793,-68.49629
SHERIDAN NURSERIES KITCHENER,#37 KITCHENER GARDEN CENTRE,,KITCHENER,ON,N2E 1H6,,(519) 743-4146,,34.110859,-85.590218
DEBBIE'S BASIC BLACK,13 GRAND RIVER ST. N.,,PARIS,ON,N3L 2L9,,(519) 442-7600,,33.660527,-95.55638
SHOPPER'S,851 2ND ST. E.,,OWEN SOUND,ON,N4K 1Z4,,(519) 371-5230,,44.94858,-90.5643
VI-LEENS,440 - 10TH STREET,,HANOVER,ON,N4N 1P9,,(519) 364-4480,,37.534078,-76.797167
GRACE THE BOUTIQUE,76 ONTARIO STREET,,STRATFORD,ON,N5A 3H2,,(519) 273-0005,,42.947924,-77.58606
STUDIO STYLE,215 MAIN STREET,,PORT STANLEY,ON,N5L 1C4,,(519) 782-7467,,44.070329,-101.159385
IMPRESSIONS,148 WORTLEY RD,,LONDON,ON,N6C 3P5,,(blank),,39.886277,-83.407733
GARBO'S FASHIONS,136 FRONT STREET N,,SARNIA,ON,N7T 5S3,,(519) 542-2698,,39.657355,-76.371332
BUTTONS & BOWS,131B Michigan Avenue,,POINT EDWARD,ON,N7V 1E5,,(519) 786-4848,,41.807011,-85.997234
STEPPING OUT,9 TALBOTS ST. N,,ESSEX,ON,N8M 1A5,,(519) 776-5000,,39.236123,-76.611639
CLYDE HATCH BOUTIQUE,352 MANNING ROAD,,TECUMSEH,ON,N8N 4W5,,(519) 979-2828,,42.008398,-83.922214
ARTESSA,5866 WYANDOTTE ST.E,,WINDSOR,ON,N8S 1M8,,(519) 946-0777,,38.532827,-122.8041
CAESARS WINDSOR,377 RIVERSIDE DRIVE E.,,WINDSOR,ON,N9A 7H7,,(519) 258-7878,,43.810643,-72.505503
OUR PLACE,262 DALHOUSIE ST.,,ANMHERSTBURG,ON,N9V 1W8,,(519) 736-3368,,32.635934,-98.179314
WATCH ME GROW,27 Armstrong Street South,,NEW LISKEARD,ON,P0J 1P0,,(705) 628-2026,,38.427847,-84.810504
KILLARNEY LODGE,3 COMMISSIONER ST.,,KILLARNEY,ON,P0M 2A0,,(705) 287-2242,,28.545385,-81.650667
LONDON UNDERGROUND,141 Main Street West,,NORTH BAY,ON,P1B 2T6,,(705) 474-7848,,43.591743,-83.905321
LEATHER WORKS PLUS,149 LORNE ST,,SUDBURY,ON,P3C 4P4,,(705) 674-5757,,41.099397,-82.121824
MI CASA,42 PINE ST. S.,,TIMMINS,ON,P4N 2J8,,(705) 264-4777,,0,0
SARICH'S SOURCE FOR SPORTS,136 ONTARIO AVENUE,,ELLIOT LAKE,ON,P5A 1Y3,,(705) 848-3246,,32.3432,-89.32868
MOONBEAM COUNTRY STORE,112 GOVERNMENT RD E,,KAPUSKASING,ON,P5N 1A7,,(705) 335-3532,,45.297173,-121.739004
KRUSH CLOTHING BOUTIQUE,1306 Great Northern Road,,SAULT STE MARIE,ON,P6A 5K7,,(705) 575-7566,,44.748405,-68.806704
CHADWICKS,2700 DUFFERIN STREET,,TORONTO,ON,M6B 4J3,,(416) 512-6901,,40.477049,-80.670057
BELLE'S BOUTIQUE,557 Main Street,,MONTAGUE,PE,C0A 1R0,,(902) 838-4055,,33.699084,-97.525422
JEMS BOUTIQUE,5 Gerald McCarville Drive,,KENSINGTON,PE,C0B 1M0,,(902) 894-1457,,41.602948,-72.769991
JEMS BOUTIQUE,102 A Queen Street,,CHARLOTTETOWN,PE,C1A 4B2,,(902) 894-1457,,43.710655,-82.93214
DOW'S,145 Great George Street,,CHARLOTTETOWN,PE,C1A 4K7,,(902) 894-3593,,0,0
BOUTIQUE LA BICHE,618 A Boulevard Perron,,CARLETON-SUR-MER,QC,G0C 1J0,,(418) 364-3103,,46.558904,-92.637049
BOUTIQUE MARIE CARINE,484 AVENUE DE L'HOTEL DE VILLE,,CHANDLER,QC,G0C 1K0,,(418) 689-6061,,0,0
A.A.LOUBERT & FILS LTEE,141 BOUL PERRON OUEST,,NEW RICHMOND,QC,G0C 2B0,,(418) 392-5605,,37.554235,-77.47469
SPECIALITEES FEMININES ET MASCULINES INC,142 ST-JOSEPH NORD,,RIVIERE-BLEUE,QC,G0L 2B0,,(418) 893-2096,,41.959671,-85.326193
ROBA E CASSO(MURMURE),7845 1ERE AVENUE,,QUEBEC,QC,G1H 2Y3,,(418) 623-2826,,41.854975,-71.858826
LALIBERTE- J.B LTEE,595 St-Joseph Est,,QUEBEC,QC,G1K 3B7,,(418) 525-4841,,41.823697,-85.29198
Boutique Viky Rodrigue,1221 Rue Charles Albanel,,QUEBEC,QC,G1X 4Y5,,(418) 650-6320,,41.79404,-71.854535
BOUTIQUE Rue,5401 BOUL DES GALERIES,,QUEBEC,QC,G2K 1N4,,(418) 871-4353,,41.79404,-71.854535
FOLIES FEMININES,431 AVENUE BROCHU,,SEPT-ILES,QC,G4R 2W9,,(418) 968-8821,,38.300217,-76.743445
MARIE-CLO 2000,97 CHEMIN PRINCIPALE,,CAP AUX MEULES,QC,G4T 1C3,,(418) 986-4457,,31.680297,-100.147719
LES BIJOUX DE MICHELE,237 RUE SAINT-ETIENNE SUITE 270,,LA MALBAIE,QC,G5A 1H5,,(418) 202-0770,,30.237424,-92.142902
AU BON GOT,94 RUE SAINT-GERMAIN OUEST,,RIMOUSKI,QC,G5L 4B5,,(418) 723-2468,,0,0
BOUTIQUE L'ELEGANCE,132 ST-GERMAIN OUEST,,RIMOUSKI,QC,G5L 4B5,,(418) 724-6804,,45.90162,-89.48736
CENTRE MODE BEAULIEU,325 Temiscouata,,RIVIERE-DU-LOUP,QC,G5R 2Y7,,(418) 862-2160,,27.297687,-97.787713
RENDEZ VOUS,118 St. Jean Baptiste Est,,MONTMAGNY,QC,G5V 1K5,,(418) 248-2682,,36.106445,-115.040317
BOUTIQUE ANABEL,8585 BOUL. LACROIX,,SAINT-GEORGES,QC,G5Y 5L6,,(418) 228-3236,,30.434346,-82.165527
BOUTIQUE 401 INC.,3560 RUE LAVAL,,LAC-MEGANTIC,QC,G6B 2X4,,(819) 583-2401,,37.78735,-75.606039
A.SETLAKWE LTEE,188 NOTRE DAME OUEST,,THETFORD MINES,QC,G6G 5T8,,(418) 335-9121,,47.254486,-68.065309
LA PETITE ROBE,520 BOUL.FRONTENAC O.,,THETFORD MINES,QC,G6G 5V9,,(418) 335-5197,,0,0
FAN CLUB,50 Notre-Dame Est,,VICTORIAVILLE,QC,G6P 3Z6,,(819) 752-6226,,41.707119,-86.251339
MO BOUTIQUE/9328-0642 QUEBEC INC.,"1170 Rue De Courchevel, #102",,LEVIS,QC,G6W 8H1,,(418) 832-5888,,0,0
LE VERCHERES BOUTIQUE,460A DES SAGUENEENS,,CHICOUTIMI,QC,G7H 5N6,,(418) 549-0011,,30.362992,-91.263088
LE CHOIX DE SOPHIE,630 Sacre-Coeur Ouest,,ALMA,QC,G8B 1L9,,(418) 487-7277,,43.375171,-84.678002
GEORGES GIMAIEL ENR.,"40, Rue Saint-Pierre",,METABETCHOUAN,QC,G8G 1G2,,(418) 349-2166,,44.477183,-70.436722
MADEMOISELLE FANTAISIE,76 RUE FUSEY,,TROIS-RIVIERES,QC,G8T 2V1,,(819) 374-0052,,37.78735,-75.606039
LA FLANERIE,3075 Cote-Rosemont,,TROIS-RIVIERES,QC,G8Y 4R9,,(819) 375-4438,,38.551851,-121.364674
MODE NICOLE  BEAULIEU 2014,9289-0433 QUEBEC INC.,,TROIS-RIVIERES,QC,G9A 1Z1,,(819) 693-0000,,41.79404,-71.854535
MODE EN TETE,2055 BOUL. BECANCOURT,,BECANCOUR,QC,G9H 3V4,,(819) 298-3419,,0,0
BICHA VETEMENTS ENRG.,2425 - 105Th Avenue,,SHAWINIGAN,QC,G9P 1P5,,(819) 536-4294,,38.300217,-76.743445
BOUTIQUE CAROLINE,550 AVENUE DE LA GRAND-MERE,,SHAWINIGAN,QC,G9T 2H2,,(819) 538-4413,,0,0
BOUTIQUE LILY ROSE,305 ST-JOSEPH,,LATUQUE,QC,G9X 1K9,,819-523-5252,,39.765442,-94.844432
MODE AU PRESENT,12334 STE.CATHERINE EST,,MONTREAL,QC,H1B 1W5,,(514) 645-1437,,46.428,-90.24601
MUSCADE P.A.P.,1380 FLEURY EST,,MONTREAL,QC,H2C 1R5,,(514) 381-5169,,46.428,-90.24601
LES HAUTS & LES BAS LTE,4487 FABRE,,MONTREAL,QC,H2J 3V4,,(514) 529-7444,,46.428,-90.24601
Joenette,9250 Park Avenue #706,,MONTREAL,QC,H2N 1Z2,,(514) 288-4144,,44.520779,-109.067411
New Customer CAD,225 Chabanel Ouest,,Montral,QC,H2N 2C9,,(514) 297-3237,,46.428,-90.24601
MODE EN AFFAIRES,555 CHABANEL O,,MONTREAL,QC,H2N 2J2,,(514) 915-2128,,46.428,-90.24601
CHAUSSURES FELIX BROWN,1089 Avenue Laurier Ouest,,MONTREAL,QC,H2V 2L2,,(514) 273-4675,,48.084625,-101.419006
VAISSEAU D'OR,110 SAINT-PAUL OUEST,,MONTREAL,QC,H2Y 1Z3,,(blank),,0,0
ESPACE PPIN,350 RUE SAINT. PAUL OUEST,,MONTREAL,QC,H2Y 2A6,,(514) 844-0114,,0,0
DEXDALE,5350 MCDONALD AVENUE #1201,,MONTEAL,QC,H3X 3V2,,(514) 482-4594,,29.538008,-100.011456
PROMENADE GREENE,1334 GREENE AVENUE,,WESTMOUNT,QC,H3Z 2B1,,(514) 935-1522,,38.300217,-76.743445
PROMENADES COP COPINE,5572 MONKLAND AVE.,,MONTREAL,QC,H4A 1C9,,(514) 489-2223,,46.428,-90.24601
GAUDETTE DESIGN INTERNATIONAL,5130 SHERBROOKE WEST,,MONTREAL,QC,H4A 1T1,,(514) 806-7580,,46.428,-90.24601
THALICIA,C.P. 726,,MONTREAL,QC,H5B 1B8,,(514) 282-0476,,46.428,-90.24601
BOUTIQUE MAUDE,545 HAUTERIVE,,LAVAL,QC,H7G 4L8,,(450) 669-8221,,39.655643,-78.810576
BOUTIQUE FRANCINE CASTONGUAY,2953 Saint-Charles Blvd,,KIRKLAND,QC,H9H 3B5,,(514) 630-7829,,38.596674,-76.910649
LAURI'S BOUTIQUE,3549 BOUL. ST-CHARLES,,KIRKLAND,QC,H9H 3C4,,(514) 505-6155,,47.56025,-122.228083
MODE CACH,275A BOUL SAINT JEAN,,POINTE-CLAIRE,QC,H9R 3J1,,(514) 630-3315,,0,0
BOUTIQUE ELLE ET MOI,1400 Rue Acton,,ACTON VALE,QC,J0H 1A0,,(450) 546-3711,,44.052329,-117.283258
SOLO MODE,9364-9838 QC INC.,,ST. SAUVEUR,QC,J0R 1R0,,(450) 227-1234,,44.816679,-123.137765
BOUTIQUE FILLE D'EVE,2269 KING STREET O,,SHERBROOKE,QC,J1J 2G2,,(819) 569-7623,,39.657355,-76.371332
BOUTIQUE TRIBU,386 PRINCIPALE OUEST,,MAGOG,QC,J1X 2A9,,(819) 847-4011,,48.154788,-124.667177
SOLO MODE,235 HERIOT,,DRUMMONDVILLE,QC,J2C 6X5,,(819) 477-0482,,37.58033,-88.43615
CRINOLINE,82 BOUL. BROMONT #102A,,BROMONT,QC,J2L 2K3,,(450) 534-4844,,31.165947,-96.675985
BOUTIQUE AZUL,3200 BOUL. LAFRAMBOISE,,ST. HYACINTHE,QC,J2S 4Z5,,(819) 582-7604,,37.990686,-76.590233
BOUTIQUE NEWBERRY,600 Pierre Caisse,,ST-JEAN-SUR-RICHELIEU,QC,J3A 1M1,,(450) 359-7779,,36.886677,-86.743019
GABY STYLE ET PASSION,1255 Boulevard De Perigny,,CHAMBLY,QC,J3L 1W7,,(450) 658-0371,,0,0
CHIC 80,53 Roi,,SOREL-TRACY,QC,J3P 4M6,,(450) 743-6835,,37.737191,-121.433384
BOUTIQUE SOLO MODE,A/S NICOLE CONTANTIN ENRG.,,ST-BRUNO,QC,J3V 4P6,,(450) 653-4225,,37.69066,-81.86901
BOUTIQUE ENTR'AMIES INC.,1025 Lionel Daunais,,BOUCHERVILLE,QC,J4B 0A5,,(450) 906-3578,,37.260661,-82.611266
BOUTIQUE MARJOLAINE ENRG.,243 ST.CHARLES OUEST,,LONGUEUIL,QC,J4H 1E1,,(450) 670-6595,,38.858035,-90.463316
TAYLOR ENTREPOT,913 ST.CHARLES,,SAINT-LAMBERT,QC,J4P 2A2,,(450) 672-9722,,0,0
CAROLE OSTIGUY INC.,2001 Rue Victoria #106,,ST.LAMBERT,QC,J4S 1H1,,(450) 465-9249,,34.189235,-90.215916
VETEMENTS L'ASSOMPTION INC.,215 RUE SAINT JOSEPH,,L'ASSOMPTION,QC,J5W 1N1,,(450) 589-5554,,0,0
BOUTIQUE GABRIELLE,Galeries De La Marina,,REPENTIGNY,QC,J6A 2S5,,(450) 654-5783,,38.013461,-122.516244
EN VUE BOUTIQUE,"100 BOUL. BRIEN, LOCAL 126, GALERIES RIVE NORD",,REPENTIGNY,QC,J6A 5N4,,(450) 581-0951,,34.415357,-81.804172
EXIGENCE,100 BOUL. BRIEN,,REPENTIGNY,QC,J6A 5N4,,(450) 582-0600,,34.415357,-81.804172
BTQ.MAHEU ET DAOUST INC.,229 VICTORIA,,VALLEYFIELD,QC,J6T 1A8,,(450) 371-2505,,28.804947,-96.984711
LINGERIE FROU FROU,243 Victoria,,VALLEYFIELD,QC,J6T 1A9,,(450) 371-9045,,28.804947,-96.984711
WALK-IN,238 CHEMIN GRANDE-CTE,,ROSEMERE,QC,J7A 1H4,,(450) 435-5557,,40.056208,-76.296903
BOUTIQUE ALLIANCE,200 BOUL CURE LABELLE #202,,STE-THERESE,QC,J7E2X5,,(450) 979-7289,,43.483635,-88.450107
BTQ. P'TITES FOLIES,799 BLVD.STE.ADELE,,STE.ADELE,QC,J8B 2N1,,(450) 229-6464,,43.61916,-87.95204
BOUTIQUE AVENUE MODE,838 Rue De St-Jovite,,MONT-TREMBLANT,QC,J8E 3J8,,(819) 425-5225,,0,0
VETEMENTS BRIGIDE ENR.,618 Lafleur,,LACHUTE,QC,J8H 1R8,,(450) 562-8426,,0,0
LA NOMADE,103 PRINCIPALE,,GATINEAU,QC,J9H 3L9,,(819) 684-7250,,0,0
MERCERIE CADIEUX,48 RUE DE LA MADONE,,MONT LAURIER,QC,J9L 1S5,,(819) 623-1600,,29.330235,-99.151314
ROSALIA RAE BOUTIQUE,25 MAIN STREET,,NORQUAY,SK,S0A 2V0,,306-594-7101,,0,0
BENGOUGH DRUGS,100 MAIN STREET,,BENGOUGH,SK,S0C 0K0,,(306) 268-2002,,0,0
CATZ N JAMMERS,101 BURROWS AVE. W BOX 3959,,MELFORT,SK,S0E 1A0,,(306) 752-9411,,35.581206,-94.976342
MY LITTLE BOUTIQUE,1014-100TH STREET,,TISDALE,SK,S0E 1T0,,(306) 873-4363,,37.335745,-97.057569
COTTAGE BOUTIQUE,632 Main Street,,HUMBOLT,SK,S0K 2A0,,(306) 682-2101,,0,0
LA BELLE BOUTIQUE,608 -12 TH AVENUE EAST,,KINDERSLEY,SK,S0L 1S2,,(306) 463-2779,,38.300217,-76.743445
FRANK'S MENSWEAR,1227 4TH STREET,,ESTEVAN,SK,S4A 0W8,,(306) 634-2423,,39.657355,-76.371332
THE VOID,38TH 6TH STREET,,WEYBURN,SK,S4H 1A8,,(306) 842-4499,,39.657355,-76.371332
AT FASHION,2176 - 7Th Avenue,,REGINA,SK,S4R 1C4,,(306) 565-1833,,35.22094,-106.75029
CROCUS & IVY,4065 ALBERT STREET,,REGINA,SK,S4S 3R5,,(306) 522-0877,,35.275505,-106.638155
BOH'S CYCLE & SPORTING GOODS,821 Main Street North,,MOOSEJAW,SK,S6H 0W8,,(306) 692-0477,,0,0
DETAILS AT HOME,309 - 3907 8TH ST. E,,SASKATOON,SK,S7H 5M7,,(306) 244-7797,,32.960575,-98.157108
JEANS N JOGGERS,1165 -101ST STREET,,NORTH BATTLE,SK,S9A 0Z5,,(306) 445-5326,,33.61571,-81.10204
BLUE SKY LINGERIE,Unit 311 - 1 Spring Drive,,SWIFT CURRENT,SK,S9H 3X6,,(306) 773-7702,,48.862924,-113.394345
HOT PEPPERS CLOTHING,4911 49Th Avenue,,LLOYDMINSTER,SK,S9V 0T6,,(306) 825-5326,,38.300217,-76.743445
MARTODAM'S,115 CENTRE STREET,,MEADOW LAKE,SK,S9X 1Y2,,(306) 236-5521,,34.588504,-106.728935
"MARLA JUNE'S CLOTHING COMPANY, ",5215 W. CLEARWATER AVE SUITE 101,,KENNEWICK,WA,99336,,,,46.21228,-119.19185
MARLA JUNE'S CLOTHING COMPANY,16 E. MAIN,,WALLA WALLA,WA,99362,,,,46.066814,-118.33852
MARLA JUNE'S CLOTHING COMPANY,811 W. BANNOCK,,BOISE,ID,83702,,,,43.617335,-116.202755
POSH PINEAPPLE,330 CANAL STREET,,NEW SMYRNA BEACH,FL,32168,,,,29.024257,-80.924021
ALLY ANNE'S LLC.,221 1ST AVE. NW,,HICKORY,NC,28601,,(828) 855-1919,,35.733022,-81.340545
POSH PINEAPPLE,330 CANAL STREET ,,NEW SMYRNA BEACH,FL,32168,,(386) 427-7674,,29.024257,-80.924021
MONAS CLOTHING,4614 N UNIVERSITY DRIVE,,CORAL SPRINGS,FL,33067,,(954) 346-0805,,26.28862,-80.250791
BO-TIKI,3015  BEACH BLVD,,GULFPORT,FL,33707,,(727) 498-8757,,27.739809,-82.708124
MAINSTREAM,2355 VANDERBILT BEACH RD,,NAPLES,FL,34109,,(239) 431-6034,,26.24584,-81.772064
PINK FLAMINGO,2220 LOGAN BLVD,,NAPLES,FL,34119,,(239) 631-6517,,26.243059,-81.718331
MAINSTREAM,880 A1A NORTH,,PONTE VEDRA,FL,32082,,(904) 834-7708,,29.783285,-81.258237
SCOUT AND MOLLYS,5050 TOWN CENTER CIR,,BOCA RATON,FL,33486,,(561) 430-3462,,26.363176,-80.122952
SCOUT AND MOLLYS,340 FRONT STREET,,PONTE VEDRA,FL,32082,,(904) 373-5856,,30.204259,-81.381456
LEILAS,1981 SAN MARCO BLVD,,JACKSONVILLE,FL,32207,,(904) 398-4999,,30.304734,-81.654683
LORI AND LULUS,213 CENTRE ST,,FERNANDINA BEACH,FL,32034,,(904) 310-9507,,30.671438,-81.463267
ISLAND CABANA,403 PINE AVE,,ANNA MARIA,FL,34216,,(941) 896-4946,,27.529355,-82.734442
ELI AND PEARL,10083 CLEARY BLVD,,PLANTATION,FL,33324,,(954) 368-5961,,26.13296,-80.284455
EVA BY THE SEA,5971 SILVER KING BLVD,,CAPE  CORAL ,FL,33914,,(239) 540-4480,,26.54,-81.9987
ETC BOUTIQUE,4138 NW 16TH BLVD,,GAINESVILLE,FL,32605,,(352) 378-8222,,29.674846,-82.387672
LISA'S CLOSET,5524 S FLAMINGO RD,,COOPER CITY,FL,33330,,(954) 689-4102,,26.048395,-80.311964
LESLEYS,2829 BIRD AVE,,MIAMI,FL ,33133,,(305) 442-2212,,25.735813,-80.239137
SHOO SHOO BABY,117 S BOYD STREET,,WINTER GARDEN,FL,34787,,(407) 955-2525,,28.564758,-81.58656
LEE TRACY,701 E. GREGORY STREET,,PENSACOLA,FL,32502,,(850) 912-8639,,30.41777,-87.201023
WEAR WITH ALL,101435 OVERSEAS HWY,,KEY LARGO,FL,33037,,(305) 453-0889,,25.112652,-80.421535
SHES THE ONE,7100 FAIRWAY DRIVE,,PGA,FL ,33418,,(561) 355-8111,,26.8368,-80.13295
ELAM JAYNE BOUTIQUE & FANCIFUL THINGS,18 ROYAL OAK DRIVE,,GREENWOOD,SC,29649,,,,34.199697,-82.180572
MAINSTREAM BOUTIQUE (NEW LENOX),2340 E. LINCOLN HWY,,NEW LENOX,IL,60451,,(815) 735-5826,,41.508135,-87.921611
REFORM UNLIMITED DBA REFORMEN STYLE,15 BROADWAY,,CRESSKILL ,NJ,7626,,(201) 394-3581,,40.939177,-73.962061
FITTIN' PRETTY BRAS & BOUTIQUE ,444 SHAWS FLAT RD,,SONORA ,CA,95370,,(209) 532-6149,,37.991287,-120.387768
ARIZONA BILTMORE RESORT,2400 EAST MISSOURI AVENUE,,PHOENIX,AZ,85016,,(602) 955-6600,,33.524065,-112.022874
BAGS & RAGS,16 EASY STREET,,CAREFREE,AZ,85377,,(602) 628-5757,,33.825023,-111.922056
BANNER HEALTH GIFT SHOP,1111 E MCDOWELL RD,,PHOENIX,AZ,85006,,(602) 839-5677,,33.46431,-112.058569
CARINE - GAINEY VILLAGE,8787 N SCOTTSDALE ROAD # 210,,SCOTTSDALE,AZ,85253,,(480) 483-3888,,33.565847,-111.924324
CARINE - 5TH AVENUE SHOPS,7090 E 5TH AVENUE,,SCOTTSDALE,AZ,85251,,(480) 949-0800,,33.498327,-111.928584
CARINE - 1ST AVENUE PIMA PLAZA,7227 E 1ST AVENUE,,SCOTTSDALE,AZ,85251,,(480) 686-8533,,33.493742,-111.925274
CARINE - DANA PARK,1822 S VAL VISTA DRIVE #101,,MESA,AZ,85204,,(480) 702-0980,,33.380973,-111.756216
CHARMED AVENUE,"6137 N SCOTTSDALE ROAD, SUITE 101",,SCOTTSDALE,AZ,85250,,(480) 800-7944,,33.526314,-111.924962
CHERYL'S OF FOUNTAIN HILLS,16858 EAST AVENUE OF THE FOUNTAINS,,FOUNTAIN HILLS,AZ,85268,,(480) 816-8445,,33.603963,-111.716169
CLIQUE BOUTIQUE,1865 E RIVER ROAD,,TUCSON,AZ,85718,,(520) 232-9458,,32.287847,-110.944792
ESSENZA BOUTIQUE,8936 E PINNACLE PEAK ROAD,,SCOTTSDALE,AZ,85255,,(480) 563-9963,,33.69889,-111.888793
FRENCH HEN BOUTIQUE,108 S MONTEZUMA STREET,,PRESCOTT,AZ,86303,,(925) 445-3424,,34.541565,-112.470452
ISN'T SHE LOVELY,276 N SR89A # D2,,SEDONA,AZ,86336,,(928) 282-5840,,34.54504,-112.470356
KISS ME KATE,5039 N. 44TH STREET,,PHOENIX,AZ,85018,,(602) 840-6173,,33.510425,-111.986529
LIMITED ADDITIONS,4300 N CAMPBELL AVE STE#20,,TUCSON,AZ,85718,,(520) 577-1356,,32.285304,-110.943308
LOEWS VENTANA CANYON,7000 N RESORT DRIVE,,TUCSON,AZ,85750,,(520) 299-2020,,32.329846,-110.850751
MIRAVAL ARIZONA,5000 E VIA ESTANCIA MIRAVAL,,TUCSON,AZ,85739,,(855) 234-1672,,32.507409,-110.885167
OBJECTS,6560 N. SCOTTSDALE RD SUITE #115,,SCOTTSDALE,AZ,85253,,(480) 878-5343,,33.532554,-111.926113
SAGE BRUSH TRADERS,120 N. LEROUX,,FLAGSTAFF,AZ,86001,,(928) 774-3100,,35.199144,-111.648309
SALON ESPRIT,"20165 N67TH AVE, SUITE 114",,GLENDALE,AZ,85308,,(623) 869-6711,,33.664997,-112.201805
SNEAK A PEEK TRAVELING BOUTIQUE,,,PHOENIX,AZ,,,(218) 779-0428,,33.703967,-112.351835
"EL CONQUISTADOR TUCSON, A HILTON HOTEL",10000 N ORACLE ROAD,,TUCSON,AZ,85704,,(520) 544-5000,,32.386575,-110.956342
TUBAC GOLF RESORT & SPA,65 AVENIDA DE OTERO,,TUBAC,AZ,85646,,(520) 398-3545,,31.626265,-111.045619
WHAT WOMEN WANT,1825 E GUADALUPE RD STE 106,,TEMPE,AZ,85283,,(480) 777-2535,,33.363609,-111.910235
ACCENTS,815 GRANT AVE,,NAVATO,CA,94945,,(415) 898-7090,,38.106827,-122.567011
ALEXANDRITE ACTIVE & GOLF WEAR,78100 MAIN ST SUITE 103,,LA QUINTA,CA,92253,,(760) 625-1364,,33.677866,-116.302083
ALLEY ON SUNSET,8647  W SUNSET BLVD,,WEST HOLLYWOOD,CA,90069,,(310) 652-6844,,34.092292,-118.379882
AMBIANCE,3979 24TH ST.,,SAN FRANCISCO,CA,94114,,(415) 647-5800,,37.751216,-122.431311
AMBIANCE,1858 UNION ST.,,SAN FRANCISCO,CA,94123,,(415) 923-9796,,37.798087,-122.429898
AMBIANCE,756 IRVING ST.,,SAN FRANCISCO,CA,94122,,(415) 661-1663,,37.764296,-122.466121
AMBIANCE GALLERY,262 MAIN STREET,,PLACERVILLE,CA,95667,,(530) 344-7087,,38.728014,-120.803168
ANGELIQUE,452 FIRST ST. EAST,,SONOMA,CA,95476,,(707) 938-9988,,38.292624,-122.456462
ARANELLE,2940 STATE STREET,,CARLSBAD,CA,92008,,(760) 434-1140,,33.16041,-117.348974
BAZAAR DEL MUNDO,4133 TAYLOR STREET,,SAN DIEGO,CA,92110,,(619) 296-3161,,32.757288,-117.197794
BE BOUTIQUE,1501 INDIA ST #120,,SAN DIEGO,CA,92101,,(619) 990-0033,,32.721425,-117.167989
BEAUTIFUL,120 WEST MAIN STREET,,GRASS VALLEY,CA,95945,,(530) 273-0054,,39.219618,-121.062828
BELLA JAMES,1371 LINCOLN AVENUE,,SAN JOSE,CA,95125,,(408) 292-0000,,37.304051,-121.898109
BLONDIES,155 EL CAMINO REAL,,TUSTIN,CA,92780,,(714) 838-0331,,33.744854,-117.823282
BLOOM AT AMBIANCE,6608 FOLSOM AUBURN RD #8,,FOLSOM,CA,95630,,(916) 936-4471,,38.68625,-121.178475
BUBBLES BOUTIQUE,226 5TH AVE,,SAN DIEGO,CA,92101,,(619) 236-9003,,32.708035,-117.160527
CAMBRIC LTD,197 2ND ST,,LOS ALTOS,CA,94022,,(650) 941-2106,,37.378462,-122.116586
CARRIED AWAY BOUTIQUE,606 LIGHTHOUSE AVENUE,,PACIFIC GROVE,CA,93950,,(831) 656-9063,,36.621558,-121.918326
CEDAR SINAI MED CTR/HELPING HAND GIFT SHOP,8700 BEVERLY BLVD,,LOS ANGELES,CA,90048,,(310) 423-5241,,34.076545,-118.380005
CHATEAU STE SHIRTS,1355 LINCOLN AVE,,CALISTOGA,CA,94515,,(707) 942-5039,,38.578283,-122.579398
CIARA'S IRISH SHOP,334 2ND STREET,,EUREKA,CA,95501,,(707) 443-0102,,40.804043,-124.168097
CORINTHIAN YACHT CLUB,43 MAIN ST,,TIBURON,CA,94920,,(415) 883-4150,,37.871529,-122.457221
COTTON CLUB,2331 J STREET,,SACRAMENTO,CA,95816,,(916) 442-2990,,38.575658,-121.475526
COTTON PARTY,476 E 1ST AVRE,,CHICO,CA,95928,,(530) 893-4923,,39.740445,-121.840184
COVO BOUTIQUE,7988 E. COAST HWY,,NEWPORT BEACH,CA,92657,,(949) 715-6900,,33.569562,-117.832159
DAISY CLOTHING BOUTIQUE,1332 MAIN STREET,,SAINT HELENA,CA,94574,,(707) 963-2154,,38.504843,-122.469207
DAISY'S,1347 PARK ST,,ALAMEDA,CA,94501,,(510) 522-6443,,37.763754,-122.243429
DANDELION,1322 PINE ST,,REDDING,CA,96001,,(530) 247-1292,,40.586223,-122.390448
DEASEE'S BOUTIQUE,115 WEST CLARK AVE,,ORCUTT,CA,93455,,(805) 332-3152,,34.865507,-120.447501
DEASEE'S BOUTIQUE,115 WEST OCEAN AVE,,LOMPOC,CA,93436,,(805) 430-8396,,34.639177,-120.458338
ECLECTIC HOME AND CLOSET,1130 SCOTT STREET,,SAN DIEGO,CA,92106,,(619) 888-3244,,32.721254,-117.230772
ELEMENTS,2937 COLLEGE AVE.,,BERKELEY,CA,94705,,(510) 548-6876,,37.857741,-122.2528
EVA'S TRUNK,3313 HYLAND AVE,,COSTA MESA,CA,92626,,(714) 319-2542,,33.694402,-117.925883
EVE & ME,1700 MCHENRY AVENUE,,MODESTO,CA,95350,,(209) 521-5966,,37.66945,-120.994147
FOR ELYSE,228 BROADWAY ST,,CHICO,CA,95928,,(530) 893-0106,,39.729244,-121.841084
HELEN & LOUISE,1804 CANAL ST,,MERCED,CA,95340,,(209) 722-1454,,37.302717,-120.482334
HOTEL DEL CORONADO,1500 ORANGE AVE,,CORONADO,CA,92118,,(619) 435-6611,,32.681185,-117.178071
HUBBA HUBBA,11 PRINCESS ST,,SAUSALITO,CA,94965,,(415) 331-7577,,37.854861,-122.479273
IELLE,1300 FIRST STREET SUITE 378,,Napa,CA,94559,,(707) 944-2282,,38.298066,-122.288095
J. FERMI,119 KENTUCKY STREET,,PETALUMA,CA,94952,,(707) 241-7424,,38.234005,-122.64147
JANE & JEAN BOUTIQUE,237 MAIN STREET,,MURPHYS,CA,95247,,(209) 728-3900,,38.137284,-120.461178
KATIA'S COLLECTION,5619 H STREET,,SACRAMENTO,CA,95819,,(916) 451-8966,,38.567471,-121.433862
KISMET BOUTQUE,100 N SANTA CRUZL AVE STE #A,,LOS GATOS,CA,95030,,(408) 395-4664,,37.22439,-121.982705
LA BOUTIQUE les deux,1438 CAMINO DEL MAR,,DEL MAR,CA,92014,,(858) 755-0525,,32.959277,-117.265556
LA QUINTA RESORT & CLUB,49-499 EISENHOWER DRIVE,,LA QUINTA,CA,92253,,(760) 564-4111,,33.673428,-116.308173
LAVENDER BLU BOUTIQUE,519 GRAND AVE,,CARLSBAD,CA,92008,,(760) 729-1400,,33.16071,-117.349282
LAVENDER BLU BOUTIQUE,130 EAST BRANCH STREET,,ARROYO GRANDE,CA,93420,,(805) 474-7747,,35.123346,-120.578562
LAVENDER BLU BOUTIQUE,669 EMBARCADERO,,MORRO BAY,CA,93442,,(805) 772-7109,,35.364611,-120.852931
LOEWS CORONADO BAY RESORT,4000 CORONADO BAY ROAD,,CORONADO,CA,92118,,(619) 424-4000,,32.629915,-117.138587
MABELS,10445 CRAFTSMAN WAY,,SAN DIEGO,CA,92127,,(858) 451-3600,,33.019116,-117.114468
MABELS,136 SOUTH CEDROS AVE,,SOLANA BEACH,CA,92075,,(858) 794-0066,,32.99157,-117.270394
MADELYN'S,5901 MARINA ROAD SUITE #4,,DISCOVERY BAY,CA,94505,,(925) 628-8574,,37.903448,-121.586953
MAINSTREAM BOUTIQUE,1049 COCHRANE ROAD SUITE 100,,MORGAN HILL,CA,95037,,(408) 612-8594,,37.156361,-121.651898
MALIBU FASHIONS & POSH II,3031 W BULLARD AVE,,FRESNO,CA,93711,,(559) 243-1001,,36.822054,-119.845337
MARY'S BOUTIQUE,3656 THE BARNYARD,,CARMEL,CA,93923,,(831) 625-2009,,36.540313,-121.907066
MCKENNA'S PENDLETON,2304 PACIFIC COAST HIGHWAY,,LOMITA,CA,90717,,(310) 539-2725,,33.789325,-118.322824
MEADOW,539 ARCADE DR. ,,VENTURA,CA,93003,,(805) 648-3474,,34.269733,-119.266272
THE VAULT WOMEN,361 FOREST AVENUE,,LAGUNA BEACH,CA,92651,,(949) 376-5000,,33.543629,-117.782083
MIA BELLA'S OFF THE HANGER,55 W 10TH ST,,TRACY,CA,95376,,(209) 221-0966,,37.738831,-121.427569
"MO, JO & ZOE",10122 DONNER PASS ROAD,,TRUCKEE,CA,96161,,(530) 587-3495,,39.327776,-120.186583
MONARCH BEACH RESORT,ONE MONARCH BEACH RESORT,,DANA POINT,CA,92629,,(949) 234-3232,,33.485903,-117.696366
MORNING GLORY,1436 BURLINGAME AVE,,BURLINGAME,CA,94010,,(650) 340-0301,,37.577588,-122.349129
MS. FABULOUS,NW CORNER SAN CARLOS & SEVENTH,,CARMEL-BY-THE-SEA,CA,93921,,(831) 625-0920,,36.555239,-121.923288
NATASHA,1231 A STATE ST,,SANTA BARBARA,CA,93101,,(805) 965-4542,,34.421897,-119.707135
NEW MOON BOUTIQUE,791 MAIN ST,,CAMBRIA,CA,93428,,(805) 927-4466,,35.567095,-121.099335
ORCHARD'S LAZY K HOUSE,4010 MT DIABLO BLVD,,LAFAYETTE,CA,94549,,(925) 284-4474,,37.890439,-122.151843
OUTSIDE-IN,7568 SOQUEL DRIVE,,APTOS,CA,95003,,(831) 684-0186,,36.980164,-121.908826
COLLECTIONS CLOTHING BOUTIQUE,505 FIVE CITIES DRIVE,,PISMO BEACH,CA,93449,,(805) 556-0329,,35.135088,-120.62456
POPPY BOUTIQUE,911 STATE STREET,,SANTA BARBARA,CA,93101,,(805) 771-9750,,34.420498,-119.700789
POPPY BOUTIQUE,911 EMBARCADERO,,MORRO BAY,CA,93442,,(805) 771-9750,,35.367126,-120.853898
RAINS,218 E. OJAI AVE,,OJAI,CA,93023,,(805) 646-1441,,34.448096,-119.245258
RANCHO RELAXO,"69930 HWY 111, SUITE 116",,RANCHO MIRAGE,CA,92270,,(760) 656-7009,,33.768024,-116.44466
RED RABBIT BOUTIQUE,54245-A NORTH CIRCLE DRIVE,,IDYLLWILD,CA,92549,,(951) 659-0605,,33.745096,-116.712646
RUSTIC ROOTS,231 East Main St,,TURLOCK,CA,95380,,(209) 262-0688,,37.495227,-120.845495
ASTON'S,5256 S. MISSION ROAD SUITE# 704,,BONSALL,CA,92003,,(760) 726-4263,,33.29599,-117.22352
SIERRA DESIGN STUDIO,550 OLD MAMMOTH RD.,,MAMMOTH LAKES,CA,93546,,(760) 934-4122,,37.638008,-118.966798
SONDRA'S,28200 CA-189,,LAKE ARROWHEAD,CA,92352,,(909) 336-2990,,34.250502,-117.190516
SURF DIVA,2160 AVENIDA DE LA PLAYA,,LA JOLLA,CA,92037,,(858) 454-8273,,32.85418,-117.256453
THE DRESSING ROOM,125 W TEHACHAPI BLVD #A,,TEHACHAPI,CA,93561,,(661) 557-0790,,35.132305,-118.447806
THE HIDEAWAY CLUB,80-440 HIDEAWAY CLUB CT,,LA QUINTA,CA,92253,,(760) 777-7400,,33.670978,-116.259176
THE RED BOX,1386 NORTH MAIN ST,,WALNUT CREEK,CA,94596,,(925) 280-1188,,37.899115,-122.060609
TRE BOUTIQUE,2690 VIA DE LA VALLE SUITE D 240,,DEL MAR,CA,92014,,(858) 755-7227,,32.981202,-117.25043
TRE BOUTIQUE,1006 N EL CAMINO REAL,,ENCINITAS,CA,92024,,(760) 942-0227,,33.06439,-117.264216
TRE BOUTIQUE,5980 VILLAGE WAY B104,,SAN DIEGO,CA,92130,,(858) 847-2760,,32.962072,-117.189934
UNIQUE BOUTIQUE FOR U,34 MAIN STREET,,SUTTER CREEK,CA,95685,,(209) 267-1806,,38.392828,-120.802574
ZIZI,334 HEALDSBURG AVE,,HEALDSBURG,CA,95448,,(707) 431-2209,,38.610597,-122.870436
HURRICANE,3639 BALDWIN AVEUE,,MAKAWAO,HI,96768,,(808) 572-5076,,20.855696,-156.311554
SERAPE BLUE,144 N TEGNER STREET,,WICKENBURG,AZ,85390,,(928) 232-2600,,33.969779,-112.731446
THE VILLAGE POODLE,2410 CANTERBURY ROAD,,MOUNTAIN BROOK,AL,35223,,,,33.483734,-86.772651
CLOTH & STONE BOUTIQUE ,1625 DARBY DRIVE,,FLORENCE,AL,35630,,,,34.820296,-87.656596
ROBBIE'S OF FAYETTE INC,132 TEMPLE AVE,,FAYETTE,AL,35555,,,,33.684464,-87.830824
AGAINST THE GRAIN ,880 HWY 64,,MARION,AR,72364,,,,35.211236,-90.210062
ASPIRE OUTDOORS,2492 HWY 62 E,,MOUNTAIN HOME,AR,72653,,,,36.357649,-92.344307
C'EST LA VIE,58 SPRING ST,,EUREKA,AR,72632,,,,36.403586,-93.737125
EXPRESS YOUR SELF LLC.,611 OFFICE PARK DR.,,BRYANT,AR,72022,,,,34.622811,-92.502148
JIMMIE N DARLING DBA:DARLING'S FINE THIN,1303 MCCLAIN ST.,,NEWPORT,AR,72112,,,,35.569278,-91.203951
SISTERS FLOWERS & GIFT,103 INDUSTRIAL PARK RD #D,,HARISSON,AR,72601,,,,36.250695,-93.12442
SOUTHERN ROOTS ,12615 SOUTH FORK LANE,,BENTON,AR,72019,,,,34.490696,-92.718273
THE SHABBY PIG,907 WEST MAIN,,CLARKSVILLE,AR,72830,,,,35.471741,-93.447048
RUSSO ROSS LLC ,1558 GLASGOW AVE,,BATON ROUGE,LA,70808,,,,30.407647,-91.144276
THE LOFT,10801 WHITESTAR DR,,BASTROP,LA,71220,,,,32.795041,-91.873723
GOOD HOPE FEEDS,201 S. MAIN ST.,,YAZOO CITY,MS,39194,,,,32.846101,-90.414036
HOLLYS FLOWER SHOP INC,1151 COLD SPRING RD,,COLLINS,MS,39428,,,,31.625635,-89.544814
MAINSTREET LINEN COMPANY,105 W BANKHEAD ST.,,NEW ALBANY,MS,38652,,,,34.494136,-89.00846
MAISON WEISS INC.,"4500 INTERSTATE 55 NORTH, SUITE #109",,JACKSON,MS,39211,,,,32.352422,-90.15192
MOCKINGBIRD MARKETPLACE,8 HONEYSUCKE HILL,,PEARL,MS,39208,,,,32.278268,-90.081978
PAPER MOON CLOTHING CO ,105 EAST MAIN ST,,BALDWYN,MS,38824,,,,34.509061,-88.633661
POLISHED LOOK BOUTIQUE,710 MAIN ST,,COLUMBIA,MS,39429,,,,31.252061,-89.835101
R.W. REED CO,129 MAIN ST.,,TUPELO,MS,38804,,,,34.193858,-88.722671
REVERIE BOUTIQUE,927 WAYNE STREET,,WAYNESBORO,MS,39367,,,,31.676622,-88.6368
SOLE SISTERS LLC.,P.O. BOX 112,,SEMINARY,MS,39479,,,,31.5378,-89.502846
SPARROWS ON MAIN,810 EAST MAIN,,TUPELO,MS,38804,,,,34.257309,-88.685176
MONKEE'S OF RIDGELAND,947 WILLOW GRANDE CIRCLE,,BRANDON,MS,39047,,,,32.342864,-89.985597
SQUASH BLOSSOM BOUTIQUE LLC ,102 W MAIN ST,,ANTHONY,KS,67003,,,,37.15204,-98.030426
CARMENS,275 LINCOLN RD,,COURTLAND,KS,66939,,,,38.785512,-98.501907
CUMMINGS CAROUSEL,2600 CENTRAL AVE,,DODGE CITY,KS,67801,,,,37.777476,-100.015366
PEARLS & CURLS BOUTIQUE ,121 E PRAIRIE,,GIRARD,KS,66743,,,,37.509142,-94.842347
GIGI'S,4163 SOUTH ST,,GRANTVILLE,KS,66429,,,,39.081985,-95.558056
WEAVER'S,PO BOX 848,,LAWRENCE,KS,66044,,,,39.023294,-95.208909
ALYSA RENE BOUTIQUE,11547 ASH ST.,,LEAWOOD,KS,66211,,,,38.918175,-94.647504
SCOUT & MOLLY'S LEAWOOD TOWN CENTER,8414 REDBUD LANE,,LENEXA,KS,66220,,,,38.97516,-94.827913
"MAINSTREAM BOUTIQUE (OVERLAND PARK, KS)",9540 NALL AVE,,OVERLAND PARK,KS,66207,,,,38.955249,-94.651066
GIFTOLOGISTS,102 ALBERT AVE,,SCOTT CITY,KS,67871,,,,38.46651,-100.90586
ASPEN TRADERS LTD DBA ASPEN BOUTIQU,4706 E DOUGLAS,,WICHITA,KS,67208,,,,37.686952,-97.281215
WISH,213 S BROADVIEW,,CAPE GIRARDEAU,MO,63703,,,,37.301801,-89.558073
VOGUE BOUTIQUE,P.O. BOX 73,,CARL JUNCTION,MO,64834,,,,37.17672,-94.56551
KLEINSCHMIDTS WESTERN STORE,19715 OUTER ROAD,,HIGGINSVILLES,MO,64037,,,,38.992687,-93.669931
BITTERSWEET SOAP CO,225 N RIDGE AVE,,LIBERTY,MO,64068,,,,39.248883,-94.431644
COACH LIGHT HALLMARK GOLD CROWN,500 W REED ST,,MOBERLY,MO,65270,,,,39.419915,-92.441451
"MAINSTREAM BOUTIQUE (SPRINGFIELD, MO)",1268 W BRIDGEWOOD PL,,NIXA,MO,65714,,,,37.034736,-93.325853
LILAC IVY BOUTIQUE LLC,184 SHORTLEAF PINE DR,,ST CHARLES,MO,63303,,,,38.735866,-90.659406
MICHELLES,229 N MAIN STREET,,ST CHARLES,MO,63301,,,,38.78294,-90.480787
CAT''S MEOW PERSONALIZED GIFTS,11773 MANCHESTER ROAD,,ST LOUIS,MO,63131,,,,38.600777,-90.429946
MARTA'S BOUTIQUE,1185 RESEARCH BLVD,,ST LOUIS,MO,63132,,,,38.681231,-90.398839
LAURIE SOLET,1176 TOWN AND COUNTRY CROSSING DRIVE,,TOWN COUNTRY,MO,63017,,,,38.621604,-90.515538
BRATA BOUTIQUE,1705 WASHINGTON ST,,BLAIR,NE,68008,,,,41.543592,-96.13787
TRIPLE BLESSED BOUTIQUE,43928 PAULSEN RD,,BROKEN BOW,NE,68822,,,,41.423231,-99.649422
LILLIE KATE BOUTIQUE LLC,511 SIOUX LN,,BROKEN BOW,NE,68822,,,,41.409319,-99.652523
BEYOUTIFUL BOUTIQUE & GIFTS,3252 41 AVE,,COLUMBUS,NE,68601,,,,41.447557,-97.378825
THE 308 BOUTIQUE (ELKHORN),1413 N. 208TH ST.,,ELKHORN,NE,68022,,,,41.272179,-96.239686
FAIRWAY FASHION'S LLC ,423 N MAIN,,FREMONT,NE,68025,,,,41.433038,-96.496377
BRICK ROAD BOUTIQUE,941 P ST,,GENEVA,NE,68361,,,,40.536368,-97.601833
A-LIST,322 N PINE ST. SUITE 101,,GRAND ISLAND,NE,68801,,,,40.926376,-98.340406
THE FARMERS WIFE,PO BOX 10,,IMPERIAL,NE,69033,,,,40.515114,-101.632038
BEKA BOUTIQUE,4702 PRESCOTT AVE STE B,,LINCOLN,NE,68506,,,,40.773145,-96.655242
NOUVELLE EVE INC,1102 HOWARD STREET,,OMAHA,NE,68102,,,,41.255654,-95.930761
ALLURE FASHIONS,526 SEWARD ST,,SEWARD,NE,68434,,,,40.908093,-97.098546
THE LEGACY,14794 HWY 70,,ARDMORE,OK,73401,,,,34.173325,-97.225881
POOH'S PLACE,P.O. BOX 170,,BEAVER,OK,73932,,,,36.834113,-100.51773
"MAINSTREAM BOUTIQUE (EDMOND, OK)",130 N BROADWAY STE. 120,,EDMOND,OK,73034,,,,35.656647,-97.480898
BOUTIQUE ONE,325 ABILENE AVE.,,EDMOND,OK,73003,,,,35.652228,-97.510428
FIVE DENIM,3308 HILLSIDE DR.,,EDMOND,OK,73012,,,,35.667234,-97.593657
FLYS DIVINE BOUTIQUE,445664 HWY 10A,,GORE,OK,74435,,,,35.532577,-95.109916
KRISTA ANNE'S LLC ,7602 N MAY AVE,,OKLAHOMA CITY,OK,73116,,,,35.548285,-97.565206
REAVIS DRUG,PO BOX 1220,,PAULS VALLEY,OK,73075,,,,34.759696,-97.308819
THE MIX MERCANTILE,300 W MUSKOGEE AVE.,,SULPHUR,OK,73086,,,,34.50731,-96.970085
DONNA'S FASHIONS,10051 S. YALE AVE.  #105,,TULSA,OK,74132,,,,36.018025,-95.921277
MORNING SKY BOUTIQUE,PO BOX 257,,VIAN,OK,74962,,,,35.497703,-94.968442
LUNACHICS,131 WATER ST. ,,EXTETER,NH,3833,,,,42.981661,-70.947429
INDIGO BLUES,902 MAIN ST. ,,CONTOOCOOK,NH,3229,,,,43.222625,-71.713363
ALAPAGE,25 S. RIVER RD. #301,,BEDFORD,NH,3110,,,,42.964243,-71.480574
PASTICHE BOUTIQUE,263 UNION SQUARE,,MILFORD,NH,3055,,,,42.835156,-71.649576
FEMININE FANCIES ,290 COUNTY RD,,BARRINGTON,RI,2806,,,,41.740687,-71.309374
X & O BOUTIQUE ,190 BELLEVUE AVE,,NEWPORT,RI,2840,,,,41.482892,-71.308268
STALISE,105 CLOCK TOWER SQUARE,,PORTSMOUTH,RI,2871,,,,41.591159,-71.268321
JACKIE'S LOFT,448 THAMES ST. ,,BRISTOL,RI,2809,,,,41.673252,-71.278624
GREEN INK,199 WAYLAND AVE,,PROVIDENCE,RI,2906,,,,41.829548,-71.387946
SOCIAL FLY TX,608 N. 2ND ST. ,,FLOYDADA,TX,79235,,(806) 983-0721,,33.991892,-101.341014
KIMBERLY'S BOUTIQUE,968 FARMINGTON AVE,,WEST HARTFORD,CT,6107,,,,41.761913,-72.743352
CHOU CHOU,165-C ROWAYTON AVE. ,,ROWAYTON,CT,6853,,,,41.068062,-73.443738
LORRAINE K BOUTIQUE ,477 MAIN ST,,MONROE,CT,6468,,,,41.324043,-73.267738
ELLA WHERE SHE SHOPS,90 BROAD ST.,,GUILFORD,CT,6437,,,,41.284343,-72.682816
POSESSIONS,1074 MAIN ST. ,,BRANFORD,CT,6405,,,,41.282881,-72.810709
SAYBROOK COUNTRY BARN,2 MAIN ST. ,,OLD SAYBROOK,CT,6475,,,,41.29735,-72.376561
MORNEAULT'S STACKPOLE MOORE TRYON,242 TRUMBULL ST. ,,HARTFORD,CT,6103,,,,41.767915,-72.675217
A SPLASH OF SASS DBA DGSK LLC,13215 GRANT RD #800,,CYPRESS,TX,77429,,,,29.994912,-95.62501
ALL ABOUT YOU,9855 EAGLE DR. #1,,BAYTOWN,TX,77523,,,,29.841683,-94.854661
AMY'S UNIQUE BOUTIQUE LLC,3A EAST MAIN ST,,BELLVILLE,TX,77418,,,,29.949966,-96.257741
BAY WINDOW,701 HWY 35,,ROCKPORT,TX,78382,,,,28.029294,-97.04816
BELLHOP BOUTIQUE,3153 CANTERBURY LN,,PORT NECHES,TX,77651,,,,29.956222,-93.956425
CARUGGI'S,3701 W ALABAMA SUITE 120,,HOUSTON,TX,77027,,,,29.738144,-95.437496
CHOICES & MORE,18920 FORTY SIX PARKWAY,,SPRING BRANCH,TX,78070,,,,29.881355,-98.408614
COUSIN EARL,7201 BISHOP RD.,,PLANO,TX,75024,,,,33.075982,-96.821419
FASHION POSH,117 E. JACKSON STREET,,HARLINGEN,TX,78550,,,,26.192918,-97.695453
GYPSY PEARL BOUTIQUE,609 BRADFORD AVE. #110,,KEMAH,TX,77565,,,,29.543589,-95.018257
HAMILTONS,500 CENTER AVE.,,BROWNWOOD,TX,76801,,,,31.719568,-98.982973
J. JUNE,"577 US HWY 90E,  SUITE 100",,HONDO,TX,78861,,,,29.348828,-99.114637
LAUREN'S MERLE NORMAN,239 LIVE OAK ST.,,MARLIN,TX,76661,,,,31.306353,-96.895628
LESLIE & CO ,1415 S VOSS RD STE 115,,HOUSTON,TX,77057,,,,29.751659,-95.499646
M.L LEDDY'S BOOT,2455 N MAIN,,FORT WORTH,TX,76164,,,,32.789105,-97.349421
MADELINE'S BOUTIQUE & GIFTS,11510 SPACE CENTER BLVD.  #A-2,,HOUSTON,TX,77059,,,,29.629399,-95.142447
"MAINSTREAM BOUTIQUE (KATY, TX )",25757 WESTHEIMER PKWY STE#110,,KATY,TX,77494,,,,29.750577,-95.799985
"MAINSTREAM BOUTIQUE (SPRING, TX)",6392 LOUETTA ROAD,,SPRING,TX,77379,,,,30.028448,-95.512032
"MAINSTREAM BOUTIQUE (WOODLANDS,TX)",3091 COLLEGE PARK DR. #193,,THE WOODLANDS,TX,77384,,,,30.207538,-95.459036
MIRAVAL AUSTIN,13500 FM 2769,,AUSTIN,TX,78726,,,,30.445234,-97.862249
PAPPAGALLO,6959 LEBANON RD #118,,FRISCO,TX,75034,,,,33.122121,-96.824724
PAPPAGALLO #108,3000 S. HULEN ST.,,FT. WORTH,TX,76109,,,,32.705376,-97.389812
PAPPAGALLO,304 COLT RD.  #100,,PLANO,TX,75075,,,,33.042582,-96.681603
PINK POPPY ,1500 RIVERY BLVD. #2165,,GEORGETOWN,TX,78628,,,,30.649657,-97.687367
PRETTY PLEASE HOUSTON,8791 KATY FREEWAY,,HOUSTON,TX,77024,,,,29.783726,-95.506037
PRICKLY PEAR,109 COMMERCIAL AVE,,COLEMAN,TX,76834,,,,31.830627,-99.422732
RAGG DOLL,124 E. AVE STE G,,PORT ARANSAS,TX,78373,,,,27.832168,-97.06252
RYAN WAYNE COLLECTION,5017 COLLEYVILLE BLVD,,COLLEYVILLE,TX,76034,,,,32.883027,-97.153626
SCOUT & MOLLYS SOUTHLAKE,1232 MAIN ST.,,SOUTHLAKE,TX,76092,,,,32.942744,-97.133208
SILVER WINGS BOUTIQUE ,150 S BELKNAP ST,,STEPHENVILLE,TX,76401,,,,32.219884,-98.202721
THE BLOOMING CACTUS,1551 N. ESPLANDE,,CUERO,TX,77954,,,,29.103953,-97.284775
THE GARDEN ROOM,1601 W. 38th ST. STE 5,,AUSTIN,TX,78731,,,,30.308646,-97.750244
THE GIFT HORSE,2056 N VALLEY MILLS DR,,WACO,TX,76710,,,,31.532737,-97.205047
THE LARK  SHOP,2419 SUNSET BLVD,,HOUSTON,TX,77005,,,,29.72274,-95.415759
THE LITTLE RED HEN,105 E VIRGINIA ST,,MCKINNEY,TX,75069,,,,33.198182,-96.615544
THE STORE IN LAKE HIGHLANDS,9850 WALNUT HILL LANE  #226,,DALLAS,TX,75238,,,,32.877822,-96.716617
THE WARDROBE,4528 HARTWOOD DR,,FORT WORTH,TX,76109,,,,32.708662,-97.387423
TINA'S ON THE STRAND,2326 STRAND,,GALVESTON,TX,77550,,,,29.307404,-94.795421
VIDA BELLA ,1925 HUGHES LANDING BLVD.,,THE WOODLANDS,TX,77380,,,,30.169613,-95.470768
WHOLE EARTH PROVISION,1014  N. LAMAR BLVD.,,AUSTIN,TX,78703,,,,30.275688,-97.752247
WHOLE EARTH PROVISION CO.,4477 S. LAMAR BLVD. #200,,AUSTIN,TX,78745,,,,30.231026,-97.797301
WHOLE EARTH PROVISION,5400 E. MOCKINGBIRD LN.,,DALLAS,TX,75206,,,,32.836027,-96.774885
WHOLE EARTH PROVISION,11700 PRESTON RD.,,DALLAS,TX,75230,,,,32.908028,-96.80399
WHOLE EARTH PROVISION,2934 S. SHEPHERD,,HOUSTON,TX,77098,,,,29.738911,-95.411139
WHOLE EARTH PROVISION,2501 POST OAK BLVD.,,HOUSTON,TX,77056,,,,29.741974,-95.460015
WHOLE EARTH PROVISION,255 E. BASSE RD.,,SAN ANTONIO,TX,78209,,,,29.495037,-98.481249
WILD GRACE,700 MAIN ST,,GARLAND,TX,75040,,,,32.912487,-96.639166
WITTS END,3525 LONGMIRE RD. ,,COLLEGE STATION,TX,77845,,,,30.583056,-96.286737
WYN'S,2616 WOLFLIN AVE.,,AMARILLO,TX,79109,,,,35.193353,-101.86443
FANCY CLOSET PUERTO RICO,2599 AVE HOSTOS SUITE 8,,MAYAGUEZ,PR,682,,,,18.181938,-67.133802
ROCAS BOUTIQUE,1 MERRITMAC ST. UNIT 8,,NEWBURYPORT,MA,1950,,,,42.80965,-70.873196
STYLE HQ PTY LTD,"UNIT 11, 30-32 BEACONSFIELD STREET",,ALEXANDRIA,MA,2015,,,,0,0
SUSANNA,1776 MASSACHUSETTS AVENUE,,CAMBRIDGE,,2140,,,,42.385753,-71.11949
CARYN'S CORNER,695 ADAMS ST,,QUINCY,MA,2169,,,,42.25664,-71.034057
CAPE CHIC,129 FALMOUTH HEIGHTS RD UNIT 31,,FALMOUTH,MA,2540,,,,41.547807,-70.600266
CHATHAM T CO. INC,534 MAIN STREET UNIT 1,,CHATHAM,MA,2633,,,,41.680763,-69.958044
JEWELRY BOUTIQUE MAIN + CHATHAM INC,468 MAIN STREET,,CHATHAM,MA,2633,,,,41.679728,-69.956115
BJC CLOTHING CORP. DBA:SUNDANCE CLOTING,497 MAIN ST,,CHATHAM,MA,2633,,,,41.679802,-69.957351
GINGIES,23 K WHITE PATH,,S. YARMOUTH,MA,2664,,,,41.687838,-70.209468
GROOVE NEWPORT,474 THAMES ST.,,NEWPORT,RI,2840,,,,41.480009,-71.314211
TAMI - ANNS,54 BAY ST. ,,WESTERLY,RI,2891,,,,41.310758,-71.857232
MIRANDA'S ON MAIN (KEENE),1 MAIN ST. ,,KEENE,NH,3431,,,,42.933413,-72.278967
SERENDIPITY OF EXETER,39 WATER STREET,,EXETER,NH,3833,,,,42.981326,-70.945084
SPORTS STYLE,1233 SHELBURN ROAD,,S. BURLINGTON,VT,5043,,,,44.435717,-73.211058
STACKPOLE MOORE TRYON CO.,242 TURNBULL STREET,,HARTFORD,CT,6103,,,,41.786149,-72.543225
BK & CO,983 FARMINGTON AVE,,WEST HARTFORD,CT,6107,,,,41.761038,-72.744487
SWISH,57 WHITFIELD RD,,GUILFORD,CT,6439,,,,41.282395,-72.682616
LA MODA,2456 WHITNEY AVE,,HAMDEN,CT,6518,,,,41.386521,-72.900989
LITTLE EXPRESSIONS DBA: EXPRESSIONS,317 SUTE 215 RT. 34,,COLTSNECK,NJ,7722,,,,40.302848,-74.160911
"BARBARAS BOUTIQUE (LINWOOD, NJ)",14 CENTRAL SQUARE,,LINWOOD,NJ,8221,,,,39.366859,-74.59119
"KLOTHES KOVE, LLC.",9301 3 RD AVE. #5,,STONE HARBOR,NJ,8247,,,,39.05642,-74.759355
LJ MONGE RL,"EL CORTIJO LOCAL 1, SAN RAFAEL DR ESRAZO",,SAN JOSE,CA,10203,,,,40.780751,-73.977182
MILLION FASHION,177 ST NICHOLAS,,NEW YORK,NY,10033,,,,40.805769,-73.952941
SGES LLC. DBA:URBANEBOX,353 OLD HIGHWAY 30,,ESPERANCE,NY,12066,,,,42.757089,-74.255764
ELSBETH ROSE/MARILYN RINGWOOD,100SALT SPRINGS RD,,FAYETTEVILLE,NY,13066,,,,43.02979,-76.00436
BEV & CO.,1 - 3 SOUTH MAIN STREET,,HOMER,NY,13077,,,,42.637331,-76.178108
WILLOW TREE FLORIST & LANDSCAPING,7580 US HWY 11,,POTSDAM,NY,13676,,,,44.664536,-75.02866
VILLAGE TOGS,428 SOUTH BUFFALLO STREET,,ORCHARD PARK,NY,14127,,,,42.757127,-78.746282
OPAL ROSE,4067 WASHINGTON RD. ,,MC MURRAY,PA,15317,,,,40.265746,-80.127799
FELDMAN JEWELERS DBA SOMETHING CLEVER,1260 LIBERTY STREET,,FRANKLIN,PA,16323,,,,41.397968,-79.830589
THE LEMON TWIST,8541 CONNETICUT AVE,,CHEVY CHASE,MD,20815,,,,38.983759,-77.079449
CATCH CAN,10505 METROPOLITAN,,KENSIGTON,MD,20845,,,,0,0
JOSEPHS DEPT STORE,122 NORTH WASHINGTON STREET,,HAVRE DE GRACE,MD,21078,,,,39.548387,-76.090225
SOFIAS BOUTIQUE,200 N. GREENSBORO ST. SUITE B3,,CARRBORO,NC,27510,,,,35.911999,-79.070881
DUCK DUCK GOOSE,3523 BRASELTON HWY SUITE C-7,,DACULA,GA,30019,,,,34.07117,-83.914453
E JONES DBA: LIZ FASHIONS,184-2 MICALE STRIP PKWY,,FORT WALTON BEACH,FL,32548,,,,30.42057,-86.628607
HELLO GORGEOUS,1829 CORDOVA RD,,FT. LAUDERDALE,FL,33316,,,,26.098333,-80.131038
MELI MELO,938 OLD FORT ROAD,,FORT DEPOSIT,AL,36032,,,,31.9859,-86.591067
"SOUTHERN REFLECTIONS DBA: BELLA, LLC.",1049 IVY BRIDGE COURT,,PIKE ROAD,AL,36064,,,,32.351581,-86.093861
TERESA'S,8113 BAUGHN RD.,,MONTGOMERY,AL,36116,,,,32.285501,-86.228765
THE BUNKER BOUTIQUE,2631 MC INGRATE ROAD  SUITE#106,,HERNANDO,MS,38632,,,,34.80684,-89.994591
ASPIRE LLC,134 5TH STREET,,WEST DE MOINES,IA,50265,,,,41.570847,-93.709255
THERESAS BOUTIQUE,"2830 NEW PINERY ROAD, SUITE G",,PORTAGE,WI,53901,,,,43.565829,-89.471333
PAT LE VESQUE (CALL BEFORE SHIPPING),1141 4TH ST SO,,CANNON FALLS,MN,55009,,,,44.490605,-92.905872
ST. CROIX AIRPORT RETAIL DBA:UPTOWN MN,LT-3209 MSP AIRPORT,,ST. PAUL,MN,55111,,,,44.882218,-93.192513
"SCHEELS ALL SPORTS,INC. (SIOUX FALLS,SD)",SIOUX FALLS SCHEELS # 048 SF,,SIOUX FALLS,SD,57105,,,,43.543191,-96.745422
ENRIQUE ALFREDO ESTRADA,RIO COLORADO 240-7 COL. DEL VALLE,,SAN PEDRO GARZA GARCIA,MX,66220,,,,38.961334,-94.822249
LISA'S,4555 HWY 165,,KEO,AR,72083,,,,34.605995,-92.010024
"RAZZMATAZZ LLC. (ERID, OK)",3206 REDBRID LANE,,ERID,OK,73703,,,,36.426463,-97.915456
CIRCA 2000 FINE APPAREL,"7301 LONE STAR DRIVE, A115",,PLANO,TX,75024,,,,32.768734,-96.864895
"PAPPAGALLO-CLASSIQUES (FRISCO, TX)",6959 LEBANNON ROAD SUITE#118,,FRISCO,TX,75034,,,,33.122121,-96.824724
THE STORE IN LAKE HIGHLANDS,9850 WALNUT HILL LANE,,DALLAS,TX,75238,,,,32.877822,-96.716617
MARK ALLEN DBA CARUGGIS,1121 UPTOWN PARK BLVD SUITE 07,,HOUSTON,TX,77056,,,,29.756604,-95.457327
CHOICES & MORE,18920 FORTY SIX PARKWAY,,SPRING BRANCH,TX,78070,,,,29.881355,-98.408614
SOUTHERN BLUSH,1203 S SCURRY STREET,,BIG SPRING,TX,79720,,,,32.243372,-101.473101
FLOR DE SOL,372 S. EAGLE RD. SUITE#376,,EAGLE,ID,83616,,,,43.691728,-116.351592
ARTICLES,8510 MONTGOMERY NE STE# A-1,,ALBURQUERQUE,NM,87111,,,,35.129447,-106.546395
GW CLOTHING,1120 MUNIZ ROAD,,SANTA ROSA,NM,88435,,,,34.78565,-104.947625
Y TAYLOR,125 1/2 PUBLIC SQUARE,,BATESVILLE,MS,88606,,,,34.317474,-89.951626
SHELLCOR DBA LORI K,10411 STEVENSON ROAD,,STEVENSON,MD,211530602,,,,39.410622,-76.713185
BLACK INK HOLDINGS CORP.,THE SANDBOX IN THE CITY,,SASKATOON,SK,S7H 0J6,,(306) 955-6600,,0,0
NORTHERN ROOTS BOUTIQUE,2550 S. COLUMBIA RD. ,SUITE H,GRAND FORKS,ND,58201,,,,47.894767,-97.067933
